Type of Event,Event Verticals,Name of Event,Dates,Hours,Date of Last Year's Event,Date of Next Year's Event,Country,City,Venue,# Atendees of Last Event,# Exhibitors of Last Event,URL,Phone Number,E-mail,About the Event,Exhibitors,Attendees,Exhibitor Info,Link to Photos,Link to Videos,Facebook,Instagram,Linkedin,Twitter
Trade Show & Conference,Advertising,Outdoor Advertising Convention,26 Jul 2019-27 Jul 2019,10:00 AM - 05:30 PM (26 Jul 2019)|10:30 AM - 05:00 PM (27 Jul 2019),27-28 Jul 2018,Jul-20,India,Mumbai,Renaissance Mumbai Convention Centre Hotel,2000,40,http://www.oacasia.org/,+91 9987961323,delegates@vjmediaworks.com,"Leading OOH Event in India

The 15th Edition  Outdoor Advertising Convention (OAC) 2019, titled OOH 2.0! The Revolution Begins Here, to be held at Renaissance Mumbai Convention Centre Hotel, Powai, Mumbai during July 26-27 this year, will bring all key stakeholders of the OOH industry on a common platform to deliberate upon the new business opportunities and chart a roadmap for accelerated OOH growth.

http://www.oacasia.org/webpage/convention","Enkon,Promoflex Display Systems,Jyoti Display Pvt Ltd,Xtreme Media,Moving Walls,Sinex,Origins Advertising Pvt Ltd,Indian Roar LLP,Can Image Media Tech,Garuda Advertising,4 MarTech Labs,Book My Show-ADS,Ninja Media Creations,LOCAD Ads Everywhere,EverGlow LED Display Systems,Ozone,LG Business Solutions","Eligibility Criteria: Open to industry professionals
Fees: Contact required for further information
Attendee Registration","Sponsorship Fees: No information
Exhibitor Fees: Contact required for further information
Exhibitor Registration",http://www.oacasia.org/,,https://www.facebook.com/OACOutdoorAsia/,https://www.instagram.com/oacoutdoorasia/,https://www.linkedin.com/in/oacoutdoorasia/?ppe=1,https://twitter.com/OACOutdoorAsia
Trade Show & Conference,Advertising,AEJMC Conference,7 Aug 2019-10 Aug 2019,08:00 AM - 06:30 PM,6-9 Aug 2018,Aug-20,Canada,Toronto,Sheraton Centre Toronto,,31,http://aejmc.org/events/toronto19/,+1 803 798 0271,aejmchq@aol.com,"Investing in Our Futures

AEJMC has the largest audience of journalism and mass communication educators at the college level, all in one location. Reach more than 2,400 educators and administrators over four days by exhibiting, advertising or sponsoring at our AEJMC Toronto, Canada, Conference, August 7-10, 2019. There are multiple avenues for exposure at the AEJMC Conference

http://aejmc.org/events/toronto19/","Joint Book Display,Palgrave Macmillan,TTU College of Media & Communication,Columbia University Press,The Poynter Institute,Boston University, Division of Emerging Media Studies,Wiley-Blackwell,Stukent,Provalis Research,Rowman and Littlefield,SAGE Publishing,Bedford/ St. Martins/ Macmillan Leaning,Oxford University Press,Native American Journalism Association,Routledge, Taylor and Francis Group,Rubin Education,Boston University, Division of Emerging Media Studies,AEJMC Lounge,BEA","Eligibility Criteria: Open to industry professionals
Fees: AEJMC member -  $265 USD
Non-member - $385
Student AEJMC member - $175
Non-member student - $195
Retired member - $150
Attendee Registraiton","Sponsorship Fees: Advertising packages vary between $250 - $5.075
Contact required for further sponsorship opportunities
Exhibitor Fees: Standard booth - $725
Digital booth - $1.950
Exhibitor Registration",,,https://www.facebook.com/AEJMC,https://www.instagram.com/aejmc/,,https://twitter.com/aejmc
Conference,Advertising,ANA Digital & Social Media Conference,24 Jul 2019-26 Jul 2019,02:00 PM - 09:00 PM (24 Jul 2019)|07:30 AM - 05:00 PM (25 Jul 2019)|07:30 AM - 12:00 PM (26 Jul 2019),25-27 Jul 2018,Jul-20,USA,San Diego,Hilton San Diego Bayfront,,,https://www.ana.net/conference/show/id/DSM-JUL19,+212 697 5950,bliodice@ana.net,"Annual Event to Discuss Digital and Social Media Issues

The digital and social media landscape continues to change at an unprecedented pace. Whats cutting-edge today may be pass tomorrow.  The 10th annual ANA Digital & Social Media Conference will feature top CMOs and key leaders who will cover important topics such as AI, influencer marketing, voice, social media, chatbots, content marketing, measurement, and more.

https://www.ana.net/conference/show/id/DSM-JUL19",,"Eligibility Criteria: Open to industry professionals
Fees: Vary between $1.199 - $1.499
Corporate packages vary from $1.999 to $2.299
Attendee Registration",,,,https://www.facebook.com/ANAmarketers/,https://www.instagram.com/anamarketers/,https://www.linkedin.com/company/association-of-national-advertisers,https://twitter.com/anamarketers
Conference,Advertising,Advertising Week APAC,29 Jul 2019-1 Aug 2019,07:30 AM - 06:00 PM,30 Jul-2 Aug 2018,Jul-Aug 2020,Australia,Sydney,Luna Park Sydney,4000,,http://apac.advertisingweek.com/,+1 212 967 0091,james@stillwellpartners.com,"A Global Gathering of Marketing & Communication Leaders

Advertising Week APAC will feature unique media, marketing, technology and creative perspectives discussing key business trends and issues, that shape todays global industry. By night, #AWAPAC plays host to organized networking events and world-class entertainment, making this event a one-of-a-kind experience.

http://apac.advertisingweek.com/about/#target=whatweare",,"Eligibility Criteria: Open to industry professionals
Fees: NGen Delegate - A$299
Delegate - A$599
Super Delegate - A$1.099
Platinum Delegate - A$1.499
Attendee Registration",,,https://www.youtube.com/channel/UCBslwYsXPwcqBOZlp7t56-A,https://www.facebook.com/AdvertisingWeekAPAC/,https://www.instagram.com/awapac_/,https://www.linkedin.com/company/advertising-week-apac/,https://twitter.com/AWAPAC_
Conference,Advertising,Advertising Week New York,23 Sep 2019-26 Sep 2019,08:00 AM - 06:00 PM,1-4 Oct 2018,Sep-Oct 2020,USA,New York,Hudson New York,98000,,http://newyork.advertisingweek.com/,+1 212 967 0091,james@stillwellpartners.com,"A Week of Thoughtful Conversations with Leaders from Marketing, Advertising and Technology

Advertising Week is a worldwide gathering of marketing, advertising, technology and brand professionals. From daytime seminars and workshops featuring some of the industrys brightest minds to organized networking and world-class entertainment, Advertising Week is a one-of-a-kind experience.

http://newyork.advertisingweek.com/about/#target=whatweare",,"Eligibility Criteria: Open to industry professionals
Fees: NewGen Delegate - $239
Delegate - $519
Super Delegate - $899
Platinum Delegate - $1.869
Attendee Registration",,,https://vimeo.com/294635205,https://www.facebook.com/advertisingweek,https://www.instagram.com/advertisingweek/,https://www.linkedin.com/company/advertising-week/,https://twitter.com/advertisingweek
Conference,Advertising,Advertising Week Latam,3 Mar 2020-5 Mar 2020,09:00 AM - 09:00 PM,19-21 Feb 2019,Feb-Mar 2021,Mexico,Mexico City,COLORs,4000,,http://latam.advertisingweek.com/,+1 212 967 0091,james@stillwellpartners.com,"A Global Gathering of Marketing & Communications Leaders

Advertising Week Latin America takes unique media, marketing, brand, technology and broader industry communities throughout Mexico, Central America, South America, and the Caribbean. During The Week, they focus in on key business trends, issues, and conversations that help to shape todays global industry.

http://latam.advertisingweek.com/about/#target=whatweare",,"Eligibility Criteria: Open to industry professionals
Fees: Delegate - MXN $2.340
Registration will be opened.",,,http://www.advertisingweek.com/events/lt/2018/,https://www.facebook.com/AdvertisingWeekLATAM/,https://www.instagram.com/awlatam_/,https://www.linkedin.com/company/awlatam/,https://twitter.com/AWLATAM_
Conference,Advertising,Advertising Week Europe,16 Mar 2020-19 Mar 2020,08:00 AM - 06:00 PM,18-21 Mar 2019,Mar-21,United Kingdom,London,Picturehouse Central,35206,,http://europe.advertisingweek.com/,,james@stillwellpartners.com,"A Global Gathering of Marketing & Communications Leaders

Advertising Week Europe featured unique media, marketing, technology and creative perspectives discussing key business trends and issues, that shape todays global industry. By night, #AWEurope played host to organized networking events and world-class entertainment, making this event a one-of-a-kind experience.

http://europe.advertisingweek.com/about/#target=whatweare",,"Eligibility Criteria: Open to industry professionals
Fees: NewGen - 269
Delegate - 624
Super Delegate - 1.061
Platinum Delegate - 2.499
Registration will be opened.",,,http://www.advertisingweek.com/events/eu/2018/,https://www.facebook.com/AdvertisingWeekEurope/,https://www.instagram.com/AWEurope_/,https://www.linkedin.com/company/aweurope/,https://twitter.com/AWEurope_
Conference,Advertising,Advertising Week Asia,28 May 2019-30 May 2019,09:00 AM - 07:00 PM,14-17 May 2018,May-20,Japan,Tokyo,Tokyo Midtown,13174,,http://asia.advertisingweek.com/,+1 212 967 0091,james@stillwellpartners.com,"A Global Gathering of Marketing & Communication Leaders

Advertising Week is a worldwide gathering of marketing, advertising, technology and brand professionals. From daytime seminars and workshops featuring some of the industrys brightest minds to organized networking and world-class entertainment, Advertising Week is a one-of-a-kind experience.

http://asia.advertisingweek.com/about/
#target=whatweare",,"Eligibilityi Criteria: Open to industry professionals
Fees: Freshman Delegate - 10.000
Delegate - 50.000
Super Delegate - 70.000
Registration will be opened.
Attendee Registration",,,http://www.advertisingweek.com/events/as/2018/,https://www.facebook.com/AdvertisingWeekAsia/,https://www.instagram.com/awasia_/,https://www.linkedin.com/company/advertising-week-asia/,https://twitter.com/AWAsia_
Trade Show & Conference,Advertising,Digital Marketing World Forum Global,23 May 2019-24 May 2019,09:00 AM - 06:00 PM,16-17 Apr 2018,,United Kingdom,London,Business Design Centre,1200,60,https://www.digitalmarketing-conference.com/global/,+44 117 973 2353,hello@dmwf.co,"Learn Valuable Solutions, Be Inspired and Meet the Leaders in the Digital Marketing Ecosystem

Explore the latest trends & strategies within Digital Marketing and covering: Digital Marketing Technologies, Content Marketing, Influencer Marketing, Data, Analytics, Mobile, UX, CX, eCommerce, Digital Transformation, SEO, Video & Live content, Machine Learning and AI, Personalisation, Interest-based Advertisements, Voice Search, Chatbot and Blockchain.

https://www.digitalmarketing-conference.com/global/why-attend-dmwf/","Lobster,Infinity,Fifth & Blue,Vertical Leap,Content Square,Publishers Toolbox,Free Bird Film,Nucco Brain,Taboola,Sprinklr,Rix Digital,Statista,Builtvisible,Personify XP,Say It Right,Sportskred,Reflect Digital,Digital Streamers,Morphosis,Khoros","Eligibility Criteria: Open to industry professionals
Fees: One day - 495
Two days - 899
Attendee Registration","Sponsorship Fees: Contact required for further information
Exhibitor Fees: Contact required for further information
Exhibitor Registration",https://www.digitalmarketing-conference.com/global/photo-gallery/,https://www.youtube.com/channel/UCtmCaNGQow8oW43IMgnLrkQ,https://www.facebook.com/DigiMarketingWF,https://www.instagram.com/dmwfconference/,https://www.linkedin.com/groups/1161997/,https://twitter.com/DigiMarketingWF
Trade Show & Conference,Advertising,Digital Marketing World Forum North America,11 Sep 2019-12 Sep 2019,09:00 AM - 06:00 PM,7-8 Nov 2018,TBA,USA,New York,Brooklyn Expo Center,1000,50,https://www.digitalmarketing-conference.com/northamerica/#,+44 117 973 2353,hello@dmwf.co,"Exploring The Future of Digital Marketing Technologies

With a 10+ year history of bringing together the worldwide digital marketing community to tackle the challenges that the digital future presents. Delivering 2 days of top-level strategic content and digital marketing insights, networking, and discussion from leading global brands.

https://www.digitalmarketing-conference.com/northamerica/","Shutterstock,Isobar,InfluencerDB,Talkwalker,Crabbr,Verb,SocialPubli.com,Clientscape,Mobilewalla,Brandwatch","Eligibility Criteria: Open to industry professionals
Fees: Advance rate
One day - $465
Two days - $849
After 30 Aug 2019, midnight
One day - $495
Two days - $899
On 11 Sep 2019
One day - $549
Two days - $999
Attendee Registration","Sponsorship Fees: Contact required for further information
Exhibitor Fees: Contact required for further information
Exhibitor Registration",,,https://www.facebook.com/DigiMarketingWF/,https://www.instagram.com/dmwfconference/,https://www.linkedin.com/groups/1161997/,https://twitter.com/DigiMarketingWF
Trade Show & Conference,Advertising,Digital Marketing World Forum Europe,25 Nov 2019-26 Nov 2019,08:00 AM - 07:00 PM,19-20 Sep 2018,TBA,Netherlands,Amsterdam,"Elicium Center, RAI Amsterdam",800,40,https://digitalmarketing-conference.com/europe/,+44 117 973 2353,hello@dmwf.co,"Exploring The Future of Digital Marketing Technologies

Exploring the latest trends & strategies within Digital Marketing and covering Digital Marketing Technologies, Virtual Reality, Artificial Intelligence, Influencer Marketing, UX, CX, eCommerce, Content Marketing, Data, Analytics, and Mobile, this conference is not to be missed.

https://digitalmarketing-conference.com/europe/","Related Digital,Dzinga,Apifonica,Kompass,Lab Cave,Statista,SmartFrame,Buyapowa,IMA,Neurofied,Consent.io,Holofil,Twitter Counter,Veylinx,Roader,Flowbox,Startup Amsterdam","Eligibility Criteria: Open to industry professionals
Fees: Early bird price
One day - 399
Two days - 795
After 31 Aug 2019, midnight
One day - 465
Two days - 849
After 8 Nov 2019, midnight
One day - 495
Two days - 899
On 25 Nov 2019
One day - 549
Two days - 999
Attendee Registration","Sponsorship Fees: Contact required for further information
Exhibitor Fees: Contact required for further information
Exhibitor Registration",,,https://www.facebook.com/DigiMarketingWF,https://www.instagram.com/dmwfconference/,https://www.linkedin.com/groups/1161997/,https://twitter.com/DigiMarketingWF
Conference,Advertising,Future Social Media Strategy Forum,19 Aug 2019-20 Aug 2019,08:00 AM - 05:00 PM,31 May-1 Jun 2018,TBA,Australia,Melbourne,Bayview Eden Melbourne,,,https://ibrc.com.au/event/international-business-review-presentsthe-future-of-social-media-marketing-strategy-preparing-for-the-2019-social-shift/,+61 2 9896 0776,register@ibrc.com.au,"The Future Frontiers of Social Media

This two day agenda has been curated to ensure delegates leave feeling inspired to innovate and review their current social strategy. With social opportunity rising knowing where to place your focus next is paramount to staying relevant and engaging. Delegates will be taken on a journey through current pioneering social success and the future landscape currently shaping the next 12 months of social innovation.

https://ibrc.com.au/event/international-business-review-presentsthe-future-of-social-media-marketing-strategy-preparing-for-the-2019-social-shift/",,"Eligibility Criteria: Open to industry professionals
Fees: Normal rate - $2.495 + GST
Attendee Registration","Sponsorship Fees: Different packages available
Contact required for pricing information
Sponsorship Registration",,,,,,https://twitter.com/IBRConference
Conference,Advertising,Digital Media Africa,11 Sep 2019-12 Sep 2019,09:00 AM - 05:00 PM (11 Sep 2019)|09:30 AM - 05:00 PM (12 Sep 2019),23-Nov-18,TBA,South Africa,Sandton,Hilton Sandton,,,https://events.wan-ifra.org/events/digital-media-africa-2019,+27 11 888 0140,nkubeka@frayintermedia.com,"Africa's Premiere Digital Innovation and Revenue Conference

Africas media landscape has undergone substantial changes since publishers gathered for the first Digital Media Africa conference in 2016. Join us again in September 2019 when WAN-IFRA hosts the continent-wide gathering to explore new digital revenue models and how best to engage loyal readers.

https://events.wan-ifra.org/events/digital-media-africa-2019",,"Eligibility Criteria: Open to industry professionals
Fees: WAN-IFRA Members - $460
Non-Members - $570
Attendee Registration",,,,https://www.facebook.com/newspaperworld,,https://www.linkedin.com/company/wan-ifra/,https://twitter.com/NewspaperWorld
Conference,Advertising,Media Meet,29 Aug 2019-31 Aug 2019,09:00 AM - 06:00 PM,27-28 Jul 2018,Jul-Aug 2020,India,Bengaluru,Christ University,,,https://mediameet.christuniversity.in/home,,mediameet@christuniversity.in,"A Seminar organised by the  Department of Media Studies

Invariably all the domains of media - whether it be films, advertisement, public relations, journalism, social media, etc. - need to confirm to ethical standards. Challenges in the form of digital piracy, intellectual property rights, representation, trolls, fake news, paid news, ownership patterns, TRPs, user-driven content prioritization, etc. need to be addressed. Media Meet 2019 attempts to address such crucial issues related to media ethics and identify the ways forward.

https://mediameet.christuniversity.in/home",,"Eligibility Criteria: Open to industry professionals
Fees: Indian participants - INR 1.000
Scholars/students - INR 500
Oversea participants - $100
Attendee Registration",,,https://mediameet.christuniversity.in/about-us,,,,
Conference,Advertising,Digital Marketing Transformation,26 Aug 2019-27 Aug 2019,09:00 AM - 06:00 PM,4-5 Feb 2019,Feb-20,USA,Dallas,The Fairmont,,,https://mill-all.com/assemblies/digital-marketing-transformation-8,+1 212 256 9890,info@mill-all.com,"Strategies Driving Digital Marketing in 2019 and Beyond

The Digital Marketing Transformation Assembly will bring together North Americas most prominent digital marketing technology and business leaders from all major consumer-driven industries to discuss the latest technology, innovations, and strategies driving digital marketing in 2019 and beyond.

https://mill-all.com/assemblies/digital-marketing-transformation-8/#overview",,"Eligibility Criteria: This is a by invitation only event.
Open to industry professionals
Fees: Contact required for pricing information
Attendee Registration","Sponsorship Fees: Contact required for pricing information
Sponsorship Registration",,https://www.youtube.com/watch?v=ureX9TiMuMs&list=PLVnZ3nNLO_3IE2FO07NjLfB0QGq5FD-zR,https://www.facebook.com/MillenniumAlliance,https://www.instagram.com/millennium_alliance/,https://www.linkedin.com/company/the-millennium-alliance/,https://twitter.com/Mill_All
Conference,Advertising,Digital and Social Media Marketing Summit Toronto,27 Sep 2019,09:00 AM - 06:00 PM,,TBA,Canada,Toronto,Courtyard by Marriott Toronto Downtown,100,,https://www.testingmind.com/event/digital-and-social-media-marketing-toronto-2019/,+1 732 707 7884,contact.usa@testingmind.com,"Revolution of Digital Force in Marketing Space

Digital and Social Media Marketing Summit in Toronto, is a one day event focused on the strategy of utilizing the Digital and Social media potential to increase your brand presence and assuring your social media business approach. The conference is exclusively designed for strategist helping them deploy new thoughts and strategies approach to penetrate the market and build a strong market presence.

https://www.testingmind.com/event/digital-and-social-media-marketing-toronto-2019/",,"Eligibility Criteria: Open to industry professionals
Fees: Super early bird - $250
SEB (Group of 2) - $450
SEB (Group of 4) - $860
SEB (Group of 6) - $1.230
Attendee Registration","Sponsorship opportunity available
Contact required for further information",,,,https://www.instagram.com/testingmind/,https://www.linkedin.com/company/testingmind-consulting-pvt.-ltd./,https://twitter.com/testingmindcon
Conference,Advertising,Social Media Conference,9 Sep 2019-10 Sep 2019,10:00 AM - 06:00 PM (9 Sep 2019)|08:00 AM - 05:45 PM (10 Sep 2019),20-21 Sep 2018,Sep-20,Germany,Berlin,Quadriga Forum,100,,https://conferences.quadriga.eu/socialmedia,+49 30 84 85 9 198,help@quadriga.eu,"From Social to Human Media

The Social Media Conference brings together integrating stakeholders and focus on creating proper content using the right channels and improving internal processes measuring performance as well as identifying future trends.

https://conferences.quadriga.eu/socialmedia",,"Eligibility Criteria: Open to industry professionals
Fees: Smart rate (Valid until 2 Aug) - 1.290
Full price - 1.490
Additional seminars (two seminars) - 350 for each
Attendee Registration",,https://conferences.quadriga.eu/socialmedia/review,,,,,https://twitter.com/QConferences
Conference,Advertising,Future TV Advertising Forum Canada,10 Sep 2019,09:00 AM - 06:00 PM,20-Sep-18,Sep-20,Canada,Toronto,The Carlu,300,,https://www.futuretvads.com/canada,+44 20 7420 3252,,"Leading Event Focused on Driving Innovation Television Advertising in Canada

During this two-day conference, delegates debate how to evolve television to be better traded, targeted, data-led and measured. They also look at econometrics and discuss how the advertising industry proves the effectiveness of different media more accurately, determines long-term as well as short-term ROI and optimizes budget allocations.

https://www.futuretvads.com/canada/about-ftv-canada/",,"Eligibility Criteria: Open to industry professionals
Fees: 1 Day Delegate Pass Early Bird - CAD $495
Regular Rate - CAD $695
Attendee Registration",,,https://www.futuretvads.com/canada/videos-2018/,,https://www.instagram.com/mediatelevents/,https://www.linkedin.com/company/mediatel-events/,https://twitter.com/videonetnews
Conference,Advertising,Future TV Advertising Forum London,10 Dec 2019-11 Dec 2019,09:00 AM - 06:00 PM,5-6 Dec 2018,Dec-20,United Kingdom,London,Kings Place,350,,https://www.futuretvads.com,+44 20 7420 3252,,"Premier Strategy and Thought-Leadership Event for TV Advertising Globally

This year's forum is focused on making TV the best performance media it can be, delivering on short-term objectives as well as long-term brand building, and identifying the conditions needed to make TV the centrepiece of multi-channel marketing, including for direct-to-consumer and other digital-first brands.

https://www.futuretvads.com/","admo.tv,S&T - Strategy & Technology,Yospace,Synapse","Eligibility Criteria: Open to industry professionals
Fees: Super early bird - 795
Early bird rate - 995
Regular rate - 1.095
Attendee Registration",,,https://www.futuretvads.com/2018-video-presentations/,,https://www.instagram.com/mediatelevents/,https://www.linkedin.com/company/mediatel-events/,https://twitter.com/videonetnews
Conference,Advertising,Future TV Advertising Forum Manchester,6 Nov 2019,09:00 AM - 02:10 PM,06-Nov-18,Nov-20,United Kingdom,Manchester,The Comedy Store,200,,https://www.futuretvads.com/manchester/,+44 20 7420 3252,,"Leading Local Event for Advertising Agencies and Broadcoasters Based in the North of England

During this half-day conference, delegates will debate how you prove the value of TV for long-term brand building and sales, as well as short-term performance. It discusses advanced advertising, next-generation measurement, and finds out what the digital consumer wants.

https://www.futuretvads.com/manchester/about-ftv-manchester/",,Registration will be opened.,"Sponsorship opportunity available
Contact required for further information",,https://www.youtube.com/channel/UCasULBZmWlQVSUtSU2ANlfQ,,https://www.instagram.com/mediatelevents/,https://www.linkedin.com/company/mediatel-events/,https://twitter.com/videonetnews
Conference,Advertising,Future TV Advertising Forum Sydney,27 Feb 2020,08:45 AM - 06:00 PM,28-Feb-19,Feb-21,Australia,Sydney,Doltone House,200,,https://www.futuretvads.com/sydney/,+44 20 7420 3252,,"The Future of Brands, Agencies and TV Advertising in ANZ

Future TV Advertising Forum Sydney investigates how the television industry can win the race to combine the best context and reach with household-level targeting, ensuring it masters both content and data before digital rivals like Google and Facebook can do the same. It also explores how the TV ecosystem can provide a holistic understanding of the advertising consumers have seen across all screens, and the online and offline actions that followed exposure.

https://www.futuretvads.com/sydney/about-ftv-sydney/",,"Eligibility Criteria: Open to industry professionals
Fees: Tickets sold out. No info
Attendee Registration",,,https://www.futuretvads.com/sydney/2019-video-presentations/,,,,https://twitter.com/videonetnews
Conference,Advertising,Future TV Advertising Forum Amsterdam,16 Sep 2019,01:00 PM - 05:00 PM,,Feb-20,Netherlands,Amsterdam,Rosarium Amstelpark,,,https://www.futuretvads.com/amsterdam/,+44 20 7420 3252,,"Exploring The Future of TV as an Advertising Medium in the Benelux Region

Future TV Advertising Forum Amsterdam is firmly focused on the expectations of media buyers in Benelux and whether television can meet them. This is the latest in the market-leading event series that includes London, Toronto, Sydney and Manchester. Join us for an afternoon of thought-leadership and relaxed networking that will deliver some serious ROI on your time investment.

https://www.futuretvads.com/amsterdam/about-ftv-amsterdam/",,"Eligibility Criteria: Open to industry professionals
Fees: 235,95 incl. VAT
Contact required for group discounts
Attendee Registration",,,,,https://www.instagram.com/mediatelevents/,https://www.linkedin.com/company/mediatel-events/,https://twitter.com/videonetnews
Trade Show & Conference,Advertising,Brand Licensing Europe,1 Oct 2019-3 Oct 2019,09:00 AM - 05:00 PM (1 Oct 2019-2 Oct 2019)|09:00 AM - 04:00 PM (3 Oct 2019),9-11 Oct 2018,Oct-20,United Kingdom,London,ExCeL London,7800,260,https://www.brandlicensing.eu/,,Laura.Freedman-Dagg@ubm.com,"The Definitive Event for the European Brand Licensing Industry

Brand Licensing Europe is the only pan-European event dedicated to licensing and brand extension, bringing together 280+ leading brand owners with 7,500+ retailers, licensees and manufacturers for three days of deal-making, networking and trend spotting. BLE is a must-attend event for anyone looking to discover and secure deals with the hottest brands, characters and images available for licensing.

https://www.brandlicensing.eu/about/about-the-event","Activision l Blizzard,Arsenal FC,AC Milan,Automobili Lamborghini,BANDAI NAMCO Entertainment Europe S.A.,BBC Studios,Carbon 12.011 Licensing,CHF Entertainment Limited,CPLG / DHX Media,DRi Licensing,emoji company GmbH,European & Global Licensing BV,Fashion UK & Global Licensing,FC Barcelona,FC Internazionale Milano,Global Brands Group,Hasbro Consumer Products,Hyundai Technology,JCB Consumer Products,Juventus Football Club","Eligibility Criteria: Open to industry professionals and trade visitors
Fees: Free
Attendee Registration","Sponsorship Fees: Contact required for further information
Exhibitor Fees: Contact required for further information
Exhibitor Registration",,https://www.youtube.com/channel/UCmCH3PM8weiJ3e9NlQKfb4g?view_as=subscriber,https://www.facebook.com/brandlicensingeurope,https://www.instagram.com/global_licensing/,https://www.linkedin.com/showcase/17878088/,https://twitter.com/bleurope
Trade Show & Conference,Advertising,Affiliate Summit East,11 Aug 2019-13 Aug 2019,09:00 AM - 06:00 PM,29-31 Jul 2018,Jul-Aug 2020,USA,New York,New York Marriott Marquis,5000,310,https://www.affiliatesummit.com/east,+44 20 7384 7762,robert@affiliatesummit.com,"The Marketing Industry's Premier Global Event

During August 11 - 13, 2019, thousands of digital marketers will gather at the New York Marriott Marquis for the performance marketing industrys premier global event, Affiliate Summit East 2019 (#ASE19). These decision makers are comprised of online publishers, influencers, media owners, traffic sources, advertisers, global brands, networks, technology firms, agencies, and other solution providers. There is no substitute for being here, demonstrating your solutions and building face-to-face relationships.

https://www.affiliatesummit.com/east","AdAction Interactive,Adsterra Network,Allswell,Brand Cycle,ClickBooth,Collosus Media, LLC,Digital Media Solutions,Everflow.io,Flex Marketing Group,Go4Clients,Groupon,Horizon Gold Card,Intermaxgroup AG,LeadsGate,Lincoln Concepts Manamagement,MerchantX,Nutralight ADS,Paysafe,Poplar Marketing LLC,Soleo","Eligibility Criteria: Open to industry professionals and trade visitors
Fees: VIP - $899
Networking Plus - $599
Networking - $499
AM Days Workshops Only - Free
Attendee Registration","Sponsorship Fees: Various sponsorship packages available
Contact required for further information
Exhibitor Fees: Booth options start from $7.018
Standard Meet Market Table - $7.000
Corner Meet Market Table - $7.500
Premium Meet Market Table - $8.000
Premium Corner Meet Market Table - $9.000
Exhibititon & Sponsorship Packages",,https://www.youtube.com/playlist?list=PL48OSfuVxL6W6cAL2jl8iPOkrx8Sfw7A-,https://www.facebook.com/AffiliateSummit,https://www.instagram.com/affiliatesummit,https://www.linkedin.com/company/affiliate-summit,https://twitter.com/affiliatesummit
Trade Show & Conference,Advertising,Affiliate Summit Asia Pacific,1 Oct 2019-2 Oct 2019,09:00 AM - 06:00 PM,1-3 Oct 2018,Oct-20,Singapore,,Sands Expo Centre,600,70,https://www.affiliatesummit.com/asia,+44 20 7384 7762,robert@affiliatesummit.com,"Leading Marketing Show in the Region

A two-day exhibition that will feature the key networks and technology providers in Asia, as well as the current Affiliate Summit Marketplace showcasing the region's leading, and up-and-coming advertisers. Content created by our Affiliate Summit APAC advisory board  covering compliance, payments, tracking, innovation and all the latest industry challenges and opportunities.

https://www.affiliatesummit.com/asia","1XBet,Cashback World,Clickwise,CMO Asia,Leadbit,Qatar Airways,Rakuten Marketing,Skimlings,Webeye,Sentience, Inc.,Partnerize,Optimise,Involve Asia Technologies SDN BHD,Hastraffic,Chinesean,Avantlink,Anolbe,Accesstrade by Interspace,Webgains,AWIN","Eligibility Criteria: Open to indusry professionals and trade visitors
Fees: VIP - $650
Networking - $350
Networking Plus - $500
Attendee Registration","Sponsorship Fees: Packages vary between $1.300 - $10.500
Exhibitor Fees: 3m x 3m Schell Scheme Standard
Prior Friday, June 21 - $4.500
June 22 - August 23 - $5.500
August 24 - Sep. 27 - $6.500
Full Price - $7.500
3m x 3m Shell Scheme Corner
Prior Friday, June 21 - $5.000
June 22 - August 23 - $6.000
August 24 - Sep. 27 - $7.000
Full Price - $8.000
Exhibitor Registration",,,https://www.facebook.com/AffiliateSummit,https://www.instagram.com/affiliatesummit,https://www.linkedin.com/company/affiliate-summit,https://twitter.com/affiliatesummit
Trade Show & Conference,Advertising,Affiliate Summit West,27 Jan 2020-29 Jan 2020,08:00 AM - 06:30 PM,6-8 Jan 2019,Jan-21,USA,Las Vegas,Paris Las Vegas Hotel,6000,300,https://www.affiliatesummit.com/west,+44 20 7384 7762,robert@affiliatesummit.com,"The Performance Marketing Industry's Premier Global Event

Attending high-level decision makers are comprised of online publishers, influencers, media owners, traffic sources, advertisers, global brands, networks, technology firms, agencies, and other solution providers. They come from over 80 countries looking for new connections, innovative visions, cutting-edge technologies, and to get a better understanding of how the best businesses are leveraging them to grow and improve their bottom line.

https://www.affiliatesummit.com/west","AdAction Interactive,Acquire Interactive, LLC,Adskeeper,Affiliate Nutra,Cake,Click4Ads,ClickDealer,Dimoco Carrier Billing,Engage IQ,ETN America,Evoleads,Frontpoint,Globalwide Media,Go4 Clients,IGain,Leadbolt,Leadspedia,Mantra Digital,P2 Worldwide,Stellar Data Recovery Inc.","Eligibility Criteria: Open to industry professionals and trade visitors
Fees: VIP - $700
Networking Plus - $380
Networking - $280
Attendee Registration","Sponsorship Fees: $750 - $10.000
Exhibitor Fees: Various Booth Options
Prior October 18 - from $5.750
October 19 - December 6 - from $6.500
December 7 - January 24 - from $7.250
After January 24 - from $8.000
Standard Meet Market Table
Prior October 18 - $5.000
October 19 - December 6 - $6.000
December 7 - January 24 - $7.000
After January 24 - $7.000
Corner Meet Market Table
Prior October 18 - $5.500
October 19 - December 6 - $6.500
December 7 - January 24 - $7.500
After January 24 - $7.500
Premium Meet Market Table
Prior October 18 - $6.000
October 19 - December 6 - $7.000
December 7 - January 24 - $8.000
After January 24 - $8.000
Premium Corner Meet Market Table
Prior October 18 - $7.000
October 19 - December 6 - $8.000
December 7 - January 24 - $9.000
After January 24 - $9.000
Exhibitor & Sponsor Registration",,https://www.youtube.com/playlist?list=PL48OSfuVxL6XjUyz4PDcMljuoJRAghZQw,https://www.facebook.com/AffiliateSummit,https://www.instagram.com/affiliatesummit,https://www.linkedin.com/company/affiliate-summit,https://twitter.com/affiliatesummit
Trade Show & Conference,Advertising,Affiliate Summit Europe,25 Mar 2020-27 Mar 2020,08:00 AM - 06:30 PM,12-14 Mar 2019,Mar-21,Netherlands,Amsterdam,RAI Amsterdam,2000,70,https://www.affiliatesummit.com/euro,+44 20 7384 7762,robert@affiliatesummit.com,"The European Edition of Leading Marketing Event

Affiliate Summit Europe will feature the biggest stakeholders in the European affiliate marketing industry  packed with engaging presentations and panels covering the latest industry trends, analysis, and challenges.

https://www.affiliatesummit.com/euro","AWIN,Audeince Serv,Bedpage Classfieds Pvt Ltd,Engageya,Has Offers by Tune,IGB Affiliate,Landing Page Guys,Masters in Cash,Netopartners,Opinions 4 Good,Optimus Performance Marketing,Outbrain,Paxum,Rakuten Marketing,Smsedge,TrackAd,Xverify,What The Aff,Trafficon","Eligibility Criteria: Open to industry professionals and trade visitors
Fees: Networking - $379
VIP - $629
Affiliate - Free
Advertiser - Free
Attendee Registration","Sponsorship Fees: Starts from $1.500
Exhibitor Fees: 3x3 Standard Shell Scheme
Prior Friday, January 25 - $6.120
January 26 - February 22 - $6.870
After Friday, February 22 - $7.620
Standard Meet Market Table
December 15 - January 25 - $5.350
January 26 - February 22 - $6.100
After Friday, February 22 - $6.850
Corner Meet Market Table
December 15 - January 25 - $5.920
January 26 - February 22 - $6.760
After Friday, February 22 - $7.420
Exhibitor Registration",,https://www.youtube.com/watch?v=CV7W5m6pXlc,https://www.facebook.com/AffiliateSummit,https://www.instagram.com/affiliatesummit,https://www.linkedin.com/company/affiliate-summit,https://twitter.com/affiliatesummit
Conference,Advertising,Influence,27 Jan 2020-29 Jan 2020,TBD,,Jan-21,USA,Las Vegas,Paris Las Vegas Hotel,,,https://www.affiliatesummit.com/influence,+44 20 7384 7762,robert@affiliatesummit.com,"Exclusive Affiliate Marketing Event

Hear case studies from brands & agencies that work successfully with influencers. Understand how influencer marketing accelerates brand value across all platforms. Meet and get ideas from the biggest influencers in the world.

https://www.affiliatesummit.com/influence-vip-benefits",,"Eligibility Criteria: Open to Affiliate Summit East VIP & Influence passholders
Fees: Contact required for pricing information
Attendee Registration","Sponsorship opportunity available
Contact required for further information
Sponsorship Registration",,,https://www.facebook.com/AffiliateSummit,https://www.instagram.com/affiliatesummit,https://www.linkedin.com/company/affiliate-summit,https://twitter.com/affiliatesummit
Trade Show & Conference,Advertising,Affiliate World Europe,8 Jul 2019-9 Jul 2019,11:00 AM - 05:30 PM,18-20 Jul 2018,Jul-20,Spain,Barcelona,Fira de Barcelona Montjuc,3000,110,https://affiliateworldconferences.com/europe/,,info@awconf.com,"The World's Premier Gathering of Influential Performance Marketers & Ecommerce Entrepreneurs

You will network with the industry's brightest minds, absorb mastermind-level content on stage, and be exposed to an exhibition floor overflowing with opportunities to push your career forward.

https://affiliateworldconferences.com/europe/","Evoleads,Funhell,Direct Affiliate,Creative Clicks,Clix Scale,Binomo,Affiledge,FraudScore,Inflecto Media,Leadspedia,MagicAdz,Moar Offers,Multilogin,Webpilots,Outbrain,Poweradspy,Taboola,TrackAd,Zenith Labs,TrustPay","Eligibility Criteria: Open to industry professionals and trade visitors
Fees: Contact required for pricing information","Exhibit-only and sponsorship options available
Contact required for pricing information
Exhibitor Registration",,https://www.youtube.com/playlist?list=PL_jnBBXyMhkOs4tBWnmKLFKTq4MnPr728,https://www.facebook.com/affiliateworldconferences/,https://www.instagram.com/AWConferences/,,https://twitter.com/AWConferences
Trade Show & Conference,Advertising,Affiliate World Asia,4 Dec 2019-5 Dec 2019,09:00 AM - 05:00 PM,5-7 Dec 2018,Dec-20,Thailand,Bangkok,Bangkok Convention Centre,3000,110,https://affiliateworldconferences.com/asia/,,info@awconf.com,"The Offline Meeting Place for Top Performance Marketers and Ecommerce Entrepreneurs

You will network with the industry's brightest minds, absorb mastermind-level content on stage, and be exposed to an exhibition floor overflowing with opportunities to push your career forward.

https://affiliateworldconferences.com/asia/","Google,Facebook,Shopify,Mobidea,Mobvista,Terra Leads,Yeahmobi,Outbrain,Stm,Mobusi,Kimia,Cake,Mgid,Voluum,Zeropark",,,,,,,,
Trade Show & Conference,Advertising,ad:tech London,25 Sep 2019-26 Sep 2019,10:00 AM - 04:00 PM (25 Sep 2019)|09:50 AM - 06:00 PM (26 Sep 2019),26-27 Sep 2018,Sep-20,United Kingdom,London,Olympia,17000,67,https://www.technologyformarketing.co.uk/adtech,,g.ives@closerstillmedia.com,"Actionable Insight Derived From Data

Technology for Marketing and ad:tech London are the UK's only events dedicated to martech and adtech. One spot for marketers and advertisers to nurture their next big idea. One place to gather actionable inspiration from marketing and avertising gurus who will share their glimpse of the future.

https://www.technologyformarketing.co.uk/why-visit","Zoho Corporation,Webeo,VL Digital Ltd,trovero (Switzerland) AG,Synapta,SplashBI,8 Million Stories Ltd,AdPolice GmbH,Animation Outsourced,AWA Digital,Bureau van Dijk,Data Dwell Ltd,dotdigital,eSales Hub,Dubai Media City,Force24,GetResponse,Lead Forensics Ltd,OneTrust,Roistat","Eligibility Criteria: Open to industry professionals
Fees: Free
Attendee Regi?tration","Sponsorship Fees: No information
Exhibitor Fees: Contact required for further information
Exhibitor Registration",https://www.technologyformarketing.co.uk/technology-for-marketing-2018,,https://www.facebook.com/Adtech-London-788775357809871,,https://www.linkedin.com/groups/1987314,https://twitter.com/adtechLDN
Trade Show & Conference,Advertising,Festival of Marketing,10 Oct 2019-11 Oct 2019,08:55 AM - 05:45 PM (10 Oct 2019)|08:55 AM - 04:50 PM (11 Oct 2019),10-11 Oct 2018,Oct-20,United Kingdom,London,Tobacco Dock,,,https://www.festivalofmarketing.com/mwlive-welcome-page,+44 2039 175 122,hello@marketingweekmasters.com,"The Application of Inspiration

As the largest global event dedicated to brand marketers, the Festival reflects the very nature of marketing  seamlessly blending inspiration and practical application. With amazing headliners, 12 stages of content, insightful speakers and the Festival City brimming with ideas and solutions to your challenges, you will be part of an experience like no other.

https://www.festivalofmarketing.com/about-the-festival","AWIN,Adverity,Belu Water,BIMA,Change Please,Chelsea Apps Factory,Cognizant,Cvent,Datorama,Econsultancy,Facebook,Greenlight Digital Ltd,IBM,Jaywing,McCann Worldgroup,McKinsey,Nielsen Marketing Cloud,Oracle Corporation UK Ltd,Prezi,RedEye Optimisation","Eligibility Criteria: Open to industry professionals
Fees: Festival Pass - 1195 + VAT
Lite Pass - 895 + VAT
Platinum Pass - 1.995 + VAT
Young Marketer - 495 + VAT
Attendee Registration","Exhibition and sponsorship opportunities available
Contact required for further information
Exhibitor Registration",https://www.festivalofmarketing.com/attend/2018-Festival-Highlights,https://www.festivalofmarketing.com/attend/2018-Festival-Highlights,https://www.facebook.com/festofmarketing,https://www.instagram.com/festofmarketing,https://www.linkedin.com/company/festival-of-marketing,https://twitter.com/FestofMarketing
Trade Show & Conference,Advertising,PRSA International Conference,20 Oct 2019-22 Oct 2019,09:00 AM - 06:30 PM (20 Oct 2019)|08:00 AM - 05:30 PM (21 Oct 2019)|08:00 AM - 01:45 PM (22 Oct 2019),7-9 Oct 2018,Oct-20,USA,San Diego,Marriott Marquis San Diego Marina,3000,50,http://apps.prsa.org/Conferences/InternationalConference,+1 800 350 0111,john.kesaris@prsa.org,"Explore How PR Affects Your Bottom Line

The PRSA International Conference in San Diego will spotlight the intersection of technology and media, and lead the competition by providing unparalleled information, strategies and tools for the new trends impacting the industry  essential to your professional success. This years Conference will expand your network with powerful colleague connections and enhance your skill set with the latest best practices.

http://apps.prsa.org/Conferences/InternationalConference/about/","Brandpoint,Cision,Business Wire,Critical Mention,Global Alliance,LexisNexis,PoliteMail,PublicRelay,Rockdove Solutions,TVEyes,YouGov,Signal A.I.,Rockdove Solutions,Meltwater,Intrado,FIU Communication and Journalism,Crisp,BurrellesLuce,Columbia University,George Washington University","Eligibility Criteria: Open to industry professionals
Fees: Full Registration Package - $1.395 (by 13 Sep), $1.695 (after 13 Sep)
Attendee Registration","Sponsorship Fees: Packages vary between $2.500 - $30.000.
Sponsorship include opportunity for exhibition.",,,,,,
Trade Show,Advertising,Reklama,21 Oct 2019 -24 Oct 2019,10:00 AM - 06:00 PM (21 Oct 2019-23 Oct 2019)|10:00 AM - 04:00 PM (24 Oct 2019),25-28 Oct 2018,Oct-20,Russia,Moscow,Expocentre Fairgrounds,13000,228,http://www.reklama-expo.ru/en/,+7 499 795 37 99,centr@expocentr.ru,"International Specialized Exhibition for Advertising

Latest technology solutions, top products and world trends. Source of inspiration and the most effective tool to achieve positive financial result!

http://www.reklama-expo.ru/en/","AsteDru,EZ Inc,Bigprinter,LBL Print,Publish.ru,Fastmet,Dar Expo Display,Stark-Cotton,Stanber,A-Service,August Borg Printshop,WuJiang YuXing Metal Art Decoration Co. Ltd.,Badge Online,Gantry LLC,GraverMark Ltd.,Zenon Sign Supply,LanDream Ltd.,PromEnergoGroup,Russcom-Graphiks,Sky Technology","Eligibility Criteria: Open to industry professionals and trade visitors
Fees: Contact required for pricing information
Attendee Registration","Sponsorship Fees. No information
Exhibitor Fees: Contact required for further information
Exhibitor Registration",http://www.reklama-expo.ru/en/photo/2018/01/,https://www.youtube.com/watch?list=PLuNSJez-u8QcFTMMGnks8HQfq9ieM8ciz&v=mVYT31Y9_zY,,,,
Trade Show & Conference,Advertising,Path to Purchase Expo,13 Nov 2019-14 Nov 2019,08:30 AM - 04:15 PM (13 Nov 2019)|08:15 AM - 01:00 PM (14 Nov 2019),2-4 Oct 2018,Oct-Nov 2020,USA,Chicago,Hyatt Regency Chicago,,70,https://www.path2purchaseexpo.com/2019/262433,+1 773 992 4408,kdoering@ensembleiq.com,"The World's Largest Gathering of Shopper-Centric Professionals Focused on the Commerce Landscape

P2PX is the premier industry event for shopper-centric professionals, and the perfect platform to enhance your company's visability, reconnect with current business partners and network with new contacts. 

https://www.path2purchaseexpo.com/2019/attendees","Connected Marketing,PureRED,FCB/RED,SmartCommerce,TPN,Canadian Grocer,Chain Store Age,Consumer Goods Technology,Network of Executive Women,Progressive Grocer,Retail Leader,Shopper Marketing,StoreBrandsExhibitor/Sponsor List","Eligibility Criteria: Open to industry professionals & trade visitors
Fees: Brand Attendee All-Access Pass
Member - $499
Non-member - $699
Agency/Solution Provider Attendee All Access Pass
Member - $1.199
Non-member - $1.499
Campus-only Pass
Member - Free
Non-member - $100
Attendee Registration","Sponsorship opportunities available
Contact required for further information
Sponsorship Registration",https://www.path2purchaseexpo.com/2019/attendees,https://www.youtube.com/channel/UCA6JGs70eF_VZhPrs9PSL_w,http://facebook.com/p2pinstitute,http://instagram.com/path2purchaseiq,https://www.linkedin.com/company/the-path-to-purchase-institute/,http://twitter.com/path2purchaseiq
Trade Show & Conference,Advertising,ad:tech Mumbai,13 Nov 2019-14 Nov 2019,09:00 AM - 06:00 PM,28-29 Nov 2018,Nov-20,India,Mumbai,JW Marriot Mumbai Sahar,5294,,https://mumbai.ad-tech.com/,+91 956 090 7369,urmi.mukherjee@comexposium.com,"Home of Industry Shaping Advertising and Marketing technology

ad:tech is the original industry authority for marketing and media technology, where marketing, technology and media communities assemble to share new ways of thinking, build strong partnerships, and define new strategies to compete in an ever-changing marketplace.

https://mumbai.ad-tech.com/about",,"Eligibility Criteria: Open to industry professionals and trade visitors
Fees: Visitor Pass - Free
All Access Pass - INR 17.500 + Taxes
All Access Pass with Stay
1 Night Stay - INR 26.500 + Taxes
2 Nights Stay  - INR 38.000 + Taxes
Attendee Registration","Sponsorship Fees: Contact required for further information
Exhibitor Fees: Contact required for further information
Exhibitor Registration",,https://www.youtube.com/watch?v=3IEestnrHkk,https://www.facebook.com/adtechindia/,,https://www.linkedin.com/in/adtechindia/,https://twitter.com/adtechIndia?ref_src=twsrc%5Etfw
Trade Show & Conference,Advertising,ad:tech Tokyo,27 Nov 2019-28 Nov 2019,09:00 AM - 06:00 PM,4-5 Oct 2018,Oct-Nov 2020,Japan,Tokyo,Tokyo International Forum,15000,100,http://www.adtech-tokyo.com/en/,+81 3 5221 9000,adtech@comexposium-jp.com,"Asia's Largest Marketing Event

ad:tech tokyo has grown into the largest international marketing conference in Asia. Last year, the number of Brand Advertisers at conference marked a record high. This is the 10th year anniversary 2019 marks the 11th year of ad:tech Tokyo and we would like to make this years conference not only more exciting for connecting with industry peers, but also a great opportunity to hear and learn about state of the art marketing and management.

http://www.adtech-tokyo.com/en","Imagine123RF K. K.,Appier Japan,CINC Corp,Click Tech Limited,Digital Stacks Corporation,FINC Technologies Inc.,Hotto Link Inc.,J-Stream Inc.,Kataribe Inc.,Kidstar Inc.,Kochava Inc.,Nint Inc.,Repro Inc.,Ricoh Company Ltd. ,Remerge KK,Shutterstock,Smartly.io,Taboola Japan KK,Talkwalker,Yappli Inc.","Eligibility Criteria: Open to industry professionals and trade visitors
Fees: Visitor Pass - Free
Full Conference Pass - JPY 97.900
One Day Pass - JPY 58.300
Attendee Registration","Sponsorship & exhibition opportunities available
Contact required for further information",,,https://www.facebook.com/adtech.tokyo.japan/,,,https://twitter.com/adtechjp
Trade Show & Conference,Advertising,ASI Show Orlando,5 Jan 2020-6 Jan 2020,08:30 AM - 06:00 PM,3-5 Jan 2019,Jan-21,USA,Orlando,Orange County Convention Center West Building,600,,https://www.asishow.com/shows/2020/orlando/,+1 800 546 3300,,"Discovery Starts Here

ASI Show Orlando is the first and biggest trade show on the East Coast, allowing you to infuse excitement into your product offerings and accelerate sales at the beginning of the year. Make connections with over 600 suppliers looking provide the new products and quick turnaround time you need to be a valuable and trusted partner to your clients.

https://www.asishow.com/shows/2020/orlando/","3D Domed Labels Inc,Ad Bands Plus,Brighter Promotions Inc,CGNPromotions.com,Diamondback Branding LLC,Digital Labels,Eyevertising,Greater China,Moderne Glass Company Inc,Orbus Exhibit & Display Group,Panther Vision,Power Sales And Advertising,Sanford Business-To-Business,StrombergBrand,The Leslie Company Inc,Tranter Graphics Inc,Unicorn Graphics,Vertical Imprints,Water Promotions Inc,Wonderland Promo Inc","Eligibility Criteria: Open to industry professionals and trade visitors
Fees: Contact required for further information
Registration will be opened.
Attendee Registration","Sponsorship Fees: Contact required for further information
Exhibitor Fees: Standard 10x10 booth - $2.793
Booth Packages
Marketing Package - $575
Furniture Packages - $500 - $625
Interactive Meeting Space - $1.575
Special Exhibit Options
Premium locations - $199 per 10x10 booth
Corner(s) booths - $399 per corner
Island - $1.596 per island (4 corners)
Hanging sign - $199 per 10x10 booth in advance/$300 on-site
Aisle span -  $199 per 10x10 booth in advance/$300 on-site
Extended Height - $199 per 10x10 booth in advance/$300 on-site
Exhibitor Registration",https://cdn.asishow.com/asishow/ShowExcitement/OR19/,,https://www.facebook.com/asishow,https://instagram.com/theasishow/,https://www.linkedin.com/company/asi-show/,https://twitter.com/TheASIShow
Trade Show & Conference,Advertising,ASI Show Fort Worth,4 Feb 2020-5 Feb 2020,08:30 AM - 06:00 PM,5-6 Feb 2019,Feb-21,USA,Fort Worth,Fort Worth Convention Center,500,,https://www.asishow.com/shows/2020/fort-worth/,+1 800 546 3300,,"The First Major Show in the #1 Region for Promotional Product Sales and Product Sourcing

Scheduled at the beginning of the sales year, ASI Show Fort Worth is your first opportunity in the Southwest to create long-lasting business relationships. Make connections with over 500 suppliers looking provide the new products and quick turnaround time you need to be a valuable and trusted partner to your clients.

https://www.asishow.com/shows/2020/fort-worth/","A T Cross Company,ADG Promotional Products,Beacon Promotions Inc,Best Promotions USA LLC,BIC Graphic NA,Catalog Courier,Discount Labels,Emblematics Inc,Fey Promotional Products Group,Goldstar,Kittrich Canopy & Promotions,Magnets In Print,Midsouth Digitizing & Graphics,Orbus Exhibit & Display Group,Power Sales And Advertising,Premco Associates,Scalable Press,Strand Art Co Inc,Supreme Color Graphics,Tranter Graphics Inc","Eligibility Criteria: Open to industry professionals and trade visitors
Fees: Contact required for further information
Registration will be opened.
Attendee Registration","Sponsorship Fees: Contact required for further information
Exhibitor Fees: Standard 10x10 booth - $2.793
Booth Packages
Marketing Package - $575
Furniture Packages - $500 - $625
Interactive Meeting Space - $1.575
Special Exhibit Options
Premium locations - $199 per 10x10 booth
Corner(s) booths - $399 per corner
Island - $1.596 per island (4 corners)
Hanging sign - $199 per 10x10 booth in advance/$300 on-site
Aisle span -  $199 per 10x10 booth in advance/$300 on-site
Extended Height - $199 per 10x10 booth in advance/$300 on-site
Exhibitor Registration",https://cdn.asishow.com/asishow/ShowExcitement/fw19/,,https://www.facebook.com/asishow,https://instagram.com/theasishow/,https://www.linkedin.com/company/asi-show/,https://twitter.com/TheASIShow
Trade Show & Conference,Advertising,ASI Show Chicago,22 Jul 2020-23 Jul 2020,08:30 AM - 06:00 PM,9-11 Jul 2019,Jul-21,USA,Chicago,McCormick Place North Building,500,,https://www.asishow.com/shows/2020/chicago/,+1 800 546 3300,,"Discovery Starts Here

ASI Show Chicago is centrally located in the U.S. mid-year, allowing you to infuse excitement into your product offerings and accelerate sales leading up to the busy back-to-school and holiday seasons. Make connections with over 500 suppliers looking provide the new products and quick turnaround time you need to be a valuable and trusted partner to your clients.

https://www.asishow.com/shows/2020/chicago/","A. T. Designs,Ameramark,American Ad Bag Co,Beacon Promotions Inc,Chill Skinz, Inc,Digital Art Solutions,Fastbadge Inc,Gill Studios Inc,Hit Promotional Products,Label Specialties, Inc.,Liqui-Mark Corp,Manhattan Line, LLC,Next Promotions LLC,Pinnacle Designs,Prime Line,PromoMatting by Americo,Safetec Of America, Inc,Showdown Displays,Zeit Company Inc,Impact Advertising Inc","Eligibility Criteria: Open to industry professionals and trade visitors
Fees: Contact required for further information
Registration will be opened.
Attendee Registration","Sponsorship Fees: Contact required for further information
Exhibitor Fees: Standard 10x10 booth - $2.793
Booth Packages
Marketing Package - $575
Furniture Packages - $500 - $625
Interactive Meeting Space - $1.575
Special Exhibit Options
Premium locations - $199 per 10x10 booth
Corner(s) booths - $399 per corner
Island - $1.596 per island (4 corners)
Hanging sign - $199 per 10x10 booth in advance/$300 on-site
Aisle span -  $199 per 10x10 booth in advance/$300 on-site
Extended Height - $199 per 10x10 booth in advance/$300 on-site
Exhibitor Registration",https://cdn.asishow.com/asishow/ShowExcitement/ch19/,,https://www.facebook.com/asishow,https://instagram.com/theasishow/,https://www.linkedin.com/company/asi-show/,https://twitter.com/TheASIShow
Trade Show & Conference,Advertising,RemaDays Warsaw,12 Feb 2020-14 Feb 2020,09:30 AM - 05:30 PM (12 Feb 2020-13 Feb 2020)|09:30 AM - 04:00 PM (14 Feb 2020),13-15 Feb 2019,Feb-21,Poland,Warsaw,Nadarzyn,21000,800,http://www.remadays.com/en/homepage-en/#,+48 61 825 73 22,info@remadays.com,"See New at a Trade Fair Full of Ideas

The International Trade Fair for Advertising and Printing RemaDays Warsaw is one of the largest trade shows in advertising industry in the world. The fairs have been organized since 2005 and have been growing constantly so that every other year the number of visitors and exhibitors was higher. During 3 days of the RemaDays Warsaw show, on 35 000 m2 of exhibition space, the representatives of the advertising industry meet.

http://www.remadays.com/en/about-fair/idea-en/","A&J Polak,Acrebit S.A.,Duke Polska,Ecodirect,Elonapack,Get Impressed SRL,Kszimmex SC,Lava Group S.C.,Magit,M.A.P.S. GmbH,Mart's Bags,MMG Flagi,Neon Service,Iguana Group,Infotec CNC,Intergifts,I-Trade,Rapidprint.pl,Sema Print,Tisoft","Eligibility Criteria: Open to industry professionals and trade visitors
Fees: Normal ticket (unregistered with an invitation) - 5
Normal ticket (without ticket) - 7
Registration will be opened in November.","Sponsorship Fees: Vary between 95 - 1.180
Exhibitor Fees: Contact required for further information
Exhibitor Registration",http://www.remadays.com/en/for-media/gallery-2019/,https://www.youtube.com/channel/UC8DtkoiLuq1Ey7yNnx2xDkQ,https://www.facebook.com/remadays/,https://www.instagram.com/remadays_warsaw/,https://www.linkedin.com/company/gjc-international,
Trade Show & Conference,Advertising,Marketing Show North,11 Mar 2020-12 Mar 2020,TBD,27-28 Feb 2019,Feb-Mar 2021,United Kingdom,Manchester,Manchester Central,3500,120,https://marketingshownorth.co.uk/,+44 7879 471 636,Jill@prolificnorth.co.uk,"The Biggest Ever Gathering of Marketing Companies Held Outside London

Marketing Show North is a thoroughbred amongst marketing expos in the UK. As Prolific North Live, we established the largest and most compelling event held outside London embracing the media, creative, digital, and marketing communities.

https://marketingshownorth.co.uk/","Ad Merchandise,30 Seconds Media,72Point,Accord North,Upland Adestra,AdRoll,BBC,Bidnamic,BLM,BlueVenn,Buffalo7,Bureau Van Dijk,CACI,CDA Group,CDS,Channel 4,CIM,CircleLoop,Click Consult (Part of Ceuta Group),Colewood Internet","Eligibility Criteria: Open to industry professionals
Fees: Free
Registration will be opened.
Attendee Registration","Sponsorship Fees: Contact required for further information
Exhibitor Fees: Contact required for further information
Exhibitor Registration",https://marketingshownorth.co.uk/2019-event/,,,,,https://twitter.com/MktgShowNorth
Trade Show & Conference,Advertising,PTE - Promotion Trade Exhibition,22 Jan 2020-24 Jan 2020,09:30 AM - 06:00 PM (22 Jan 2020-23 Jan 2020)|09:30 AM - 04:30 PM (24 Jan 2020),23-25 Jan 2019,Jan-21,Italy,Milano,Fierramilanocity,4500,167,http://www.promotiontradeexhibition.it/en/,+39 02 4997 7055,barbara.vignola@fieramilano.it,"International Exhibition of Advertising Specialities, Promotional Garments, Personalization Technologies

PTE - PromotionTrade Exhibition is the only annual showcase in Italy for promotional products, business gifts and personalization equipment. Scheduled in a strategic period of the year and reserved exclusively to trade operators, the Exhibition represents the meeting point between the supply by specialized producers, importers and sole distributors, and the demand of retailers, agencies and personalization printers.

http://www.promotiontradeexhibition.it/en/our-brand",,"Eligibility Criteria: Open to industry professionals
Fees: Trade Operator - 10
Onsite - 15
Attendee Registration","Sponsorship Fees: No information
Exhibitor Fees: Contact required for further information
Exhibitor Registration",http://www.promotiontradeexhibition.it/en/photogallery,http://www.promotiontradeexhibition.it/en/video-gallery,https://www.facebook.com/PromotionTradeExhibition/?ref=ts&fref=ts,https://www.instagram.com/ptepromotiontradexhibition/,https://www.linkedin.com/company/pte---promotiontrade-exhibition?trk=company_name,https://twitter.com/promotiontradex
Trade Show & Conference,Advertising,Marketing at Retail,24 Mar 2020-26 Mar 2020,09:30 AM - 06:30 PM (24 Mar 2020-25 Mar 2020)|09:30 AM - 05:30 PM (26 Mar 2020),24-26 Mar 2019,Mar-21,France,Paris,Parc des Expositions de la Porte de Versailles,14000,217,https://www.mpv-paris.com/en-gb.html,+33 147 56 50 00,info@mpv-paris.com,"The Place to Dig Up New Ideas

Every 2 years, more than 300 professionals and participants to the prestigious contest of POPAI Awards Paris present the retail trends in POS, shop fittings, digital, brand activation and design. Brands and retailers looking for inspiration and new trends will be there!

https://www.mpv-paris.com/en-gb.html","8x8 Digital Marketing,Barthelmess GmbH,Bequet,CA Publishing,Groupe Fauchille,HMY France,Intellicast,Kylii Kids,Metal Harmonie Express,Planet PLV,Redbox SRL,Sensape,STI Group,Think Ambient,Visix France,Zagass Design,DS Smith,Ellert Printing House,DPH Company,EnjoyB","Eligibility Criteria: Open to industry professionals and trade visitors
Fees: Contact required for further information
Registration will be opened.","Sponsorship & exhibition opportunities available
Contact required for further information
Exhibition Registration",,,https://www.facebook.com/mpvparis/,,https://www.linkedin.com/company/27098632/,https://twitter.com/_https_//twitter.com/MPV_POPAI
Trade Show,Advertising,Expo Publicitas,20 May 2020-22 May 2020,11:00 AM - 08:00 PM,22-24 May 2019,May-21,Mexico,Mexico City,CentroCitibanamex,20000,500,https://expopublicitas.com/?lang=en,+52 55 5575 9305,informes@expopublicitas.com,"New Ideas to Sell Your Ideas

EXPOPUBLICITAS, The Best Advertising and Marketing trade show in Mexico and Latin America. We are the perfect place to find, in three days of exhibition, the solutions and most innovative trends in the Advertising and Marketing Industries.

https://expopublicitas.com/informacion/?lang=en","Bodega Lighting S.A. De C.V.,Dekos Print Design,Dseelab Digital Technology Co. Ltd.,Multimedia Corporative,Rey Muerto,Video Led Solutions,Zuni,Shenzhen Fan Display Technology Co. Ltd.,Gsfera.com,Grupo FB Agua Y Tecnologia,Depositphotos Inc.,Associacion Digital Signage Latinoamerica,Asia Sign,Boltmedia,Corel,Luminor Led,Neon Experience,PCM - Exhibidores de Carton,Pop Display & Packaging,Alpha Beta","Eligibility Criteria: Open to industry professionals and trade visitors
Fees: Contact required for further information
Registration will be opened.","Sponsorship Fees: Contact required for further information
Exhibitor Fees:  Contact required for further information
Exhibitor Registration",https://expopublicitas.com/galeria/?lang=en,https://www.youtube.com/channel/UCCihn_0Qf9SCvH2rabkLCYg,https://www.facebook.com/Expopublicitas/,https://www.instagram.com/expopublicitas/,https://www.linkedin.com/company/expopublicitas,https://twitter.com/EXPOPUBLICITAS_
Trade Show,Advertising,IPSA International Exhibition for Promotion Industry,18 Mar 2020-19 Mar 2020,10:00 AM - 06:00 PM,20-21 Mar 2019,Mar-21,Russia,Moscow,Expocentre,,,https://www.ipsa.ru/en/,+7926 9450418,n.konovalova@reedexpo.ru,"The Main Professional Event in Russia & CIS on How to Make Brand Visible

It showcases products and ideas for corporate style and brand promotion - from promo pen and t-shirt to 3D technologies and signage. It is the key meeting point for industry professionals: manufacturers, suppliers and  their customers - major Russian full-circle advertising agencies, corporate buyers, distributors and retailers.

https://www.ipsa.ru/en/About-the-Show1/","Sporty Snacks,Happy Partner,NORVEG,Promomat,Colourtex,Sanitelle,Smi)e,Famingo Cards,Shugon Bags & Leather Goods LTD,Chocolate studio,IPSA,Jiangyin Loyal Yarns Co., Ltd.,Sirius Light,Wideformat24,Dom Svechei,Goods Gactory,Litek,Naturalina,FlexPocket,uma Schreibgerte Ullmann GmbH","Eligibility Criteria: Open to industry professionals and trade visitors
Fees: Contact required for further information
Attendee Registration","Sponsorship Fees: Options vary between 170 - 1.930
Exhibitor Fees: Raw space - 190/sq m
Shell scheme - 280/sq m
Registration fee - 263
Exhibitor Registration",https://www.ipsa.ru/en/About-the-Show1/Gallery/,https://www.ipsa.ru/en/About-the-Show1/Video/,http://www.facebook.com/IPSA.moscow/,http://www.instagram.com/ipsa_moscow/,,
Trade Show & Conference,Advertising,Media Expo New Delhi,6 Sep 2019-8 Sep 2019,10:00 AM - 06:00 PM,7-9 Sep 2018,Sep-20,India,New Delhi,Pragati Maidan,15338,194,https://media-expo-newdelhi.in.messefrankfurt.com/newdelhi/en.html,+91 22 6103 8441,deepali.gobre@india.messefrankfurt.com,"The Future of Imaging is Here

New technologies, new innovations and new business opportunities galore at Media Expo New Delhi, the biggest trade exhibition for indoor & outdoor advertising and signage industry.

https://media-expo-newdelhi.in.messefrankfurt.com/newdelhi/en/facts-figures.html","Kartar Corporation,Laser Lab India Pvt Ltd,Bar Digitals (XLJET),Metro Publicity,Benson Polymers Limited,Prime Overseas,Cleena Industries,Sawhney Signage,Crystal Polycast,Sheth Printograph PVT Ltd,Singmax Exim Private Limited,Euro Panel Products Pvt Ltd,Gita and Company,Smart Led Corp,GW Elecs,SS Industries,Infinity Reflex,JB Art Studio,Xintao Acrylic,JX Enterprise","Eligibility Criteria: Open to industry professionals and trade visitors
Persons below 18 are not permitted.
Fees: Free
Attendee Registration","Sponsorship Fees: No information
Exhibitor Fees: Standard package (min 9 sq m) - 250 + 18% GST
Raw space (min 24 sq m) - 235 + 18% GST
Exhibitor Registration",https://media-expo-newdelhi.in.messefrankfurt.com/newdelhi/en/press.html,,https://www.facebook.com/MediaExpoIndia/,https://www.instagram.com/mediaexpo_india/,https://www.linkedin.com/in/media-expo/,https://twitter.com/mediaexpo_india
Trade Show & Conference,Advertising,Media Expo Mumbai,20 Feb 2020-22 Feb 2020,10:00 AM - 06:00 PM,21-23 Feb 2019,Feb-21,India,Mumbai,Bombay Exhibition Center,15000,170,https://media-expo-mumbai.in.messefrankfurt.com/mumbai/en.html,+91 9811653863,samson.simon@india.messefrankfurt.com,"Experience Nextgen Advertising & Branding Solutions

Media Expo is the international trade exhibition for the indoor & outdoor advertising and signage industry. Backed by a successful legacy of over two decades, Media Expo is undoubtedly the most trusted business platform that brings together leading global brands and creative professionals to converge and discover path breaking future technologies.

https://media-expo-mumbai.in.messefrankfurt.com/mumbai/en/facts-figures.html","Admark Digitech,Baba Graphics,Sahil Graphics,Colors Digital India,Prime India LED,Newclear Technologies,Raj Incorporated,Sharp Sign,Epson India,Hewlett Packard & Ikon Business Solution,SMK Digital (India),Unique Sign Innovations,Fujifilm India Pvt Ltd,Digitech Digital Imaging,Skytec Corporation,Kheizer Sign,Lisco Systems Pvt. Ltd.,Jyoti International,Visionary Creative Concepts,JB Art Studio,Unique Laser Engravers","Eligibility Criteria: Open to industry professionals and trade visitors
Persons below 18 are not permitted.
Fees: Free
Registration will be opened.","Sponsorship Fees: No information
Exhibitor Fees: Standard package (min 9 sq m) - 270 + 18% GST
Raw space (min 21 sq m) - 250 + 18% GST
Exhibitor Registration",https://media-expo-mumbai.in.messefrankfurt.com/mumbai/en/press.html,,https://www.facebook.com/MediaExpoIndia/,https://www.instagram.com/mediaexpo_india/,https://www.linkedin.com/in/media-expo/,https://twitter.com/mediaexpo_india
Conference,Advertising,Inbound,3 Sep 2019-6 Sep 2019,06:05 PM - 09:00 PM (3 Sep 2019)|09:30 AM - 06:15 PM (4 Sep 2019)|09:30 AM - 10:00 PM (5 Sep 2019)|09:30 AM - 03:15 PM (6 Sep 2019),4-7 Sep 2018,Sep-20,USA,Boston,The Boston Convention & Exhibition Center,24000,,https://www.inbound.com,,,"Learn Here. Take Your Job by Storm.

INBOUND is an annual experience uniting super curious, question-asking professionals with big-name and break-out industry thinkers, high-octane events, and boundless education sessions. These four September days are for youthe product manager, the creative marketer, the start-up founder.

https://www.inbound.com/about",,"Eligibility Criteria: Open to industry professionals
Fees: Power Pass - $2.199
All-Access Pass - 4-Day (Group 3) - $1.499
Community Pass - $199
All-Access Pass - One Day Only (Group 3) - $599
Attendee Registration","Sponsorship opportunities available
Contact required for further information
Sponsorship Registration",,https://www.inbound.com/content,https://www.facebook.com/TheINBOUNDStudio,http://instagram.com/INBOUND,,https://twitter.com/INBOUND
Conference,Advertising,MarketingProfs B2B Forum,16 Oct 2019-18 Oct 2019,08:45 AM - 05:30 PM (16 Oct 2019)|08:45 AM - 05:45 PM (17 Oct 2019)|08:00 AM - 04:00 PM (18 Oct 2019),13-16 Nov 2018,Oct-Nov 2020,USA,Washington DC,Gaylord National Resort,1000,,http://mpb2b.marketingprofs.com/,+1 866 557 9625,events@marketingprofs.com,"Learn About the Latest in B2B Marketing

MarketingProfs B2B Forum is more than just a quirky (not-so-little) conference. Its the place where leaders, innovators, and people who make things happen gather to learn about the latest in B2B marketing and share the secrets to success. (Plus, creative networking, shenanigans, and marketers-after-dark antics.)

http://mpb2b.marketingprofs.com/who-we-are",,"Eligibility Criteria: Open to indusry professionals
Fees: All-access Pass - $2.595
Conference-only Pass - $1.695
Workshop only Pass - $1.095
Attendee Registration","Sponsorship opportunities available
Contact required for further information
Sponsorship Registration",,https://www.youtube.com/watch?v=plv-8N9uZhQ,https://facebook.com/marketingprofs,https://instagram.com/marketingprofs,https://linkedin.com/company/marketing-profs/,https://twitter.com/marketingprofs
Conference,Advertising,Social Media Marketing World,1 Mar 2020-3 Mar 2020,12:00 PM - 08:00 PM (1 Mar 2020)|08:00 AM - 06:30 PM (2 Mar 2020)|08:30 AM - 06:00 PM (3 Mar 2020),20-22 Mar 2019,Mar-21,USA,San Diego,San Diego Convention Center,,,https://www.socialmediaexaminer.com/smmworld/,,world@socialmediaexaminer.com,"Discover the Best Social Media Marketing Techniques from the World's Top Experts

Experience three phenomenal days with the best social marketers, discover the latest tactics, and master social media in 2020.

https://www.socialmediaexaminer.com/smmworld/about/",,"Eligibility Criteria: Open to industry professionals
Fees: All Access - $997
Marketer - $797
Attendee Registration","Sponsorship packages vary between $5.000 - $65.000
Sponsorship Registration",,https://www.youtube.com/playlist?list=PLyqdnWmgSb_ZP0U377QbJbJh1I9chvte3,https://www.facebook.com/smexaminer,https://www.instagram.com/smexaminer/,https://www.linkedin.com/company/576649,https://twitter.com/smexaminer
Conference,Advertising,ComNet Annual Conference,2 Oct 2019-4 Oct 2019,09:00 AM - 05:00 PM,10-12 Oct 2018,Oct-20,USA,Austin,JW Marriott Austin,,,https://www.comnet19-40th.org/,+1 202-909-1214,info@comnetwork.org,"Leading Gathering on the Smart and Delibaret Use of Strategic Communications

ComNet is the annual conference of The Communications Network, an organization that connects leaders working in communications for good to the top professionals and best ideas in the field. ComNet is 3 days of ideas, insights, inspiration, learning, networking, and fun.

https://www.comnet19-40th.org/faq",,"Eligibility Criteria: Open to industry professionals
Fees: Contact required for further information
Attendee Registration","Sponsorship packages vary between $5.000 - $75.000
Sponsorship Registration",https://www.flickr.com/photos/thecomnetwork/albums/72157702577711024,https://www.youtube.com/playlist?list=PL_kCuxPApyIOvcJwe4d3kFiuB6IxAW_ss,https://www.facebook.com/TheComNetwork/,https://www.instagram.com/thecomnetwork/,,https://twitter.com/TheComNetwork
Trade Show & Conference,Advertising,SMX Advanced Europe,30 Sep 2019-1 Oct 2019,09:00 AM - 07:00 PM,,Sep-Oct 2020,Germany,Berlin,nhow Hotel Berlin,250,,https://smxadvanced.eu/,,Sandra.finlay@risingmedia.com,"Experts-Only SEO & PPC Tactics from Around the World

SMX Advanced is coming to Europe, designed exclusively for experienced search marketers. We dont spend time on the basics! All sessions are fast-paced, Q&A-packed, always informative. This once-a-year event is your place to learn advanced SEO and PPC tactics. The event is held in English.

https://smxadvanced.eu/#about","121Watt,Botify,StickerMule,DataFeedWatch,Segmatic,Peak Ace","Eligibility Criteria: Open to industry professionals
Fees: SMX Advanced Europe Pass - 1.395
Onsite - 1.595
Workshops - 895
Attendee Registration","Sponsorship and exhibition opportunities available
Contact required for further information
Sponsor & Exhibitor Registration",,,https://www.facebook.com/searchmarketingexpo,,https://www.linkedin.com/company/2292081/,https://twitter.com/smx
Trade Show & Conference,Advertising,SMX East,13 Nov 2019-14 Nov 2019,09:00 AM - 07:00 PM,24-25 Oct 2018,Oct-Nov 2020,USA,New York,Jacob K. Javits Convention Center,,,https://marketinglandevents.com/smx/east/,,registration@searchmarketingexpo.com,"Expert-led SEO & SEM Training For Search Marketers

This years agenda is bigger and better than ever a firehose of 70+ sessions covering all aspects of an integrated search marketing strategy: SEO, SEM, agency operations and management, local search marketing for multi-location brands, CRO, analytics, attribution, content, video, mobile, tools, and beyond.

https://marketinglandevents.com/smx/east/why-attend-smx/","Adthena,Bka Content,Botify,Bruce Clay,Cognitiv,Dragon Metrics,Instapage,Invoca,Ninjacat,Oncrawl,Pageonepower,SEM Rush,SEOinhouse.com,Sweet IQ,Trustpilot,Uberall,Perficient Digital,Natural Intelligence,DMA,CallRail","Eligibility Criteria: Open to industry professionals
Fees: All Access Pass - $1.395
All Access Pass - One Day - $999
Workshop Only - (Includes Search Marketing Boot Camp) - Price varies
Expo+ Pass - Free
Attendee Registration","Sponsorship and exhibition opportunities available
Contact required for further information
Sponsorship/Exhibition Registration",,https://www.youtube.com/user/searchmarketingexpo,https://www.facebook.com/searchmarketingexpo,,https://www.linkedin.com/company/2292081/,https://twitter.com/smx
Trade Show & Conference,Advertising,SMX West,19 Feb 2020-21 Feb 2020,08:00 AM - 05:00 PM,30-31 Jan 2019,Jan-Feb 2021,USA,San Jose,San Jose Convention Center,,,https://marketinglandevents.com/smx/west/,,registration@searchmarketingexpo.com,"Leading Conference for SEO and SEM Professionals

Search marketing continues to be the biggest and most powerful form of digital marketing. Search Marketing Expo  SMX  has been the leading conference for SEO and SEM professionals for over a decade, helping thousands of search marketers from across the world boost conversions, increase sales, maximize awareness, and achieve their goals.

https://marketinglandevents.com/smx/west/","Adthena,Botify,Bruce Clay,CallRail,Instapage,PurelinQ,Quora,Stone Temple,Uberall","Eligibility Criteria: Open to industry professionals
Fees: Contact required for further information
Registration will be opened.","Sponsorship and exhibition opportunities available
Contact required for further information
Sponsorship/Exhibition Registration",,https://www.youtube.com/user/searchmarketingexpo,https://www.facebook.com/searchmarketingexpo,,https://www.linkedin.com/company/2292081/,https://twitter.com/smx
Trade Show & Conference,Advertising,SMX London,19 May 2020-20 May 2020,09:00 AM - 06:30 PM,21-22 May 2019,May-21,United Kingdom,London,etc.venues,,,https://marketinglandevents.com/smx/london/,,registration@searchmarketingexpo.com,"Leading Event on the Biggest Area of Digital Marketing

Immerse yourself in three days of SEO, SEM and Online Marketing sessions and youre guaranteed to leave with practical tips and techniques to immediately improve your search marketing efforts. SMX also has strategic sessions to help you with whats coming over the horizon.

https://marketinglandevents.com/smx/london/","Acquisio,Advanced Web Ranking,Infinity,Lee & Nee Softwares,Trustpilot,Wildnet Technologies Private Limited","Eligibility Criteria: Open to industry professionals
Fees: Combo Pass Two Day SMX Conference + Bootcamp OR International Search Summit
Super Early Bird Now  Feb 7 - 995
Early Bird Feb 8  April 3 - 1.195
Full Rate April 4  May 18 - 1.395
Onsite - 1.595
Combo Pass Two Day SMX Conference + Workshop
Super Early Bird Now  Feb 7 - 1.295
Early Bird Feb 8  April 3 - 1.395
Full Rate April 4  May 18 - 1.495
Onsite - 1.695
Two Day SMX Full Conference Pass
Super Early Bird Now  Feb 7 - 695
Early Bird Feb 8  April 3 - 795
Full Rate April 4  May 18 - 895
Onsite - 1.095
One Day SMX Full Conference Pass
Super Early Bird Now  Feb 7 - 395
Early Bird Feb 8  April 3 - 495
Full Rate April 4  May 18 - 595
Onsite - 795
SMX Bootcamp
Super Early Bird Now  Feb 7 - 495
Early Bird Feb 8  April 3 - 595
Full Rate April 4  May 18 - 795
Onsite - 795
International Search Summit (ISS) Pass
Super Early Bird Now  Feb 7 - 395
Early Bird Feb 8  April 3 - 495
Full Rate April 4  May 18 - 595
Onsite - 695
Attendee Registration","Sponsorship and exhibition opportunities available
Contact required for further information
Sponsorship/Exhibition Registration",,https://www.youtube.com/user/searchmarketingexpo,https://www.facebook.com/searchmarketingexpo,,https://www.linkedin.com/company/2292081/,https://twitter.com/smx
Trade Show & Conference,Advertising,SMX Munich,18 Mar 2020-19 Mar 2020,08:30 AM - 06:00 PM,2-3 Apr 2019,Mar-Apr 2021,Germany,Munich,International Congress Center Munich,1600,,https://smxmuenchen.de/en/,+49 8151 5566045,reg@risingmedia.com,"The Only Conference Series Entirely Devoted to Search Marketing

The producers of SMX are not an agency or tool provider but a neutral editorial team. You will find no generic marketing blah but cutting edge tactics and strategies from top experts from all over the world. Attend SMX Munich for a deep dive into SEO and SEM tactics that tackle the search marketing challenges youre confronting and inspire you with new ideas.

https://smxmuenchen.de/en/","Advanced Web Ranking,Botify,DeepCrawl,Eprofessional ,Innoplexia,KNIME,OnCrawl,Peak Ace AG,SEM Boutique,Senuto,SlopeLift,Smarketer,smec - Smarter Ecommerce,uberall,XOVI GmbH","Eligibility Criteria: Open to industry professionals
Fees: Gold Pass
Super Early Bird - 1.828
Early Bird - 2.048
Full Price - 2.348
Onsite - 2.448
Silver Pass
Super Early Bird - 944
Early Bird - 1.159
Full Price - 1.459
Onsite - 1.559
Conference Pass
Super Early Bird - 855
Early Bird - 1.070
Full Price - 1.370
Onsite - 1.470
Conference Pass One Day
Super Early Bird - 545
Early Bird - 745
Full Price - 945
Onsite - 1.045
SMX + International Search Summit
Super Early Bird - 1.240
Early Bird - 1.370
Full Price - 1.670
Onsite - 1.770
EXPO+ Pass Only
Super Early Bird - 240
Early Bird - 240
Full Price - 480
Onsite - 480
Workshop Pass - 895
International Search Summit (ISS) Pass
Super Early Bird - 395
Early Bird - 595
Full Price - 795
Onsite - 895
Attendee Registration","Sponsorship and exhibition opporunities available
Contact required for further information
Sponsor/Exhibitior Registration",,https://www.youtube.com/user/searchmarketingexpo,https://www.facebook.com/SMX.Muenchen/,https://www.instagram.com/smx_muenchen/,https://www.linkedin.com/company/2292081/,http://twitter.com/smxmuenchen
Trade Show & Conference,Advertising,SMX Paris,18 Nov 2019-19 Nov 2019,09:00 AM - 06:00 PM,12-13 Jun 2018,TBD,France,Paris,toile Business Center,245,,https://smxfrance.com/,+49 8151 5566045,info@risingmedia.com,"The Search Marketing Conference of the Year is Back

From year to year, the reputation of SMX Paris is growing and with it its number of participants and its success. For the 2018 edition, 158 companies represented by 245 Search professionals. The quality of the speakers, the topicality of the topics covered in the conferences and the mix between the profiles of ""marketers"" and ""technicians"" allowed a real emulation and the success of the event.

https://smxfrance.com/","Amazon Marketing Services,1.fr,Marin Software,Ryte,Majestic,LinkJuice.io,Botify,The HOTH,Authoritas,Darwin Agency,Forward3D","Eligibility Criteria: Open to industry professionals
Fees: SMX Pass for 2 days - 450
SMX Pass for 1 day - 250
Keynote / Networking Pass 2 days - 300
Keynote / Networking Pass 1 day - 150
Attendee Registration","Sponsorship and exhibition opporunities available
Contact required for further information
Sponsor/Exhibitor Registration",,https://www.youtube.com/user/searchmarketingexpo,https://www.facebook.com/smxparis/,https://www.instagram.com/smxparis/?ref=badge,https://www.linkedin.com/company/2292081/,https://twitter.com/smx_paris
Trade Show & Conference,Advertising,MarTech East,16 Sep 2019-18 Sep 2019,01:00 PM - 07:00 PM (16 Sep 2019)|08:15 AM - 06:00 PM (17 Sep 2019)|08:15 AM - 04:40 PM (18 Sep 2019),1-3 Oct 2018,Sep-Oct 2020,USA,Boston,Hynes Convention Center,,,https://martechconf.com/east/,,registration@martechconf.com,"Martech is Marketing

The MarTech experience is all choreographed. Youll unlock more than 55 presentations that deliver actionable tactics to solve confounding marketing challenges. Youll meet senior-level marketers like you who are redefining how their organizations deploy martech to achieve business results. And youll discover time-saving solutions that deliver ROI.

https://martechconf.com/east/","Optimizely,Outgage,Mailchimp,Magnolia,Instapage,GetResponse,Geek Hive,Elevated Third,Crown Peak,Cordial,Chetu,Blueconic,Arm Treasure Data,Allocadia,Adsonica,Introhive,Pitney Bowes,Spark Post,Synthesio,Workfront","Eligibility Criteria: Open to industry professionals
Fees: All Access Pass - $1.745
All Access Pass - One Day - $1.250
Workshop only - $639
Expo+ Pass - Free
Attendee Registration","Sponsorship and exhibition opporunities available
Contact required for further information
Sponsor/Exhibitor Registration",,https://www.youtube.com/playlist?list=PLa-pYUsA4sb9l6qpTBHmcaIPP2JJopcBy,https://www.facebook.com/martechconf,,http://www.linkedin.com/company/martech-conference?trk=biz-companies-cym,https://twitter.com/martechconf
Trade Show & Conference,Advertising,MarTech West,15 Apr 2020-17 Apr 2020,08:00 AM - 06:00 PM,3-5 Apr 2019,Apr-21,USA,San Jose,San Jose Convention Center,,,https://martechconf.com/west/,,registration@martechconf.com,"Best Practices and Relevant Case Studies from Real-World Marketers

Join us to navigate these and many more complexities, technologies, and organizational obstacles faced by thousands of marketers around the world. Youll leave with best practices and relevant case studies from real-world marketers thriving at the intersection of marketing, technology, and management.


https://martechconf.com/west","4over,Acquia,Brandcast,Brightcove,Chetu,Contentserv,CoSchedule,Currnt,Cvent,GetResponse,Dyspatch,IBM,Instapage,KickFire,Mailchimp,NFC Forum,Oracle Marketing Cloud,PeachtreeData,Percolate,Pointilist,Siteimprove","Eligibility Criteria: Open to industry professionals
Fees: Details will be announced.
Registration will be opened.","Sponsorship and exhibition opporunities available
Contact required for further information",,https://www.youtube.com/playlist?list=PLa-pYUsA4sb-JNoNjPlU-pujaO_0YP-5a,https://www.facebook.com/martechconf,,http://www.linkedin.com/company/martech-conference?trk=biz-companies-cym,https://twitter.com/martechconf
Conference,Advertising,Digital Growth Unleashed London,16 Oct 2019-17 Oct 2019,09:00 AM - 07:00 PM (16 Oct 2019)|09:00 AM - 05:45 PM (17 Oct 2019),17-18 Oct 2018,Oct-20,United Kingdom,London,etc.venues,,,https://digitalgrowthunleashed.co.uk/,+44 20 3735 7700,,"Optimizing the Complete Customer Journey

Digital Growth Unleashed will leave you knowing how to attract the right audience, align business models with the user experience, optimize the lifetime value of client relationships and introduce you to the right technology to make it all happen.

https://digitalgrowthunleashed.co.uk/",,"Eligibility Criteria: Open to industry professionals
Fees: Data Driven Business Combo Pass + Workshop
Early Bird - 1.645
Normal price - 1.745
Onsite price - 1.945
Data Driven Combo Pass
Early Bird - 1.245
Normal price - 1.345
Onsite price - 1.545
Digital Growth Unleashed + Workshop
Early Bird - 1.445
Normal price - 1.545
Onsite price - 1.645
Digital Growth Unleashed  2 Day Pass
Early Bird - 995
Normal price - 1.095
Onsite price - 1.295
Digital Growth Unleashed  1 Day Pass
Early Bird - 495
Normal price - 595
Onsite price - 795
Attendee Registration","Sponsorship and exhibition opporunities available
Contact required for further information
Sponsor/Exhibitor Registration",,,https://www.facebook.com/DigitalGrowthUnleashed/,,,https://twitter.com/DGUConference
Conference,Advertising,Marketing Analytics Summit London,16 Oct 2019-17 Oct 2019,09:15 AM - 07:00 PM (16 Oct 2019)|09:30 AM - 05:45 PM (17 Oct 2019),17-18 Oct 2018,Oct-20,United Kingdom,London,etc.venues,,,https://marketinganalyticssummit.co.uk/,+44 20 3735 7700,,"The Next Generation Conference for Digital Analysts

Multiply your skills with the latest thinking, developments, and most current examples of data enriched marketing. Whether you are an analyst or one who relies on analytics to excel in marketing, MAS is here to help YOU evolve as a professional.

https://marketinganalyticssummit.co.uk/",,"Eligibility Criteria: Open to industry professionals
Fees: Data Driven Business Combo Pass + Workshop
Early Bird - 1.645
Normal price - 1.745
Onsite price - 1.945
Data Driven Combo Pass
Early Bird - 1.245
Normal price - 1.345
Onsite price - 1.545
Marketing Analytics Summit + Workshop
Early Bird - 1.445
Normal price - 1.545
Onsite price - 1.645
Marketing Analytics Summit  2 Day Pass
Early Bird - 995
Normal price - 1.095
Onsite price - 1.295
Marketing Analytics Summit  1 Day Pass
Early Bird - 495
Normal price - 595
Onsite price - 795
Attendee Registration","Sponsorship and exhibition opporunities available
Contact required for further information
Sponsor/Exhibitor Registration",,,https://www.facebook.com/MarketingAnalyticsSummit/,,,https://twitter.com/MAS_Conf
Conference,Advertising,Email Innovations Summit,16 Oct 2019-17 Oct 2019,09:15 AM - 07:00 PM (16 Oct 2019)|09:30 AM - 05:45 PM (17 Oct 2019),17-18 Oct 2018,Oct-20,United Kingdom,London,etc.venues,,,https://emailinnovationssummit.co.uk/,+44 20 3735 7700,,"The Future of Email Marketing Today

Developed in conjunction with the membership of Only Influencers, email marketings most trusted and oldest community, the Email Innovations Summit is the conference that Email Marketers have been asking for.

https://emailinnovationssummit.co.uk/",,"Eligibility Criteria: Open to industry professionals
Fees: Data Driven Business Combo Pass + Workshop
Early Bird - 1.645
Normal price - 1.745
Onsite price - 1.945
Data Driven Combo Pass
Early Bird - 1.245
Normal price - 1.345
Onsite price - 1.545
Email Innovations Summit + Workshop
Early Bird - 1.445
Normal price - 1.545
Onsite price - 1.645
Email Innovations Summit  2 Day Pass
Early Bird - 995
Normal price - 1.095
Onsite price - 1.295
Email Innovations Summit  1 Day Pass
Early Bird - 495
Normal price - 595
Onsite price - 795
Attendee Registration","Sponsorship and exhibition opporunities available
Contact required for further information
Sponsor/Exhibitor Registration",,,https://www.facebook.com/Email-Innovations-Summit-1546515652335482,,https://www.linkedin.com/groups/7033320,https://twitter.com/InnovateEmail
Conference,Advertising,Digital Growth Unleashed Berlin,18 Nov 2019-19 Nov 2019,09:00 AM - 06:00 PM (18 Nov 2019)|09:15 AM - 05:15 PM (19 Nov 2019),13-14 Nov 2018,Nov-20,Germany,Berlin,Estrel Hotel Berlin,,,https://digitalgrowthunleashed.de/,+49 306 8310,hotel@estrel.com,"Effective Optimization of the Customer Journey

At the Digital Growth Unleashed Conference in Berlin, you will learn how to optimize all stages of the customer journey and thereby achieve greater growth. The focus is on news and tips and tricks on topics such as campaign optimization, lead generation, conversion rate optimization, upsell and engagement, tools, testing and automation.

https://digitalgrowthunleashed.de/","Kameleoon,KNIME,LexisNexis,MyDataModels,Odoscope,T4Media,Trakken","Eligibility Criteria: Open to industry professionals
Fees: Data Driven Business Combo Pass + Workshop
Early Bird - 1.995
Normal price - 2.195
Onsite price - 2.295
Data Driven Combo Pass
Early Bird - 1.295
Normal price - 1.495
Onsite price - 1.545
Digital Growth Unleashed + Workshop
Early Bird - 1.785
Normal price - 1.985
Onsite price - 2.085
Digital Growth Unleashed  2 Day Pass
Early Bird - 895
Normal price - 1.095
Onsite price - 1.195
Digital Growth Unleashed  1 Day Pass
Early Bird - 595
Normal price - 795
Onsite price - 895
Attendee Registration","Sponsorship and exhibition opporunities available
Contact required for further information
Sponsor/Exhibitor Registration",,,https://www.facebook.com/Digital-Growth-Unleashed-Deutschland-1456449201044506/,,,
Conference,Advertising,Marketing Analytics Summit Berlin,18 Nov 2019-19 Nov 2019,09:00 AM - 06:00 PM (18 Nov 2019)|09:15 AM - 05:15 PM (19 Nov 2019),13-14 Nov 2018,Nov-20,Germany,Berlin,Estrel Hotel Berlin,,,https://marketinganalyticssummit.de/,+49 306 8310,hotel@estrel.com,"The Conference for Digital Analysts

A brand new conference format consisting of lectures, discussions and actions. Meet colleagues and experts who make the difference. Here you learn everything that is important to master data-driven marketing.

https://marketinganalyticssummit.de/","Kameleoon,KNIME,LexisNexis,MyDataModels,Odoscope,T4Media,Trakken","Eligibility Criteria: Open to industry professionals
Fees: Data Driven Business Combo Pass + Workshop
Early Bird - 1.995
Normal price - 2.195
Onsite price - 2.295
Data Driven Combo Pass
Early Bird - 1.295
Normal price - 1.495
Onsite price - 1.545
Marketing Analytics Summit + Workshop
Early Bird - 1.785
Normal price - 1.985
Onsite price - 2.085
Marketing Analytics Summit  2 Day Pass
Early Bird - 895
Normal price - 1.095
Onsite price - 1.195
Marketing Analytics Summit  1 Day Pass
Early Bird - 595
Normal price - 795
Onsite price - 895
Attendee Registration","Sponsorship and exhibition opporunities available
Contact required for further information
Sponsor/Exhibitor Registration",,,https://www.facebook.com/MarketingAnalyticsSummitDE/,,,https://twitter.com/MAS_Deutschland
Conference,Advertising,RampUp Summit New York,18 Sep 2019,09:00 AM - 07:00 PM,31 Oct-1 Nov 2018,Autumn 2020,USA,New York,Fairmont Hotel,2500,,https://rampedup.us/rampup/,,rampup@liveramp.com,"The Premier Conference for Leaders in Martech Takes on New York

Learn about leading trends from those who live it. Network with top industry professionals. Hear from the next wave of marketing pioneers.

https://rampedup.us/rampup-new-york/",,"Eligibility Criteria: Open to industry professionals
Fees: Early Bird Price (through 8/20/2019 only) - $299
Full Price - $399
Attendee Registration","Sponsorship opportunities available
Contact required for further information
Sponsorship Registration",,https://vimeo.com/rampup,https://www.facebook.com/RampedUp.us/,,https://www.linkedin.com/showcase/18257606/,https://twitter.com/RampUp
Conference,Advertising,RampUp Summit San Francisco,25 Feb 2019-26 Feb 2019,12:00 PM - 05:00 PM (25 Feb 2019)|07:30 AM - 05:00 PM (26 Feb 2019),5-6 Mar 2018,Feb-Mar 2020,USA,San Francisco,Fairmont Hotel,2500,,https://rampedup.us/rampup/,,rampup@liveramp.com,"The Premier Conference for Leaders in Martech

RampUp LiveRamp Summit will focus on What kinds of data should marketers be incorporating into their tool kits, why it is important that marketing data  should be accessible across all applications and platforms, how attendees take complex customer data and utilize it to create relevant and singular consumer experiences and etc.

https://rampedup.us/rampup/",,"Eligibility Criteria: Open to industry professionals
Fees: Contact required for further information","Sponsorship opportunities available
Contact required for further information
Sponsorship Registration",,https://rampedup.us/rampup/2019-highlights/,https://www.facebook.com/RampedUp.us/,,https://www.linkedin.com/showcase/18257606/,https://twitter.com/RampUp
Conference,Advertising,RampUp Summit Boston,23 Oct 2019,12:00 PM - 05:30 PM,,Oct-20,USA,Boston,Hotel Revere,,,https://rampedup.us/events/boston/,,rampup@liveramp.com,"The Premier Conference for Leaders in Martech

RampUp is a martech thought-leadership destination for relevant, best-in-class content thats hosted by LiveRamp, a leading provider of omnichannel identity resolution. Youll find insights on the latest digital marketing trends and technologies on our content hub, alongside content from live RampUp events.

https://rampedup.us/about/",,"Eligibility Criteria: Open to industry professionals
Fees: Contact required for further information
Attendee Registration","Sponsorship opportunities available
Contact required for pricing information",,https://vimeo.com/rampup,https://www.facebook.com/RampedUp.us/,,https://www.linkedin.com/showcase/18257606/,https://twitter.com/RampUp
Conference,Advertising,RampUp Summit Chicago,15 Oct 2019,09:30 AM - 06:30 PM,,Oct-20,USA,Chicago,Navy Pier,,,https://rampedup.us/events/chicago/,,rampup@liveramp.com,"The Premier Conference for Leaders in Martech

RampUp is a martech thought-leadership destination for relevant, best-in-class content thats hosted by LiveRamp, a leading provider of omnichannel identity resolution. Youll find insights on the latest digital marketing trends and technologies on our content hub, alongside content from live RampUp events.

https://rampedup.us/about/",,"Eligibility Criteria: Open to industry professionals
Fees: Contact required for further information
Attendee Registration","Sponsorship opportunities available
Contact required for pricing information",,https://vimeo.com/rampup,https://www.facebook.com/RampedUp.us/,,https://www.linkedin.com/showcase/18257606/,https://twitter.com/RampUp
Conference,Advertising,Criteo Commerce Forum,9 May 2019,10:00 AM - 05:15 PM,10-May-18,May-20,USA,New York,Union West,,,https://criteocommerceforumnyc.splashthat.com/,,eventsus@criteo.com,"A Must Attend Event for all Commerce Executives

At this years Criteo Commerce Forum, weve planned an incredible day of discovery around unleashing the full power of your data, AI, and cutting-edge digital innovation. Attendees will be able to walk away from this event with actionable insights to target their best customers, find the new customers most likely to buy, and inspire audiences with hyper-relevant messages.

https://criteocommerceforumnyc.splashthat.com",,"Eligibility Criteria: Open to industry professionals
Fees: Contact required for further information",,,https://www.youtube.com/playlist?list=PL0TTWXSAUvTY-hVMa4vm7ael0ksly_xzr,https://www.facebook.com/GoCriteo,,https://www.linkedin.com/company/criteo,https://twitter.com/criteo
Trade Show & Conference,Advertising,Advertising Week Africa,28 Oct 2019-31 Oct 2019,08:00 AM - 07:30 PM,,Oct-20,South Africa,Johannesburg,,4000,,http://africa.advertisingweek.com/,+1 212 967 0091,james@stillwellpartners.com,"Advertising Week's Sixth Global Edition

Coming to Africa October 28 - 31, 2019 for the first time, Advertising Week Africa is Advertising Weeks sixth global edition held in Johannesburg, South Africa. #AWAfrica will bring industry professionals together throughout the African nation for a week of thoughtful conversations with leaders from the marketing, advertising, technology and creative spaces. During the week, expect wide ranging discuss on where weve been, where were going and what trends, challenges and opportunities are shaping todays global industry.

http://africa.advertisingweek.com/about/",,"Eligibility Criteria: Open to industry professionals and trade visitors
Fees: Platinum Delegate - R10.350
Delegate - R4.200
NewGen Delegate - R1.300
Student - Special rate available
Attendee Registration","Sponsorship and exhibition opportunities available
Contact required for further information
Partnership Registration",,,,,,
Conference,Advertising,Adexchanger's Industry Preview,28 Jan 2020-29 Jan 2020,09:00 AM - 06:00 PM,23-24 Jan 2019,Jan-21,USA,New York,Grand Hyatt New York,800,,https://industrypreview.com/,,events@adexchanger.com,"What to Expect in the Next 12 Months in Marketing Technology

Hear the leaders of the advertising and marketing technology ecosystem reveal new visions for 2020 and beyond. Get unparalleled insight into the latest ideas, trends and technologies that are shaping the marketing and advertising world. Connect with the biggest players in the industry from top brands, agencies, publishers, media companies & technology providers. Come away with the essential knowledge, inspiration and connections you need for the year ahead.

https://industrypreview.com/#whyattend",,"Eligibility Criteria: Open to industry professionals
Fees: Early Bird (by Dec 6) - $2.495
Regular Pricing (Dec 6-Jan 27) - $2.995
Onsite - $3.495
Attendee Registration",,https://industrypreview.com/,https://www.youtube.com/playlist?list=PLsKGdW2iTbg9BjSNsMcNTdZBqd1KXaWnM,http://www.facebook.com/sharer.php?u=http://industrypreview.com/,,https://www.linkedin.com/shareArticle?mini=true&url=http://industrypreview.com/,http://twitter.com/share?url=http://industrypreview.com/
Conference,Advertising,Adexchanger Programmatic I/O New York,15 Oct 2019-16 Oct 2019,09:00 AM - 04:15 PM (15 Oct 2019)|09:00 AM - 03:00 PM (16 Oct 2019),15-16 Oct 2018,Oct-20,USA,New York,Hilton Midtown,1500,,https://programmatic.io/ny/,,events@adexchanger.com,"The Original and World's Largest Conference Focused on Programmatic Media and Marketing

Stay ahead of programmatic trends and connect with peers and industry partners you wont meet anywhere else. Hear from innovators, industry leaders, researchers and analysts on both the buy and sell side of programmatic media and marketing.

https://programmatic.io/ny/#about",,"Eligibility Criteria: Open to industry professionals
Fees: $1.995
Attendee Registration",,https://programmatic.io/ny,https://www.youtube.com/playlist?list=PLsKGdW2iTbg_9WDkQNAAeczFg7xcvSZPk,https://www.facebook.com/events/1998181970463875/,,https://www.linkedin.com/company-beta/2377301/,https://twitter.com/adexchanger
Conference,Advertising,Adexchanger Programmatic I/O San Francisco,11 May 2020-12 May 2020,09:00 AM - 05:00 PM,29-30 Apr 2019,Apr-May 2021,USA,San Francisco,Marriott Marquis,1200,,https://programmatic.io/sf/,,events@adexchanger.com,"Get Educated on the Future of Digital Marketing

Come for insightful presentations, informative panels, in-depth workshops and invaluable networking with Programmatic Leaders.

https://programmatic.io/sf/#about",,"Eligibility Criteria: Open to industry professionals
Fees: Contact required for further information
Registration will be opened.",,https://programmatic.io/sf/,https://www.youtube.com/playlist?list=PLsKGdW2iTbg_gsEzKKRo9XBKgEgXtGKIR,https://www.facebook.com/events/1998181970463875/,,https://www.linkedin.com/company-beta/2377301/,https://twitter.com/adexchanger
Trade Show & Conference,Advertising,Content Marketing World,3 Sep 2019-6 Sep 2019,08:00 AM - 05:15 PM,4-7 Sep 2018,Sep-20,USA,Cleveland,Huntington Convention Center of Cleveland,3700,,https://www.contentmarketingworld.com/,,cmi_registration@ubm.com,"The Place You Can Learn and Network with the Best in the Content Marketing Industry

Content Marketing World is the conference for the marketing/PR professional who develops the strategy or handles the execution of content marketing initiatives for their company or agency.  This is the person that, in some way, develops or curates valuable, relevant and compelling content through one or multiple channels to attract and retain customers, to drive profitable customer action.

https://www.contentmarketingworld.com/who-should-attend-the-conference/","GetResponse,LEAP + Progress,NewsCred,Aprimo,Libris by PhotoShelter + Greenfly,MRP Prelytix,NetLine Corporation,SEMrush,Cadenas Partsolutions,Intrado,Pace,Shootsta,SketchDeck,AmericanEagle.com,Canto,Ceros,Lucidpress,Page One Power,Piano Software Inc.,The HOTH","Eligibility Criteria: Open to industry professionals
Fees: All-Access Pass
Regular - $2.399
Onsite - $2.499
Main Conference Plus
Regular - $1.899
Onsite - $1.999
Main Conference
Regular - $1.399
Onsite - $1.499
Summit or Industry Forum
Regular - $699
Onsite - $749
Attendee Registration","Sponsorship and exhibition opportunities available
Contact required for further information
Sponsor/Exhibitor Registration",,https://cmworld18.onlinepresentations.com/,https://www.facebook.com/ContentMarketingWorld,http://instagram.com/cmicontent,https://www.linkedin.com/company/2416452,https://twitter.com/@cmicontent
Trade Show & Conference,Advertising,ContentTECH Summit,20 Apr 2020-22 Apr 2020,08:00 AM - 06:00 PM,8-10 Apr 2019,Apr-21,USA,San Diego,Marriott Marquis San Diego Marina,,12,https://www.contenttechsummit.com/,,cmi_registration@ubm.com,"Content, Technology & Strategy for Enterprise Marketer-Experiences in Focus

Come to the ContentTECH Summit to learn how new technologies and innovative processes are fundamentally changing what our work will look like in the next two to five years. Attendees of ContentTECH will learn from practitioners and experts in content technology and marketing strategy. The best news? Both speakers and attendees are trailblazing pioneers who are not just traveling the new content roads  but paving them.

https://www.contenttechsummit.com/","Bidtellect,ScribbleLive,Vennli,Aprimo,Canto,Contently,Contentools,FunnelAmplified,MarketMuse,Senuto,OneSpot,PingPilot","Eligibility Criteria: Open to industry professionals
Fees: All-Access Pass
Regular - $2.099
Onsite - $2.399
Main Conference Plus
Regular - $1.899
Onsite - $2.199
Main Conference
Regular - $1.399
Onsite - $1.699
Registration will be opened.
Attendee Registration","Sponsorship and exhibition opportunities available
Contact required for further information
Sponsor/Exhibitor Registration",,https://contenttech2019.videoshowcase.net/,https://www.facebook.com/ContentMarketingInstitute/app_214075708668108,https://instagram.com/cmicontent/,https://www.linkedin.com/company/2416452,https://twitter.com/cmicontent
Trade Show & Conference,Advertising,Traffic & Conversion Summit,25 Feb 2019-27 Feb 2019,08:00 AM - 06:30 PM (25 Feb 2019)|07:00 AM - 06:30 PM (26 Feb 2019)|07:00 AM - 04:45 PM (27 Feb 2019),26-28 Feb 2018,31 Mar-2 Apr 2020,USA,San Diego,San Diego Foyer,6000,80,https://www.trafficandconversionsummit.com/,+1 203 580 1865,support@trafficandconversionsummit.com,"The Largest Marketing Event in North America

It's a fact. Digital marketing changes FAST. And that's why every year, for the last 10 years, thousands of the world's smartest marketers have descended upon San Diego, California to learn what's new, what's hot, and what's actually working RIGHT NOW in digital marketing. Now, it's your turn.

https://www.trafficandconversionsummit.com/about/","WP Engine,AdRoll,ArcaMax,Chetu,DilogR,East 5th Avenue,Free Up,Great Falls Marketing,Investing Channel,Kajabi,LinkedSelling,Macromark,Midigator,Nicholas Kusmich,Page One Power,Powerinbox,Ringba,Scribe,The HOTH,Visify","Eligibility Criteria: Open to industry professionals
Fees: All Access
SUPER Early Bird - $895
Regular - $2.595
VIP
SUPER Early Bird - $1.595
Regular - $3.295
Attendee Registration","Sponsorship and exhibition opportunities available
Contact required for further information
Sponsor/Exhibitor Registration",,https://www.trafficandconversionsummit.com/about/,https://www.facebook.com/digitalmarketer/,,,https://twitter.com/DigitalMktr
Conference,Advertising,Culturati Summit,27 Jan 2019-28 Jan 2019,05:00 PM - 07:00 PM (27 Jan 2019)|09:00 AM - 06:30 PM (28 Jan 2019),28-29 Jan 2018,26-27 Jan 2020,USA,Austin,Silicon Labs,250,,https://culturatisummit.com/,,info@culturatisummit.com,"Culture Powers Performance

The Summit is an intimate, invitation only event. Forbes named it the fourth most important conference for creatives in 2018. In 2018, our speakers included executives from Google, Patagonia, Accenture, PayPal, the San Antonio Spurs, Netflix, SOULCycle, Pelotonia, MailChimp, Turner, the Obama Foundation, Sprint, NACD, Favor, RetailMeNot, the Met Life Foundation, Dell and Civitas Learning.

https://culturatisummit.com/about",,"Eligibility Criteria: Open to industry professionals
Invitation only event
Fees: Earl Bird - $1.500
Attendee Registration",,,https://culturatisummit.com/recap,https://www.facebook.com/CulturatiSummit/?fref=ts,https://www.instagram.com/culturatisummit/,https://www.linkedin.com/company/6654938?trk=tyah&trkInfo=clickedVertical%3Acompany%2CclickedEntityId%3A6654938%2Cidx%3A2-1-2%2CtarId%3A1449019524981%2Ctas%3Aculturati%20summit,https://twitter.com/culturatisummit
Conference,Advertising,Adobe Summit,29 Mar 2020-2 Apr 2020,09:00 AM - 06:00 PM,26-28 Mar 2019,Mar-Apr 2021,USA,Las Vegas,TBD,,,https://2019.summit.adobe.com/na/,+1 866 855 3804,summitsupport@adobe-summit.com,"Get Inspired to Become an Exceptional Experience Maker

See whats ahead for experience marketing and how you can get there. Hear from top brands that are creating breakthrough experiences. Great experiences can set you apart and increase revenue growth, customer retention rates, and customer lifetime value. Come to Summit and see how to use data and design together to create memorable experiences for your customers.

https://2019.summit.adobe.com/na/",,"Eligibility Criteria: Open to industry professionals
Fees: Early Bird price - $1,495
Advance pricing - $1.695
Full price - $1.895
Government, Education, Non-profit attendees - $1.295
Attendee Registration","Sponsorship opportunities available
Contact required for pricing information
Sponsorship Registration",,,https://www.facebook.com/adobesummit/,,https://www.linkedin.com/groups/4279029/profile,https://twitter.com/adobesummit
Conference,Advertising,Adobe Summit Europe,13 May 2020-14 May 2020,08:45  AM - 07:30 PM,15-16 May 2019,May-21,United Kingdom,London,TBD,,,https://summit-emea.adobe.com/emea/,+44 1 462 74 4932,adobe@eventbooking.uk.com,"Where Experience Makers are Born

See whats ahead for experience marketing and how you can get there. Hear from top brands that are creating breakthrough experiences. Great experiences can set you apart and increase revenue growth, customer retention rates, and customer lifetime value. Come to Summit and see how to use data and design together to create memorable experiences for your customers.

https://summit-emea.adobe.com/emea/agenda/why-attend","Caci,Clicktale,Contentsquare,Lionbridge,Syntasa,Priint Suite,Showpad,Siteimprove,Smartling,Station10,Tap London,Tbscg,Tinyclues,Translations.com,Valtech,Workfront,Wrike","Eligibility Criteria: Open to industry professionals
Fees: Contact required for further information
Attendee Registration","Sponsorship opportunities available
Contact required for further information
Sponsorship Registration",,,https://www.facebook.com/adobesummit/,,https://www.linkedin.com/showcase/3509272/,https://twitter.com/adobesummit
Conference,Advertising,Adobe Symposium - The Digital Experiences Conference Sydney,27 Jun 2019-28 Jun 2019,09:30 AM - 05:30 PM (27 Jun 2019)|09:00 AM - 06:00 PM (28 Jun 2019),15-16 Aug 2018,Aug-20,Australia,Sydney,International Convention Centre,4000,,https://symposium.adobe.com/au/,,anzsymp@adobe.com,"Creating experience-led businesses

Adobe Symposium 2019 is about evolving experiences. Its not only where experience makers are born, but where they go to grow. Be part of creating experience-led businesses that bring dynamic, customer-centric visions to life. Defend design. Champion creativity. Be an experience-leader.

https://symposium.adobe.com/au/","Asana,BizTech,Branch,Hellium,Microsoft,Siteimprove","Eligibility Criteria: Open to industry professionals
Fees: Contact required for further information","Partnership opportunities available
Contact required for further information
cepps@adobe.com",,https://symposium.adobe.com/au/highlights,https://facebook.com/adobe,,https://linkedin.com/company/adobe,https://twitter.com/adobe
Conference,Advertising,Adobe Symposium - The Digital Experiences Conference Tokyo,23 Jul 2019-24 Jul 2019,09:00 AM - 09:00 PM,3-5 Sep 2018,TBD,Japan,Tokyo,ANA InterContinental Tokyo,,,https://adobe-symposium.jp/index.html,+81 3 5510 4176,adobe_symposium2019@seminar-reg.jp,"Leading Symposium on Customer Experience Management

Adobe Symposium 2019 welcomes business managers and managers of Adobe Experience Cloud client companies in Japan and overseas, leaders of companies leading various industries, and partners supporting the business of Adobe Experience Cloud.

https://adobe-symposium.jp/index.html",,"Eligibility Criteria: Open to industry professionals
Fees: Contact required for further information",,,,https://www.facebook.com/AdobeExperienceCloudJapan,,,https://twitter.com/AdobeExpCloudJP
Conference,Advertising,Build a Better Agency Summit,18 May 2020-20 May 2020,12:00 PM - 06:30 PM (18 May 2020)|08:30 AM - 05:30 PM (19 May 2020)|08:30 AM - 03:15 PM (20 May 2020),,May-21,USA,Chicago,The Westin Michigan Avenue,200,,https://agencymanagementinstitute.com/babasummit/,+1 800 830 6242,amoehring@meetingdemands.net,"Build an Agency that is Sustainable Scalable & Sellable

Youre going to hear keynotes on proactively defining what you want from your agency and building a plan to get there. Youre going to hear from agency owners who are crushing their goals despite working in some very non-traditional ways. Youre going to learn how to protect your profitability, no matter what season your agency is in.

https://agencymanagementinstitute.com/babasummit/why-attend/",,"Eligibility Criteria: Open to industry professionals
Fees: First time attendee - $1.695 ($200 off 2+ people)
AMI members (gold and above) - $1.495
AMI family day and family dinner - $200
Attendee Registration","Sponsorship Fees: Packages vary between $1.500 - $15.000
Sponsorship Registration",,,https://www.facebook.com/agencymanagementinstitute,,https://www.linkedin.com/in/drewmclellan,https://twitter.com/drewmclellan/
Conference,Advertising,Brand Marketing & Social Marketing Summit,30 May 2019-31 May 2019,09:00 AM - 07:00 PM (30 May 2019)|09:00 AM - 04:15 PM (31 May 2019),30-31 May 2018,May-20,USA,San Francisco,Hyatt Regency,350,,https://events.incite-group.com/west/,+44 207 375 7244,aaron@incite-group.com,"Engaging Stories, Personalized Journeys, Innovative Social and Impactful Influencers

As marketers its vital we pioneer new technologies, strategies and channels, to achieve this. Bringing together world renowned CMOs, innovators and experts, The Brand Marketing Summit will inspire and empower marketing leaders to develop their own departments and drive their organization forward. A holistic cross-industry, cross discipline approach to effective and authentic marketing driven by innovation.

https://events.incite-group.com/west/",,"Eligibility Criteria: Open to industry professionals
Fees: Contact required for further information
Attendee Registration","Sponsorship opportunities available
Contact required for further information
Sponsorship Registration",,https://www.youtube.com/channel/UCA5CmTC-MTtMtWOWSRekdwg,https://facebook.com/incitegrp,,https://www.linkedin.com/groups/4913512/profile,https://twitter.com/Incite_Group
Conference,Advertising,Brand Marketing & Digital Summit,21 Oct 2019-22 Oct 2019,09:00 AM - 06:00 PM,24-25 Oct 2018,Oct-20,USA,New York,New York Marriott at the Brooklyn Bridge,500,,https://events.incite-group.com/east/,+1 800 814 3459 ex.7244,aaron@incite-group.com,"Authentic Engagement on a Personal Level

As marketers its vital we pioneer new technologies, strategies and channels, to achieve this. Bringing together world renowned CMOs, innovators and experts, The Brand Marketing Summit will inspire and empower marketing leaders to develop their own departments and drive their organization forward. A holistic cross-industry, cross discipline approach to effective and authentic marketing driven by innovation.

https://events.incite-group.com/east/",,"Eligibility Criteria: Open to industry professionals
Fees: Executive Pass
Brands - $2.245
Service Providers - $2.945
Standard Pass
Brands - $2.045
Service Providers - $2.745
Economy Pass
Brands - $1.845
Service Providers - $2.545
Attendee Registration","Sponsorship opportunities available
Contact required for further information
Sponsorship Registration",,https://www.youtube.com/channel/UCA5CmTC-MTtMtWOWSRekdwg,https://facebook.com/incitegrp,,https://www.linkedin.com/groups/4913512/profile,https://twitter.com/Incite_Group
Conference,Advertising,The Customer Service and Experience Summit,16 Sep 2019-17 Sep 2019,09:00 AM - 05:05 PM (16 Sep 2019)|09:00 AM - 03:45 PM (17 Sep 2019),18-19 Sep 2018,Sep-20,United Kingdom,London,Leonardo Royal Hotel London Tower Bridge,200,,https://events.incite-group.com/europecs/,+44 207 375 7229,paul@incite-group.com,"Deliver Personalised, Helpful Customer Service at Scale in the Era of Automation

The Customer Service and Experience summit Europe brings together the most important brands to help you set the bar for your multi-channel support strategy going forward.

https://events.incite-group.com/europecs/",,"Eligibility Criteria: Open to industry professionals
Fees: Executive Pass
Brands - 1.695 + VAT
Service Providers - 2.195 + VAT
Standard Pass
Brands - 1.595 + VAT
Service Providers - 2.095 + VAT
Economy Pass
Brands - 1.495 + VAT
Service Providers - 1.895 + VAT
Attendee Registration","Sponsorship opportunities available
Contact required for further information
Sponsorship Registration",,https://www.youtube.com/channel/UCA5CmTC-MTtMtWOWSRekdwg,https://facebook.com/incitegrp,,https://www.linkedin.com/groups/4913512/profile,https://twitter.com/Incite_Group
Conference,Advertising,Annual Customer Service Summit,23 Oct 2019-24 Oct 2019,08:30 AM - 04:40 PM (23 Oct 2019)|08:50 AM - 05:20 PM (24 Oct 2019),4-5 Oct 2018,Oct-20,USA,New York,New York Marriott at the Brooklyn Bridge,350,5,https://events.incite-group.com/customerservice/,+44 207 375 7532,jasmine@incite-group.com,"Innovative Support Driving the Ultimate Customer Experience

At the 9th Annual Customer Service Summit, our mission is to equip support leaders with the tools and strategies they need to overcome these challenges and deliver the ultimate customer experience. Thats why weve gathered together those leading customer support, experience and contact center operations from the worlds most influential brands to set the bar for omnichannel support and ensure we are meeting the needs of customers of the future.

https://events.incite-group.com/customerservice/","AmplifAI,freshworks,Vanilla Forums,World Connection,Zoho","Eligibility Criteria: Open to industry professionals
Fees: Executive Pass
Brands - $2.595
Service Providers - $3.295
Standard Pass
Brands - $2.195
Service Providers - $2.895
Economy Pass
Brands - $1.995
Service Providers - $2.695
Attendee Registration","Sponsorship opportunities available
Contact required for further information
Sponsorship Registration",,https://www.youtube.com/channel/UCA5CmTC-MTtMtWOWSRekdwg,https://facebook.com/incitegrp,,https://www.linkedin.com/groups/4913512/profile,https://twitter.com/Incite_Group
Conference,Advertising,Open Mobile & Digital Experience Summit,7 Nov 2019-8 Nov 2019,09:00 AM - 06:00 PM,27-28 Nov 2018,Nov-20,USA,San Francisco,Hyatt Regency,400,,https://events.incite-group.com/oms/,+44 207 375 7236,hayley@incite-group.com,"Personalize your Digital Product, Marketing and Mobile Engagement Strategy

Open Mobile & Digital Experience Summit SF brings together the leading minds on the cutting edge of digital experience, with a speaker line-up of 50+ C-Suite and VP's dedicated to customer experience, customer retention and growth.

https://events.incite-group.com/oms/",,"Eligibility Criteria: Open to industry professionals
Fees: Executive Pass
Brands - $2.395
Service Providers - $3.095
Standard Pass
Brands - $2.045
Service Providers - $2.895
Economy Pass
Brands - $1.995
Service Providers - $2.695
Attendee Registration","Sponsorship opportunities available
Contact required for further information
Sponsorship Registration",,https://www.youtube.com/channel/UCA5CmTC-MTtMtWOWSRekdwg,https://facebook.com/incitegrp,,https://www.linkedin.com/groups/4913512/profile,https://twitter.com/Incite_Group
Conference,Advertising,Agency Transformation Summit,7 May 2020-8 May 2020,11:30 AM - 07:00 PM (6 May 2020)|08:45 AM - 01:00 PM (7 May 2020),6-7 May 2019,May-21,Canada,Minett,JW Marriott on Lake Rosseau,,,https://theica.ca/agency-transform-summit-2020,+1 800 5677422,ica@icacanada.ca,"Ready for the Client of the Future?

The ICA's Agency Transformation Summit is an engaging and essential leadership forum for the agency sector. As part of our drive to take the lead on providing peer-to-peer connection, interaction, and collaboration on agency challenges and solutions, we've created the ICA's Agency Transformation Summit to help agencies better understand the client of the future and stand up for their value.

https://theica.ca/agency-transform-summit-2020",,"Eligibility Criteria: Open to industry professionals
Fees: Contact required for further information",,,,,,https://www.linkedin.com/company/institute-of-communication-agencies/,https://twitter.com/icacanada
Conference,Advertising,Growth Marketing Conference,10 Dec 2019-11 Dec 2019,09:00 AM - 06:00 PM,11-12 Dec 2018,Dec-20,USA,San Francisco,Fairmont Hotel,2000,,https://growthmarketingconf.com/,,alla@growthmarketingconf.com,"Globally Focused Event for B2B and B2C Growth Marketers

Growth Marketing Conference is the leading, globally-focused event for B2B and B2C growth marketers. We host world-class thought leader speakers and workshop instructors to teach 2,000+ attendees the actionable, no-nonsense growth strategies and tactics that drive rapid, cost-effective, and sustainable revenue and user growth  in 2019 and beyond.

https://gmc2019.growthmarketingconf.com/home",,"Eligibility Criteria: Open to industry professionals
Fees: Conference Pass - $2.550
Conference Team Pass - $978,50
All Access Pass - $3.250
One Day Pass - $978,50
Attendee Registration",,,,https://www.facebook.com/groups/367375373411422/,https://www.instagram.com/growthmarketingtactics/,https://www.linkedin.com/company/growthmarketingconference/,https://twitter.com/growthtactics
Conference,Advertising,Digital Summit New York City,1 May 2019-2 May 2019,08:30 AM - 06:15 PM (1 May 2019)|08:30 AM - 05:40 PM (2 May 2019),,May-20,USA,New York,Jacob K. Javits Convention Center,1000,,https://nyc.digitalsummit.com/,+1 919 529 5373,registration@digitalsummit.com,"The Definitive Digital Marketing Gathering

45+ in-depth, trend-forward digital marketing sessions & workshops  each tons of practical takeaways and ideas to keep you ahead in the digital economy. Hundreds of seasoned marketers, strategists, designers, and more to mingle and connect with. Meet your customers, vendors, expert resources, friends and colleagues of tomorrow.

https://nyc.digitalsummit.com/why-attend/",,"Eligibility Criteria: Open to industry professionals
Fees: Conference Pass - $245
Plus Pass - $345
Premium Pass - $445
Platinum Pass - $995
Attendee Registration","Sponsorship opportunities available
Contact required for further information
Sponsorship Registration",,https://www.youtube.com/channel/UC140AYCbYyk1LbEGTQT6n0g/featured,https://www.facebook.com/DigitalSummits/,https://www.instagram.com/digitalsummits/,https://www.linkedin.com/company/techmedia_2,https://twitter.com/DigitalSummits/
Conference,Advertising,Digital Summit Washington DC,4 Sep 2019-5 Sep 2019,08:30 AM - 05:15 PM (4 Sep 2019)|08:30 AM - 05:35 PM (5 Sep 2019),27-28 Aug 2018,Aug-Sep 2020,USA,Washington DC,Walter E. Washington Convention Center,1200,18,https://dc.digitalsummit.com/,+1 919 529 5373,registration@digitalsummit.com,"The Definitive Digital Marketing Gathering

50+ in-depth, trend-forward digital marketing sessions & workshops  each tons of practical takeaways and ideas to keep you ahead in the digital economy. Hundreds of seasoned marketers, strategists, designers, and more to mingle and connect with. Meet your customers, vendors, expert resources, friends and colleagues of tomorrow.

https://dc.digitalsummit.com/why-attend/","Pantheon,Workfront,Genius Monkey,ActiveCampaign,Wingify,Silverback Strategies,Mapp,TMMData,Naylor,Datawrkz,Sprout Social,JMC Brands,iPost,Americaneagle.com,Zoho Social,SwagChimp,CrowdHost Productions,Brandcast","Eligibility Criteria: Open to industry professionals
Fees: Conference Pass - $345
Plus Pass - $445
Premium Pass - $545
Platinum Pass - $995
Attendee Registration","Sponsorship and exhibition opportunities available
Contact required for further information
Sponsorship Registration",,https://www.youtube.com/channel/UC140AYCbYyk1LbEGTQT6n0g/featured,https://www.facebook.com/DigitalSummits/,https://www.instagram.com/digitalsummits/,https://www.linkedin.com/company/techmedia_2,https://twitter.com/DigitalSummits/
Conference,Advertising,Digital Summit Tampa,11 Sep 2019-12 Sep 2019,08:30 AM - 06:15 PM (11 Sep 2019)|08:30 AM - 05:00 PM (12 Sep 2019),8-9 Aug 2019,Aug-Sep 2020,USA,Tampa,Tampa Convention Center,1000,,https://tampa.digitalsummit.com,+1 919 529 5373,registration@digitalsummit.com,"The Definitive Digital Marketing Gathering

45+ in-depth, trend-forward digital marketing sessions & workshops  each tons of practical takeaways and ideas to keep you ahead in the digital economy. Hundreds of seasoned marketers, strategists, designers, and more to mingle and connect with. Meet your customers, vendors, expert resources, friends and colleagues of tomorrow.

https://nyc.digitalsummit.com/why-attend/","Pantheon,Genius Monkey,ActiveCampaign,Spectrum Reach,Audiencex,Alight Analytics,The HOTH,JMC Brands,Valassis Digital,SwagChimp,CrowdHost Productions","Eligibility Criteria: Open to industry professionals
Fees: Conference Pass - $345
Plus Pass - $445
Premium Pass - $545
Platinum Pass - $995
Conference Pass + Masterclass - $545
Plus Pass + Masterclass - $645
Premium Pass + Masterclass - $745
Masterclass - $200
Attendee Registration","Sponsorship and exhibition opportunities available
Contact required for further information
Sponsorship Registration",,https://www.youtube.com/channel/UC140AYCbYyk1LbEGTQT6n0g/featured,https://www.facebook.com/DigitalSummits/,https://www.instagram.com/digitalsummits/,https://www.linkedin.com/company/techmedia_2,https://twitter.com/DigitalSummits/
Conference,Advertising,Digital Summit Charlotte,2 Oct 2019-3 Oct 2019,08:30 AM - 06:15 PM (2 Oct 2019)|08:30 AM - 05:10 PM (3 Oct 2019),3-4 Oct 2018,Oct-20,USA,Charlotte,Charlotte Convention Center,1000,,https://charlotte.digitalsummit.com,+1 919 529 5373,registration@digitalsummit.com,"The Definitive Digital Marketing Gathering

45+ in-depth, trend-forward digital marketing sessions & workshops  each tons of practical takeaways and ideas to keep you ahead in the digital economy. Hundreds of seasoned marketers, strategists, designers, and more to mingle and connect with. Meet your customers, vendors, expert resources, friends and colleagues of tomorrow.

https://charlotte.digitalsummit.com/why-attend/",,"Eligibility Criteria: Open to industry professionals
Fees: Conference Pass - $295
Plus Pass - $395
Premium Pass - $495
Platinum Pass - $995
Conference Pass + Masterclass - $495
Plus Pass + Masterclass - $595
Premium Pass + Masterclass - $695
Masterclass - $200
Attendee Registration","Sponsorship and exhibition opportunities available
Contact required for further information
Sponsorship Registration",,https://www.youtube.com/channel/UC140AYCbYyk1LbEGTQT6n0g/featured,https://www.facebook.com/DigitalSummits/,https://www.instagram.com/digitalsummits/,https://www.linkedin.com/company/techmedia_2,https://twitter.com/DigitalSummits/
Conference,Advertising,Internet Summit Raleigh,13 Nov 2019-14 Nov 2019,08:30 AM - 06:45 PM (13 Nov 2019)|08:30 AM - 05:50 PM (14 Nov 2019),14-15 Nov 2018,Nov-20,USA,Raleigh,Raleigh Convention Center,2000,,https://internetsummit.com/,+1 919 529 5373,registration@digitalsummit.com,"The Definitive Digital Gathering

90+ in-depth, trend-forward digital marketing sessions & workshops  each tons of practical takeaways and ideas to keep you ahead in the digital economy. Hundreds of seasoned marketers, strategists, designers, and more to mingle and connect with. Meet your customers, vendors, expert resources, friends and colleagues of tomorrow.

https://internetsummit.com/why-attend/",,"Eligibility Criteria: Open to industry professionals
Fees: Conference Pass - $275
Plus Pass - $375
Premium Pass - $475
Platinum Pass - $995
Conference Pass + Masterclass - $475
Plus Pass + Masterclass - $575
Premium Pass + Masterclass - $675
Masterclass - $200
Attendee Registration","Sponsorship and exhibition opportunities available
Contact required for further information
Sponsorship Registration",,https://www.youtube.com/channel/UC140AYCbYyk1LbEGTQT6n0g/featured,https://www.facebook.com/InternetSummit,https://www.instagram.com/internetsummit/,https://www.linkedin.com/company/techmedia_2,https://twitter.com/internet_summit
Conference,Advertising,Digital Summit Minneapolis,14 Aug 2019-15 Aug 2019,08:30 AM - 06:30 PM (14 Aug 2019)|08:30 AM - 05:15 PM (15 Aug 2019),21-23 Aug 2018,Aug-20,USA,Minneapolis,Minneapolis Convention Center,1500,25,https://minneapolis.digitalsummit.com,+1 919 529 5373,registration@digitalsummit.com,"The Definitive Digital Marketing Gathering

50+ in-depth, trend-forward digital marketing sessions & workshops  each tons of practical takeaways and ideas to keep you ahead in the digital economy. Hundreds of seasoned marketers, strategists, designers, and more to mingle and connect with. Meet your customers, vendors, expert resources, friends and colleagues of tomorrow.

https://minneapolis.digitalsummit.com/why-attend/","Pantheon,SEMrush,Acoustic,Adtaxi,Workfront,Genius Monkey,ActiveCampaign,Data Dynamic,Brandfolder,Brandpoint,Simpli.fi,Ringba,PopResearch,Zoho Social,University of St. Thomas,Centro,Celarity,Versique,Rocket55,Siteimprove","Eligibility Criteria: Open to industry professionals
Fees: Conference Pass - $395
Plus Pass - $495
Premium Pass - $595
Platinum Pass - $995
Conference Pass + Masterclass - $595
Plus Pass + Masterclass - $695
Premium Pass + Masterclass - $795
Masterclass - $200
Attendee Registration","Sponsorship and exhibition opportunities available
Contact required for further information
Sponsorship Registration",,https://www.youtube.com/channel/UC140AYCbYyk1LbEGTQT6n0g/featured,https://www.facebook.com/DigitalSummits/,https://www.instagram.com/digitalsummits/,https://www.linkedin.com/company/techmedia_2,https://twitter.com/DigitalSummits/
Conference,Advertising,Digital Summit Chicago,28 Aug 2019-29 Aug 2019,08:30 AM - 06:30 PM (28 Aug 2019)|08:30 AM - 06:00 PM (29 Aug 2019),26-27 Sep 2018,Aug-Sep 2020,USA,Chicago,McCormick Place Convention Center,1700,25,https://chicago.digitalsummit.com,+1 919 529 5373,registration@digitalsummit.com,"The Definitive Digital Marketing Gathering

55+ in-depth, trend-forward digital marketing sessions & workshops  each tons of practical takeaways and ideas to keep you ahead in the digital economy. Hundreds of seasoned marketers, strategists, designers, and more to mingle and connect with. Meet your customers, vendors, expert resources, friends and colleagues of tomorrow.

https://chicago.digitalsummit.com/why-attend/","Pantheon,Acoustic,Upland CXM,Spectrum Reach,Lumavate,Alight Analytics,Ringba,Naylor,Accelo,TMMData,Datawrkz,Audiencex,Brandfolder,Sprout Social,Act On,Brandpoint,PicMonkey,Adthena,Blis,Omnia Marketing Systems","Eligibility Criteria: Open to industry professionals
Fees: Conference Pass - $395
Plus Pass - $495
Premium Pass - $595
Platinum Pass - $995
Attendee Registration","Sponsorship and exhibition opportunities available
Contact required for further information
Sponsorship Registration",,https://www.youtube.com/channel/UC140AYCbYyk1LbEGTQT6n0g/featured,https://www.facebook.com/DigitalSummits/,https://www.instagram.com/digitalsummits/,https://www.linkedin.com/company/techmedia_2,https://twitter.com/DigitalSummits/
Conference,Advertising,Digital Summit Detroit,25 Sep 2019-26 Sep 2019,08:30 AM - 06:30 PM (25 Sep 2019)|08:30 AM - 05:30 PM (26 Sep 2019),12-13 Sep 2018,Sep-20,USA,Detroit,Cobo Center Grand Ballroom,1500,,https://detroit.digitalsummit.com,+1 919 529 5373,registration@digitalsummit.com,"The Definitive Digital Marketing Gathering

55+ in-depth, trend-forward digital marketing sessions & workshops  each tons of practical takeaways and ideas to keep you ahead in the digital economy. Hundreds of seasoned marketers, strategists, designers, and more to mingle and connect with. Meet your customers, vendors, expert resources, friends and colleagues of tomorrow.

https://detroit.digitalsummit.com/why-attend/",,"Eligibility Criteria: Open to industry professionals
Fees: Conference Pass - $295
Plus Pass - $395
Premium Pass - $495
Platinum Pass - $995
Attendee Registration","Sponsorship and exhibition opportunities available
Contact required for further information
Sponsorship Registration",,https://www.youtube.com/channel/UC140AYCbYyk1LbEGTQT6n0g/featured,https://www.facebook.com/DigitalSummits/,https://www.instagram.com/digitalsummits/,https://www.linkedin.com/company/techmedia_2,https://twitter.com/DigitalSummits/
Conference,Advertising,Digital Summit Boston,21 Oct 2019-22 Oct 2019,08:30 AM - 06:15 PM (21 Oct 2019)|08:30 AM - 05:00 PM (22 Oct 2019),15-16 Aug 2018,TBD,USA,Boston,The Westin Boston Waterfront,1000,,https://boston.digitalsummit.com,+1 919 529 5373,registration@digitalsummit.com,"The Definitive Digital Marketing Gathering

55+ in-depth, trend-forward digital marketing sessions & workshops  each tons of practical takeaways and ideas to keep you ahead in the digital economy. Hundreds of seasoned marketers, strategists, designers, and more to mingle and connect with. Meet your customers, vendors, expert resources, friends and colleagues of tomorrow.

https://boston.digitalsummit.com/why-attend/",,"Eligibility Criteria: Open to industry professionals
Fees: Conference Pass - $295
Plus Pass - $395
Premium Pass - $495
Platinum Pass - $995
Attendee Registration","Sponsorship and exhibition opportunities available
Contact required for further information
Sponsorship Registration",,https://www.youtube.com/channel/UC140AYCbYyk1LbEGTQT6n0g/featured,https://www.facebook.com/DigitalSummits/,https://www.instagram.com/digitalsummits/,https://www.linkedin.com/company/techmedia_2,https://twitter.com/DigitalSummits/
Conference,Advertising,Digital Summit Dallas,3 Dec 2019-4 Dec 2019,08:30 AM - 06:45 PM (3 Dec 2019)|08:30 AM - 05:40 PM (4 Dec 2019),4-5 Dec 2019,Dec-20,USA,Irving,Irving Convention Center,1800,,https://dallas.digitalsummit.com,+1 919 529 5373,registration@digitalsummit.com,"The Definitive Digital Marketing Gathering

65+ in-depth, trend-forward digital marketing sessions & workshops  each tons of practical takeaways and ideas to keep you ahead in the digital economy. Hundreds of seasoned marketers, strategists, designers, and more to mingle and connect with. Meet your customers, vendors, expert resources, friends and colleagues of tomorrow.

https://dallas.digitalsummit.com/why-attend/",,"Eligibility Criteria: Open to industry professionals
Fees: Conference Pass - $275
Plus Pass - $375
Premium Pass - $475
Platinum Pass - $995
Conference Pass + Masterclass - $475
Plus Pass + Masterclass - $575
Premium Pass + Masterclass - $675
Masterclass - $200
Attendee Registration","Sponsorship and exhibition opportunities available
Contact required for further information
Sponsorship Registration",,https://www.youtube.com/channel/UC140AYCbYyk1LbEGTQT6n0g/featured,https://www.facebook.com/DigitalSummits/,https://www.instagram.com/digitalsummits/,https://www.linkedin.com/company/techmedia_2,https://twitter.com/DigitalSummits/
Conference,Advertising,Digital Summit Phoenix,11 Feb 2019-12 Feb 2019,08:30 AM - 06:00 PM (11 Feb 2019)|08:30 AM - 05:30 PM (12 Feb 2019),21-22 Feb 2018,Feb-20,USA,Phoenix,Phoenix Convention Center,1200,,https://phoenix.digitalsummit.com,+1 919 529 5373,registration@digitalsummit.com,"The Definitive Digital Marketing Gathering

45+ in-depth, trend-forward digital marketing sessions & workshops  each tons of practical takeaways and ideas to keep you ahead in the digital economy. Hundreds of seasoned marketers, strategists, designers, and more to mingle and connect with. Meet your customers, vendors, expert resources, friends and colleagues of tomorrow.

https://phoenix.digitalsummit.com/why-attend/",,"Eligibility Criteria: Open to industry professionals
Fees: Conference Pass - $245
Plus Pass - $345
Premium Pass - $445
Platinum Pass - $995
Attendee Registration","Sponsorship and exhibition opportunities available
Contact required for further information
Sponsorship Registration",,https://www.youtube.com/channel/UC140AYCbYyk1LbEGTQT6n0g/featured,https://www.facebook.com/DigitalSummits/,https://www.instagram.com/digitalsummits/,https://www.linkedin.com/company/techmedia_2,https://twitter.com/DigitalSummits/
Conference,Advertising,Digital Summit Seattle,26 Feb 2019-27 Feb 2019,08:30 AM - 06:20 PM (26 Feb 2019)|08:30 AM - 05:45 PM (27 Feb 2019),17-18 Apr 2018,Feb-20,USA,Seattle,Washington State Convention Center,1300,,https://seattle.digitalsummit.com,+1 919 529 5373,registration@digitalsummit.com,"The Definitive Digital Marketing Gathering

50+ in-depth, trend-forward digital marketing sessions & workshops  each tons of practical takeaways and ideas to keep you ahead in the digital economy. Hundreds of seasoned marketers, strategists, designers, and more to mingle and connect with. Meet your customers, vendors, expert resources, friends and colleagues of tomorrow.

https://seattle.digitalsummit.com/why-attend/",,"Eligibility Criteria: Open to industry professionals
Fees: Conference Pass - $245
Plus Pass - $345
Premium Pass - $445
Platinum Pass - $995
Attendee Registration","Sponsorship and exhibition opportunities available
Contact required for further information
Sponsorship Registration",,https://www.youtube.com/channel/UC140AYCbYyk1LbEGTQT6n0g/featured,https://www.facebook.com/DigitalSummits/,https://www.instagram.com/digitalsummits/,https://www.linkedin.com/company/techmedia_2,https://twitter.com/DigitalSummits/
Conference,Advertising,Digital Summit Salt Lake City,5 Mar 2019-6 Mar 2019,08:30 AM - 06:15 PM (5 Mar 2019)|08:30 AM - 05:15 PM (6 Mar 2019),1-2 May 2018,Mar-20,USA,West Valley,Utah Cultural Celebration Center,1000,,https://saltlakecity.digitalsummit.com,+1 919 529 5373,registration@digitalsummit.com,"The Definitive Digital Marketing Gathering

45+ in-depth, trend-forward digital marketing sessions & workshops  each tons of practical takeaways and ideas to keep you ahead in the digital economy. Hundreds of seasoned marketers, strategists, designers, and more to mingle and connect with. Meet your customers, vendors, expert resources, friends and colleagues of tomorrow.

https://saltlakecity.digitalsummit.com/why-attend/",,"Eligibility Criteria: Open to industry professionals
Fees: Conference Pass - $245
Plus Pass - $345
Premium Pass - $445
Platinum Pass - $995
Attendee Registration","Sponsorship and exhibition opportunities available
Contact required for further information
Sponsorship Registration",,https://www.youtube.com/channel/UC140AYCbYyk1LbEGTQT6n0g/featured,https://www.facebook.com/DigitalSummits/,https://www.instagram.com/digitalsummits/,https://www.linkedin.com/company/techmedia_2,https://twitter.com/DigitalSummits/
Conference,Advertising,Digital Summit Los Angeles,10 Apr 2019-11 Apr 2019,08:30 AM - 06:15 PM (10 Apr 2019)|08:30 AM - 05:30 PM (11 Apr 2019),10-11 Apr 2018,Apr-20,USA,Los Angeles,Skirball Cultural Center,1000,,https://losangeles.digitalsummit.com,+1 919 529 5373,registration@digitalsummit.com,"The Definitive Digital Marketing Gathering

45+ in-depth, trend-forward digital marketing sessions & workshops  each tons of practical takeaways and ideas to keep you ahead in the digital economy. Hundreds of seasoned marketers, strategists, designers, and more to mingle and connect with. Meet your customers, vendors, expert resources, friends and colleagues of tomorrow.

https://losangeles.digitalsummit.com/why-attend/",,"Eligibility Criteria: Open to industry professionals
Fees: Conference Pass - $245
Plus Pass - $345
Premium Pass - $445
Platinum Pass - $995
Attendee Registration","Sponsorship and exhibition opportunities available
Contact required for further information
Sponsorship Registration",,https://www.youtube.com/channel/UC140AYCbYyk1LbEGTQT6n0g/featured,https://www.facebook.com/DigitalSummits/,https://www.instagram.com/digitalsummits/,https://www.linkedin.com/company/techmedia_2,https://twitter.com/DigitalSummits/
Conference,Advertising,Digital Summit Kansas City,15 May 2019-16 May 2019,08:30 AM - 06:30 PM (15 May 2019)|08:30 AM - 05:15 PM (16 May 2019),16-17 May 2018,May-20,USA,Overland Park,Overland Park Convention Center,1200,,https://kansascity.digitalsummit.com,+1 919 529 5373,registration@digitalsummit.com,"The Definitive Digital Marketing Gathering

45+ in-depth, trend-forward digital marketing sessions & workshops  each tons of practical takeaways and ideas to keep you ahead in the digital economy. Hundreds of seasoned marketers, strategists, designers, and more to mingle and connect with. Meet your customers, vendors, expert resources, friends and colleagues of tomorrow.

https://kansascity.digitalsummit.com/why-attend/",,"Eligibility Criteria: Open to industry professionals
Fees: Conference Pass - $245
Plus Pass - $345
Premium Pass - $445
Platinum Pass - $995
Attendee Registration","Sponsorship and exhibition opportunities available
Contact required for further information
Sponsorship Registration",,https://www.youtube.com/channel/UC140AYCbYyk1LbEGTQT6n0g/featured,https://www.facebook.com/DigitalSummits/,https://www.instagram.com/digitalsummits/,https://www.linkedin.com/company/techmedia_2,https://twitter.com/DigitalSummits/
Conference,Advertising,Digital Summit Atlanta,21 May 2019-22 May 2019,08:30 AM - 06:15 PM (21 May 2019)|08:30 AM - 06:00 PM (22 May 2019),22-23 May 2018,May-20,USA,Atlanta,Cobb Energy Performing Arts Centre,1500,,https://atlanta.digitalsummit.com,+1 919 529 5373,registration@digitalsummit.com,"The Definitive Digital Marketing Gathering

55+ in-depth, trend-forward digital marketing sessions & workshops  each tons of practical takeaways and ideas to keep you ahead in the digital economy. Hundreds of seasoned marketers, strategists, designers, and more to mingle and connect with. Meet your customers, vendors, expert resources, friends and colleagues of tomorrow.

https://atlanta.digitalsummit.com/why-attend/",,"Eligibility Criteria: Open to industry professionals
Fees: Conference Pass - $245
Plus Pass - $345
Premium Pass - $445
Platinum Pass - $995
Attendee Registration","Sponsorship and exhibition opportunities available
Contact required for further information
Sponsorship Registration",,https://www.youtube.com/channel/UC140AYCbYyk1LbEGTQT6n0g/featured,https://www.facebook.com/DigitalSummits/,https://www.instagram.com/digitalsummits/,https://www.linkedin.com/company/techmedia_2,https://twitter.com/DigitalSummits/
Conference,Advertising,Digital Summit Austin,4 Jun 2019-5 Jun 2019,08:30 AM - 06:15 PM (4 Jun 2019)|08:30 AM - 05:00 PM (5 Jun 2019),,Jun-20,USA,Austin,Sheraton Austin Hotel at the Capitol,700,,https://austin.digitalsummit.com,+1 919 529 5373,registration@digitalsummit.com,"The Definitive Digital Marketing Gathering

45+ in-depth, trend-forward digital marketing sessions & workshops  each tons of practical takeaways and ideas to keep you ahead in the digital economy. Hundreds of seasoned marketers, strategists, designers, and more to mingle and connect with. Meet your customers, vendors, expert resources, friends and colleagues of tomorrow.

https://austin.digitalsummit.com/why-attend/",,"Eligibility Criteria: Open to industry professionals
Fees: Conference Pass - $245
Plus Pass - $345
Premium Pass - $445
Platinum Pass - $995
Attendee Registration","Sponsorship and exhibition opportunities available
Contact required for further information
Sponsorship Registration",,https://www.youtube.com/channel/UC140AYCbYyk1LbEGTQT6n0g/featured,https://www.facebook.com/DigitalSummits/,https://www.instagram.com/digitalsummits/,https://www.linkedin.com/company/techmedia_2,https://twitter.com/DigitalSummits/
Conference,Advertising,Digital Summit Portland,11 Jun 2019-12 Jun 2019,08:30 AM - 06:30 PM (11 Jun 2019)|08:30 AM - 04:50 PM (12 Jun 2019),12-13 Jun 2018,Jun-20,USA,Portland,Oregon Convention Center,1200,,https://portland.digitalsummit.com,+1 919 529 5373,registration@digitalsummit.com,"The Definitive Digital Marketing Gathering

50+ in-depth, trend-forward digital marketing sessions & workshops  each tons of practical takeaways and ideas to keep you ahead in the digital economy. Hundreds of seasoned marketers, strategists, designers, and more to mingle and connect with. Meet your customers, vendors, expert resources, friends and colleagues of tomorrow.

https://portland.digitalsummit.com/why-attend/",,"Eligibility Criteria: Open to industry professionals
Fees: Conference Pass - $245
Plus Pass - $345
Premium Pass - $445
Platinum Pass - $995
Attendee Registration","Sponsorship and exhibition opportunities available
Contact required for further information
Sponsorship Registration",,https://www.youtube.com/channel/UC140AYCbYyk1LbEGTQT6n0g/featured,https://www.facebook.com/DigitalSummits/,https://www.instagram.com/digitalsummits/,https://www.linkedin.com/company/techmedia_2,https://twitter.com/DigitalSummits/
Conference,Advertising,Digital Summit Denver,25 Jun 2019-26 Jun 2019,08:30 AM - 06:30 PM (25 Jun 2019)|08:30 AM - 05:30 PM (26 Jun 2019),17-18 Jul 2018,Jun-20,USA,Denver,Denver Performing Arts Complex,2500,,https://denver.digitalsummit.com,+1 919 529 5373,registration@digitalsummit.com,"The Definitive Digital Marketing Gathering

75+ in-depth, trend-forward digital marketing sessions & workshops  each tons of practical takeaways and ideas to keep you ahead in the digital economy. Hundreds of seasoned marketers, strategists, designers, and more to mingle and connect with. Meet your customers, vendors, expert resources, friends and colleagues of tomorrow.

https://denver.digitalsummit.com/why-attend/",,"Eligibility Criteria: Open to industry professionals
Fees: Conference Pass - $245
Plus Pass - $345
Premium Pass - $445
Platinum Pass - $995
Attendee Registration","Sponsorship and exhibition opportunities available
Contact required for further information
Sponsorship Registration",,https://www.youtube.com/channel/UC140AYCbYyk1LbEGTQT6n0g/featured,https://www.facebook.com/DigitalSummits/,https://www.instagram.com/digitalsummits/,https://www.linkedin.com/company/techmedia_2,https://twitter.com/DigitalSummits/
Conference,Advertising,Digital Summit Philadelphia,24 Jul 2019-25 Jul 2019,08:30 AM - 06:15 PM (24 Jul 2019)|08:30 AM - 05:45 PM (25 Jul 2019),31 Jul-1 Aug 2018,Jul-20,USA,Philadelphia,Pennsylvania Convention Center,1400,,https://philadelphia.digitalsummit.com,+1 919 529 5373,registration@digitalsummit.com,"The Definitive Digital Marketing Gathering

45+ in-depth, trend-forward digital marketing sessions & workshops  each tons of practical takeaways and ideas to keep you ahead in the digital economy. Hundreds of seasoned marketers, strategists, designers, and more to mingle and connect with. Meet your customers, vendors, expert resources, friends and colleagues of tomorrow.

https://philadelphia.digitalsummit.com/why-attend/",,"Eligibility Criteria: Open to industry professionals
Fees: Conference Pass - $245
Plus Pass - $345
Premium Pass - $445
Platinum Pass - $995
Attendee Registration","Sponsorship and exhibition opportunities available
Contact required for further information
Sponsorship Registration",,https://www.youtube.com/channel/UC140AYCbYyk1LbEGTQT6n0g/featured,https://www.facebook.com/DigitalSummits/,https://www.instagram.com/digitalsummits/,https://www.linkedin.com/company/techmedia_2,https://twitter.com/DigitalSummits/
Conference,Advertising,Digital Marketing Leaders Summit Hong Kong,5 Dec 2019-6 Dec 2019,08:00 AM - 05:00 PM,6-7 Dec 2018,Dec-20,China,Hong Kong,Hyatt Regency Tsim Sha Tsui,150,,https://forwardleading.co.uk/summits/digital-marketing-leaders-hong-kong-2019,,marketing@forwardleading.co.uk,"The Region's Leading Marketing Event

The Digital Marketing Leaders Summit is the regions leading event where ambitious marketers can discover, learn and experience the future of marketing and emerging technologies. This year the summit brings together 150 in-house creative marketers, digital evangelist and strategists from a wide range of industries.

https://forwardleading.co.uk/summits/digital-marketing-leaders-hong-kong-2019",,"Eligibility Criteria: Open to industry professionals
Fees: Early Bird Silver Pass - $699
Early Bird Gold Pass - $799
Early Bird Platinum Pass - $999
Attendee Registration","Sponsorship opportunities available
Contact required for further information
Sponsorship Registration",,,https://www.facebook.com/forwardleadingLTD/,https://www.instagram.com/forwardleadingltd/,https://www.linkedin.com/company/forwardleading/,https://twitter.com/ForwardLeading
Conference,Advertising,Digital Marketing Leaders Summit Singapore,11 Sep 2019-12 Sep 2019,08:50 AM - 06:30 PM (11 Sep 2019)|09:20 AM - 05:15 PM (12 Sep 2019),12-13 Sep 2018,Sep-20,Singapore,,Marina Bay Sands,150,,https://forwardleading.co.uk/summits/digital-marketing-leaders-singapore-2019,,marketing@forwardleading.co.uk,"The Region's Leading Marketing Event

The Digital Marketing Leaders Summit is the regions leading event where ambitious marketers can discover, learn and experience the future of marketing and emerging technologies. This year the summit brings together 150 in-house creative marketers, digital evangelist and strategists from a wide range of industries.

https://forwardleading.co.uk/summits/digital-marketing-leaders-singapore-2019",,"Eligibility Criteria: Open to industry professionals
Fees: Silver Pass - $899
Gold Pass - $999
Platinum Pass - $1.199
Attendee Registration","Sponsorship opportunities available
Contact required for further information
Sponsorship Registration",,,https://www.facebook.com/forwardleadingLTD/,https://www.instagram.com/forwardleadingltd/,https://www.linkedin.com/company/forwardleading/,https://twitter.com/ForwardLeading
Conference,Advertising,Forward Sydney Summit,26 Feb 2020-27 Feb 2020,TBD,,Feb-21,Australia,Sydney,TBD,300,,https://forwardleading.co.uk/summits/forwardleading-sydney-summit-2020,,marketing@forwardleading.co.uk,"Trends in Marketing and Martech

We conduct in-depth market research and deliberately develop the agenda with leaders and experts who are at the forefront of marketing trends and technology to ensure that the event answers your true needs and interests. There are keynotes, thematic tracks, panel discussions, deep-dive sessions, networking lunches and drinks designed to maximise your experience.

https://forwardleading.co.uk/summits/forwardleading-sydney-summit-2020",,"Eligibility Criteria: Open to industry professionals
Fees: Early Bird Silver Pass - A$999
Early Bird Gold Pass - A$1.099
Early Bird Platinum Pass - $1.399
Attendee Registration","Sponsorship opportunities available
Contact required for further information
Sponsorship Registration",,,https://www.facebook.com/forwardleadingLTD/,https://www.instagram.com/forwardleadingltd/,https://www.linkedin.com/company/forwardleading/,https://twitter.com/ForwardLeading
Conference,Advertising,Digital Marketing Leaders Summit Jakarta,5 Mar 2020-6 Mar 2020,TBD,5-6 Mar 2019,Mar-21,Indonesia,Jakarta,TBD,100,,https://forwardleading.co.uk/summits/digital-marketing-leaders-jakarta-2020,,marketing@forwardleading.co.uk,"
Gathering of Asia's Most Influential Digital Leaders

The summit will gather the most influential, knowledgable and innovative digital strategists and marketers both regionally and across the globe. But they also must have that 'special something'; it could be a unique human touch, a truly individual mind, or the courage to take their organisation through hell and back- and win. We've found that these particular people can offer the best to our audience, and are able to get the best from them in return.

https://forwardleading.co.uk/summits/digital-marketing-leaders-jakarta-2020",,"Eligibility Criteria: Open to industry professionals
Fees: Startup Pass - $200
Silver Pass - $400
Gold Pass - $599
Attendee Registration","Sponsorship opportunities available
Contact required for further information
Sponsorship Registration",,,https://www.facebook.com/forwardleadingLTD/,https://www.instagram.com/forwardleadingltd/,https://www.linkedin.com/company/forwardleading/,https://twitter.com/ForwardLeading
Conference,Advertising,Brand Marketing Leaders Summit,22 Apr 2020-23 Apr 2020,TBD,24-25 Apr 2019,Apr-21,Singapore,,Singapore Marriott Tang Plaza Hotel,100,,https://forwardleading.co.uk/summits/brand-marketing-leaders-summit-singapore-2020,,marketing@forwardleading.co.uk,"Asia's Most Anticipated and Influential Brand Marketing Conference

Brand Marketing Leaders Summit will gather the most influential, knowledgable and innovative brand strategists and marketers both regionally and across the globe. These individuals are guaranteed to offer the best content and insights to our audiences.

https://forwardleading.co.uk/summits/brand-marketing-leaders-summit-singapore-2020",,"Eligibility Criteria: Open to industry professionals
Fees: Early Bird Silver Pass - $699
Early Bird Gold Pass - $799
Early Bird Platinum Pass - $999
Attendee Registration","Sponsorship opportunities available
Contact required for further information
Sponsorship Registration",,,https://www.facebook.com/forwardleadingLTD/,https://www.instagram.com/forwardleadingltd/,https://www.linkedin.com/company/forwardleading/,https://twitter.com/ForwardLeading
Conference,Advertising,Youth Marketing Strategy San Francisco,30 Oct 2019,09:00 AM - 03:40 PM,12-Jun-18,TBD,USA,San Francisco,Fort Mason Center,300,,https://ymssfo.voxburner.com,+1 646 661 2857,,"Drive Your Gen Z Strategy Forward

YMS returns to San Francisco for a second year running. A must-attend event for anyone looking to understand and reach the ever changing youth demographic. YMS offers the latest insights, freshest ideas and invaluable networking opportunities ready to drive your Gen Z marketing strategy forward.

https://ymssfo.voxburner.com/",,"Eligibility Criteria: Open to industry professionals
Fees: Super Early Bird -  $549 + Tax
Full Price - $749 + Tax
Group Pass x 5 - $449 + Tax
Attendee Registration","Sponsorship & exhibition opportunities available
Contact required for further information
Sponsorship Registration",,https://www.youtube.com/channel/UCP1FD1f607DOPJvlbc2wYoA/featured,,http://instagram.com/voxburner,https://www.linkedin.com/company/3100211/,https://twitter.com/voxburner
Trade Show & Conference,Advertising,Youth Marketing Strategy London,29 Apr 2020-30 Apr 2020,08:30 AM - 05:30 PM,16-17 Apr 2019,Apr-21,United Kingdom,London,The Old Truman Brewery,3000,100,https://ymsldn.voxburner.com/,+44 20 3422 7000,,"The World's Leading Youth Marketing Festival

Discover the latest trends, youth perspectives and brand case studies at YMS LDN, the worlds leading youth marketing festival. Youll leave with the insights, tools and contacts you need to win over the most diverse, influential and ambitious generation of young people yet.

https://ymsldn.voxburner.com","Marin,Nosto,Sprout Social,Tailify,The Tab,Adthena,CampaignUp,Brave Bison,Student Beans,CROWD.agency,Qumin,The Student Room,GlobalWebIndex,KRPT,Social Chain,The Student Marketing Company,Brightcove Inc.,DataSine,Fanbytes,GetResponse","Eligibility Criteria: Open to industry professionals
Fees: Super Early Bird - 595 + VAT
Group Pass x 10 - 550 + VAT
Early Bird - 745 + VAT
Full Price Ticket - 1.145 + VAT
Attendee Registration","Sponsorship & exhibition opportunities available
Contact required for further information
Sponsorship Registration",,https://www.youtube.com/playlist?list=PLZyeIRIBt2yFSeSxulGrmg_YUMZs6CPQR,,http://instagram.com/voxburner,https://www.linkedin.com/company/3100211/,https://twitter.com/voxburner
Conference,Advertising,Youth Marketing Strategy NYC,17 Sep 2019-18 Sep 2019,08:55 AM - 06:00 PM,2-3 Oct 2018,Sep-Oct 2020,USA,New York,The Landing @ Industry City,1500,,https://ymsnyc.voxburner.com,+1 646 661 2857,,"Drive Your Gen Z Marketing Strategy Forward

YMS returns for a 6th year in New York. A must-attend event for anyone looking to understand and reach the ever changing youth demographic. YMS offers the latest insights, freshest ideas and invaluable networking opportunities ready to drive your Gen Z marketing strategy forward.

https://ymsnyc.voxburner.com/",,"Eligibility Criteria: Open to industry professionals
Fees: Early Bird - $849 + Tax
Full Price - $1.000 + Tax
Group Pass x 5 - $600 + Tax
Attendee Registration","Sponsorship & exhibition opportunities available
Contact required for further information
Sponsorship Registration",,https://www.youtube.com/playlist?list=PLZyeIRIBt2yE8laFnMLZkC7pJmFNrl0hZ,,http://instagram.com/voxburner,https://www.linkedin.com/company/3100211/,https://twitter.com/voxburner
Conference,Advertising,The Digital Transformation Conference London,21 Nov 2019,09:00 AM - 06:00 PM,22-Nov-18,Nov-20,United Kingdom,London,TBD,,,http://digitaltransformationconf.co.uk/,,hello@roar-media.co.uk,"The UK's Biggest Digital Business Innovation Conference

The Digital Transformation Conference returns to London on November 21st for our fourth year to dive deeper than ever before into the world of digital business, going beyond the buzz-word of Digital Transformation and making real sense of transformation through business use cases, common challenges and inspirational ideas.

http://digitaltransformationconf.co.uk/",,"Eligibility Criteria: Open to industry professionals
Fees: Full Access Pass (Super-Early-Bird) - 249","Sponsorship opportunities available
Contact required for further information
sam@roar-media.co.uk",,,,,https://www.linkedin.com/company/roar-media-uk/,https://twitter.com/Roar_Digital
Conference,Advertising,The Digital Transformation Conference Boston,17 Oct 2019,08:30 AM - 06:00 PM,20-Sep-18,Sep-Oct 2020,USA,Boston,"The Hyatt Regency, One Avenue de Lafayette (expected)",,,http://digitaltransformationconf.com/,,hello@roar-media.co.uk,"The Global Business Conference Series

Digital Business Leaders share case studies, their challenges, success stories and a whole lot more at The Digital Transformation Conference 2019. Digital Transformation is reinventing organisations through the use of digital technology. The pace of change over the last five years has been hugely significant with businesses accelerating digital capabilities at an astonishing rate.

http://digitaltransformationconf.com/",,"Eligibility Criteria: Open to industry professionals
Fees: Full Access Pass (Super-Early-Bird) - $249","Sponsorship opportunities available
Contact required for further information
sam@roar-media.co.uk",,,,,https://www.linkedin.com/company/roar-media-uk/,https://twitter.com/Roar_Digital
Conference,Advertising,The D.C. Digital Transformation Conference,24 Oct 2019,08:30 AM - 06:00 PM,03-Oct-18,Oct-20,USA,Washington DC,TBD,,,http://digitaltransformationdc.com/,,hello@roar-media.co.uk,"Diving Deeper into Both Federal & Enterprise Transformational Success

With rapid transformation comes the need to properly harness digital technologies and put them into effective use. The Digital Transformation Summit D.C. brings together leaders spearheading digital initiatives in their organisations to offer insights, education and case studies on what can be a confusing environment.

http://digitaltransformationdc.com/",,"Eligibility Criteria: Open to industry professionals
Fees: Full Access Pass (Super-Early-Bird) - $199","Sponsorship opportunities available
Contact required for further information
sam@roar-media.co.uk",,,,,https://www.linkedin.com/company/roar-media-uk/,https://twitter.com/Roar_Digital
Trade Show & Conference,Advertising,MAD/Fest,13 Nov 2019-14 Nov 2019,09:00 AM - 06:00 PM,28-29 Nov 2018,Nov-20,United Kingdom,London,Old Truman Brewery,4000,,https://www.madfestlondon.com/,+44 20 7420 3252,info@madfestlondon.com,"The UK's Largest Festival for Brand Decision Makers

MAD/Fest London 2019 will pull together crew of marketers, start-ups, disruptors, tech types and media folk, and also the people who are carving out the future of marketing, advertising and technology.

https://www.madfestlondon.com/about#about",,"Eligibility Criteria: Open to industry professionals and trade visitors
Fees: Early Bird Networker Pass - 1.995 + Fee + VAT (by 31 Aug)
Early Bird 2 Networker Pass - 2.495 + Fee + VAT (by 30 Sep)
Networker Pass - 2.995 + Fee + VAT (by 13 Nov)
Attendee Registration","Sponsorship and exhibition opportunities available
Contact required for further information
Sponsor/Exhibitor Registration",,https://www.youtube.com/channel/UCi6UpXbMvnnnAgWD7cPz9_A/videos,,https://www.instagram.com/madfestlondon/,https://www.linkedin.com/company/mad-fest/,https://twitter.com/MADFESTLONDON
Conference,Advertising,UnGagged Los Angeles,7 Nov 2019-8 Nov 2019,09:00 AM - 05:30 PM (7 Nov 2019)|09:00 AM - 05:30 PM (8 Nov 2019),4-7 Nov 2018,Nov-20,USA,Los Angeles,Convene South Grand Avenue,,,https://www.ungagged.com/los-angeles/,+1 855 664 8155,support@ungagged.com,"The Ultimate Digital Marketing Convention

UnGagged Los Angeles is an SEO and Digital Marketing conference unlike any other. We dedicate two days to delivering actionable methods and strategies, covering all aspects of online marketing, including CRO, technical SEO, link building, analytics, affiliate marketing and content marketing. Then, as if that wasnt enough, we also run one-day intensive masterclasses on a range of subjects, giving you the opportunity to go into more depth on the area of SEO and IM that matters most to you.

https://www.ungagged.com/los-angeles/",,"Eligibility Criteria: Open to industry professionals
Fees: Early Bird - Full Access Ticket - $999 (by 31 Aug)
4+ Early Bird - Full Access Ticket - $928 (by 31 Aug)
Onsite - $1.595
Attendee Registration","Sponsorship Fees: Packages vary between $400 - $23.000
Exhibitor Fees: Rolling Screensaver between Sessions - $750
Banners in Networking Space - $800
Registration Area Sponsor - $2.000
Sponsored Table - $3.750
Keynote Sponsor - $4.000
Sponsor/Exhibit Registration",,https://www.youtube.com/c/UnGagged,https://www.facebook.com/UngaggedUSA,https://www.instagram.com/ungagged,https://www.linkedin.com/company/ungagged-ltd,https://twitter.com/UnGaggedUSA
Conference,Advertising,UnGagged London,1 Apr 2019-2 Apr 2019,10:00 AM - 05:30 PM (1 Apr 2019)|09:00 AM - 05:30 PM (2 Apr 2019),11-13 Jun 2018,TBD,United Kingdom,London,etc.venues County Hall,,,https://www.ungagged.com/london/,+44 333 150 2075,support@ungagged.com,"Go Beyond the Concentional Wisdom

Go beyond the Conventional wisdom and learn the strategies that experts wont reveal anywhere else! Youll get actionable methods, unfiltered advice and real-world digital marketing concepts through practical step-by-step sessions. Unlike most SEO conferences, UnGagged is unrecorded with a strict No fluff and no sales pitches policy; we focus on valuable take-away methods that can be implemented the next day before it becomes common knowledge.

https://www.ungagged.com/london/",,"Eligibility Criteria: Open to industry professionals
Fees: General Admission - 799 + VAT
4+ General Admission - 759 + VAT
Attendee Registration","Sponsorship Fees: Packages vary between $400 - $23.000
Exhibitor Fees: Rolling Screensaver between Sessions - $750
Banners in Networking Space - $800
Registration Area Sponsor - $2.000
Sponsored Table - $3.750
Keynote Sponsor - $4.000
Sponsor/Exhibit Registration",,https://www.youtube.com/playlist?list=PLxj3DhbNdt1h2th6duBRVaz-FTLi4wmZs,https://www.facebook.com/UngaggedUSA,https://www.instagram.com/ungagged,https://www.linkedin.com/company/ungagged-ltd,https://twitter.com/UnGaggedUSA
Conference,Advertising,DAM San Diego,6 Nov 2019-7 Nov 2019,09:00 AM - 06:00 PM,15-16 Nov 2018,Nov-20,USA,San Diego,Hilton San Diego Bayfront,,,https://www.henrystewartconferences.com/events/events-dam-san-diego-2019,+44 207 092 3494,claires@henrystewart.co.uk,"The Art and Practice of Managing Digital Media

As the West Coast's leading conference dedicated to Digital Asset Management, we provide a unique environment to exchange knowledge, experiences and build long lasting professional networks. We examine through real world case studies, interactive panels, workshops, roundtables and tutorials, the latest thinking and new developments in the world of DAM - all from the users perspective.

https://www.henrystewartconferences.com/events/events-dam-san-diego-2019","Censhare,Digimarc,Orange Logic,Widen,MediaBeacon","Eligibility Criteria: Open to industry professionals
Fees: Super Early Bird (by August 23)
End User - $1.099
Solution Provider - $1.399
Non Profit - $799
Additional Delegates - $650
Standard Fee
End User - $1.299
Solution Provider - $1.599
Non Profit - $899
Additional Delegates - $650
Attendee Registration","Sponsorship and exhibition opportunities available
Contact required for further information
daniell@henrystewart.co.uk
+44 207 092 3488",,,https://www.facebook.com/henrystewartdam/,,https://www.linkedin.com/company/henry-stewart/,https://twitter.com/henrystewartdam/
Trade Show & Conference,Advertising,Influence Marketing Show,22 Oct 2019-23 Oct 2019,09:00 AM - 06:00 PM,15-16 Oct 2018,Oct-20,United Kingdom,London,Old Billingsgate,250,40,https://performancein.live/influencer-marketing-show/,+44 117 990 2950,events@performancein.com,"Definitive Event for Brands Looking for the Best Content

The Influencer Marketing Show educates brands, agencies, tech platforms and content creators, enabling them to make smarter decisions on their influencer marketing campaigns.

https://performancein.live/ims-about/","HypeAuditor,Influencity,Inkwave,MIN,Mikz Alliance,Stellar,Traackr","Eligibility Criteria: Open to industry professionals
Fees: Standard - 300 + VAT
Networking - 350 + VAT
VIP - 500 + VAT
Attendee Registration","Sponsorship and exhibition opportunities available
Contact required for further information
Sponsor/Exhibitor Registration",,,https://www.facebook.com/influencershow/,https://www.instagram.com/influencershow/,https://www.linkedin.com/company/influencer-marketing-show/,https://twitter.com/influencershow
Conference,Advertising,Hero Conf London,21 Oct 2019-22 Oct 2019,09:15 AM - 06:15 PM (21 Oct 2019)|09:00 AM - 05:15 PM (22 Oct 2019),22-24 Oct 2018,Oct-20,United Kingdom,London,etc.venues St. Pauls,300,,https://www.ppchero.com/hero-conf-london/,,heroconf@hanapinmarketing.com,"The World's Only All-PPC Conference

Hero Conf goes abroad for our 5th annual London event, 21 & 22 October at etc.venues St Pauls. We are a gathering of digital nerds looking for a training event that covers PPC alongside the most pressing developments in the world of digital marketing. Expect a deep-dive into the content you need to manage your accounts better, stay up-to-date on industry trends and generally have fun learning about the latest in paid search.

https://www.ppchero.com/hero-conf-london/about/",,"Eligibility Criteria: Open to industry professionals
Fees: Conference Only Pass - 975
Conference Pass + Excel Coaching - 1.495
Conference Pass + Agency Coaching - 1.495
Attendee Registration","Sponsorship opportunities available
Contact required for further information
Sponsorship Registration",https://www.ppchero.com/hero-conf-london/about/#gallery-1,,https://www.facebook.com/heroconf/,,https://www.linkedin.com/company/hanapin-marketing,https://twitter.com/heroconf
Conference,Advertising,Hero Conf Austin,8 Apr 2020-9 Apr 2020,08:45 AM - 06:15 PM,22-25 Apr 2018,Apr-21,USA,Austin,Hilton Austin,600,,https://www.ppchero.com/hero-conf/,,heroconf@hanapinmarketing.com,"The World's Only All-PPC Conference

Hero Conf launches our 9th annual US event, April 8-9 at the Hilton Austin. We are a gathering of digital nerds looking for a training event that covers PPC alongside the most pressing developments in the world of digital marketing. Expect a deep-dive into the content you need to manage your accounts better, stay up-to-date on industry trends and generally have fun learning about the latest in paid search.

https://www.ppchero.com/hero-conf/about/",,"Eligibility Criteria: Open to industry professionals
Fees: Conference Only Pass - $1.100
Conference Pass + Excel Coaching - $2.100
Conference Pass + Agency Coaching - $2.100
Attendee Registration","Sponsorship opportunities available
Contact required for further information
Sponsorship Registration",https://www.ppchero.com/hero-conf/about/#gallery-1,,https://www.facebook.com/heroconf/,,https://www.linkedin.com/company/hanapin-marketing,https://twitter.com/heroconf
Trade Show & Conference,Advertising,FUTR Asia Summit,16 Oct 2019-17 Oct 2019,09:20 AM - 06:30 PM,24-25 Oct 2018,Oct-20,Singapore,,Suntec,2000,15,http://www.futr.today/singapore2019/,+44 207 993 4602,team@futr.today,"Fresh Thinking and Progressive Change in the Future of Retail, Marketing and Commerce

FUTR is the annual gathering of brands and retailers across Digital, Marketing, Ecommerce, Retail, Innovation and Customer Experience, that want to stay at the cutting-edge of insights, technologies and solutions across retail and marketing. A watering hole for the future-focused leaders who want to see whats next, understand how to bridge the gap between now and next, while carrying forward authentic values with no baggage.

http://www.futr.today/singapore2019/about/","NS8,Meltwater,Magento Commerce,Jones Knowles Ritchie,Synthesio,Bigcommerce,Shootsta,Falcon,Blis,Guardsquare,AI Palette,Emporio Analytics,Xopa AI Pte Ltd.,Narrators,SurveySensum","Eligibility Criteria: Open to industry professionals
Fees: General Admission
Early Bird - S$400
Release One - S$550
General Admission - S$725
General Admission - Singapore Resident
Early Bird - S$400
Release One - S$550
General Admission - S$725
Group Admission (2+ Tickets)
Early Bird - S$330
Release One - S$412,50
General Admission - S$543,75
Group Admission (2+ Tickets) - Singapore Resident
Early Bird - S$300
Release One - S$412,50
General Admission - S$543,75
Group General Admission (4+ Tickets)
Early Bird - S$200
Release One - S$368,50
General Admission - S$485,75
Group General Admission (4+ Tickets) - Singapore Resident
Early Bird - S$200
Release One - S$368,50
General Admission - S$485,75
Attendee Registration","Sponsorship and exhibition opportunities available
Contact required for further information
Sponsor/Exhibitor Registration",,,https://www.facebook.com/FUTRGroup/,https://www.instagram.com/FUTRGroup/,https://www.linkedin.com/company/futrgroup/,https://twitter.com/FUTRGroup
Trade Show & Conference,Advertising,FUTR Europe Summit,22 Apr 2020,09:00 AM - 06:00 PM,24-25 Apr 2019,Mar-Apr 2021,United Kingdom,London,TBD,2500,49,http://www.futr.today/london2020,+44 207 993 4602,team@futr.today,"Fresh Thinking and Progressive Change in the Future of Retail, Marketing and Commerce

FUTR is the annual gathering of brands and retailers across Digital, Marketing, Ecommerce, Retail, Innovation and Customer Experience, that want to stay at the cutting-edge of insights, technologies and solutions across retail and marketing. A watering hole for the future-focused leaders who want to see whats next, understand how to bridge the gap between now and next, while carrying forward authentic values with no baggage.

http://www.futr.today/london2020/about/","Qumin,Xverify,Hyperion Tech,Web Spiders,Consignor,Appointedd,Go Instore,Localistico,Hullabalook,Spirable,HYPR,Ksubaka,Emerging Communications,Successfuly,Mad World,Unlimited Brewing Company,Sustainably,Duel,Bilendi,Fuga Technologies","Eligibility Criteria: Open to industry professionals
Fees: Contact required for further information
Registration will be opened.","Sponsorship and exhibition opportunities available
Contact required for further information
Sponsor/Exhibitor Registration",,,https://www.facebook.com/FUTRGroup/,https://www.instagram.com/FUTRGroup/,https://www.linkedin.com/company/futrgroup/,https://twitter.com/FUTRGroup
Conference,Advertising,OnBrand,10 Oct 2019,09:00 AM - 06:00 PM,11-Oct-18,Oct-20,Netherlands,Amsterdam,SugarCity Events,,,https://onbrand.me/,+31 20 820 3740,,"Europe's Leading Branding Conference for Marketing and Creative Professionals

Every year, major playersCMOs, brand directors, and creative leaderscome together in Amsterdam, Europes international creative hub, to discuss the intersection between marketing and technology, and the trends set to shape the future of the industry.

https://onbrand.me/",,"Eligibility Criteria: Open to industry professionals
Fees: Full Price Ticket - 440,38
Attendee Registration","Partnership opportunities available
Contact required for further information
partnerships@onbrand.me",,https://video.onbrand.me/,https://www.facebook.com/OnBrandConf/,https://www.instagram.com/onbrandconf/,https://www.linkedin.com/company/onbrandconf/,https://twitter.com/onbrandconf
Conference,Advertising,The Digital Transformation Conference Europe,3 Oct 2019,09:00 AM - 06:00 PM,,Oct-20,Netherlands,Amsterdam,TBD,,,http://digitaltransformationeurope.com/,,hello@roar-media.co.uk,"Bringing Digital Innovators Together

The Digital Transformation Conference brings together leaders spearheading digital initiatives in their organisations to offer insights, education and case studies on digital business innovation.

http://digitaltransformationeurope.com/",,"Eligibility Criteria: Open to industry professionals
Fees: Super-Early-Bird - 149","Sponsorship opportunities available
Contact required for further information
sam@roar-media.co.uk",,,,,https://www.linkedin.com/company/roar-media-uk/,https://twitter.com/Roar_Digital
Conference,Advertising,MarketEd.Live,30 Sep 2019,09:30 AM - 04:45 PM,25-Sep-18,Sep-20,United Kingdom,Nottingham,Nottingham Contemporary,,,https://marketed.live,+44 1509 228702,hey@marketed.live,"Be Inspired. Learn. Improve Your Marketing.

Make your marketing strategies more sophisticated by learning about other multiple marketing disciplines that work hand-in-hand with your current expertise Build relationships with other delegates and share experiences with great people. We'd love to see you in Nottingham in September.

https://marketed.live/",,"Eligibility Criteria: Open to industry professionals
Fees: Standard - 267 + Fee + Tax
Group of 3 - 237
Group of 5 - 207
Attendee Registration",,,,https://www.facebook.com/MarketEdLive/,https://www.instagram.com/marketed.live/,https://www.linkedin.com/company/marketed-live/,https://twitter.com/marketedlive
Trade Show & Conference,Advertising,AllFacebook Marketing Conference,30 Sep 2019,09:00 AM - 06:00 PM,08-Oct-18,Sep-Oct 2020,Germany,Berlin,BCC Berlin,1000,,https://conference.allfacebook.de/,,kontakt@allfacebook.de,"One of Germany's Largest Conferences for Facebook & Social Media Marketing

This great conference is one day, 5 stages, 50 speakers, 1000+ participants and
100% social media marketing for companies. Facebook, Instagram, WhatsApp, Pinterest, Twitter, YouTube and more for business.

https://conference.allfacebook.de/","Loreal,Vorwerk,MediaMarkt,Deutsche Telekom,BMW,Facebook,Nivea,Microsoft,Red Bull,Ebay,GJ,O2,Lufthansa,Adobe,Allianz","Eligibility Criteria: Open to industry professionals
Fees: Conference Ticket - 695
Combo Ticket - 1.385
Workshop Ticket - 790
Attendee Registration","Sponsorship and exhibition opportunities available
Contact required for further information
Sponsor/Exhibitor Registration",https://conference.allfacebook.de/archiv/,,http://fb.me/marketingde,,,http://twitter.com/allfacebookde
Trade Show & Conference,Advertising,AllInstagram Marketing Conference,30 Sep 2019,09:00 AM - 06:00 PM,08-Oct-18,Sep-Oct 2020,Germany,Berlin,BCC Berlin,1000,,https://conference.allfacebook.de/instagram/,,kontakt@allfacebook.de,"One of Germany's Largest Conferences for Instagram & Social Media Marketing

This great conference is one day, 5 stages, 50 speakers, 1000+ participants and
100% social media marketing for companies. Facebook, Instagram, WhatsApp, Pinterest, Twitter, YouTube and more for business.

https://conference.allfacebook.de/instagram/","Loreal,Vorwerk,MediaMarkt,Deutsche Telekom,BMW,Facebook,Nivea,Microsoft,Red Bull,Ebay,GJ,O2,Lufthansa,Adobe,Allianz","Eligibility Criteria: Open to industry professionals
Fees: Conference Ticket - 695
Combo Ticket - 1.385
Workshop Ticket - 790
Attendee Registration","Sponsorship and exhibition opportunities available
Contact required for further information
Sponsor/Exhibitor Registration",https://conference.allfacebook.de/archiv/,,https://www.facebook.com/events/icm-international-congress-center-m%C3%BCnchen/allinstagram-marketing-conference/236198303975914/,,,http://twitter.com/allfacebookde
Trade Show & Conference,Advertising,Technology for Marketing,25 Sep 2019-26 Sep 2019,10:00 AM - 04:45 PM (25 Sep 2019)|09:50 AM - 06:00 PM (26 Sep 2019),26-27 Sep 2018,Sep-20,United Kingdom,London,Olympia,15000,250,https://www.technologyformarketing.co.uk/,,karl.nitzsche@closerstillmedia.com,"UK's One of the Greatest Event Dedicatd to Martech

This great event is a spot for marketers and advertisers to nurture their next big idea and place to gather actionable inspiration from marketing and advertising gurus who will share their glimpse of the future.

https://www.technologyformarketing.co.uk/why-visit","8 Million Stories Ltd,Dataiku,GetResponse,Communigator Ltd,Lead Forensics Ltd,ExtraMile Communications,Act-On Software, Inc.,Inbox Insight Ltd,Relative Insight,Roistat,Selligent Marketing Cloud,Showshoppa,SplashBI,Nimlok Ltd,Maglabs,OneTrust,VL Digital Ltd,FlexRM Ltd,AWA Digital,Data Dwell Ltd","Eligibility Criteria: Open to industry professionals
Fees: Free
Attendee Registration","Sponsorship Fees: No information
Exhibitor Fees: Contact required for further information
Exhibitor Registration",https://www.technologyformarketing.co.uk/technology-for-marketing-2018,,https://www.facebook.com/technologyformarketing/,,https://www.linkedin.com/company/tfm&a-insights/,https://twitter.com/tfm_event
Conference,Advertising,DAM Chicago,24 Sep 2019,09:00 AM - 05:30 PM,12-Sep-18,Sep-20,USA,Chicago,InterContinental Magnificent Mile,,,https://www.henrystewartconferences.com/events/events-dam-chicago-2019,+44 207 092 3494,,"The Art and Practice of Managing Digital Media

As the Midwest's largest conference dedicated to Digital Asset Management, we provide a unique environment to exchange knowledge, experiences and build long lasting professional networks. We examine through real world case studies, interactive panels, workshops, roundtables and tutorials, the latest thinking and new developments in the world of DAM - all from the users perspective.

https://www.henrystewartconferences.com/events/events-dam-chicago-2019/whyattend","Widen,Censhare,Orange Logic,Allied Vaughn,Graymeta,Impira,Pacific Media Technologies Inc.","Eligibility Criteria: Open to industry professionals
Fees: Super Early Bird (by August 16)
End User - $699
Solution Provider - $899
Non Profit - $499
Additional Delegates - $399
Standard Fee
End User - $799
Solution Provider - $999
Non Profit - $599
Additional Delegates - $399
Attendee Registration","Sponsorship and exhibition opportunities available
Contact required for further information
daniell@henrystewart.co.uk
+44 207 092 3488",,,https://www.facebook.com/henrystewartdam/,https://www.instagram.com/henrystewartevents/?hl=en,https://www.linkedin.com/company/101872?trk=tyah&trkInfo=clickedVertical%3Acompany%2CclickedEntityId%3A101872%2Cidx%3A3-2-9%2CtarId%3A1467717983821%2Ctas%3Ahenry%20stewart,https://twitter.com/henrystewartdam
Conference,Advertising,Product Marketing Summit San Francisco,17 Sep 2019-18 Sep 2019,08:20 AM - 05:45 PM (17 Sep 2019)|08:20 AM - 05:30 PM (18 Sep 2019),,Sep-20,USA,San Francisco,Bespoke at Westfield San Francisco Centre,600,,https://productmarketingworld.com/location/sanfrancisco,+1 310 734 8479,jking@teamsequel.io,"Inspiring Content Created and Delivered by Pioneering Product Marketers

In September 2019, Product Marketing Summit will assemble the largest gathering of PMMs from the worlds largest companies and most exciting startups in San Francisco to share Product Marketing success stories, experiences and challenges of those positioned at the intersection of product, marketing & sales.

https://productmarketingworld.com/location/sanfrancisco/whyattend",,"Eligibility Criteria: Open to industry professionals
Fees: PMM Team - $795
Silver Pass - $995
Gold Pass - $1.195
Platinum Pass - $1.395
Attendee Registration","Partnership opportunities available
Contact required for further information
Partnership Registration",,,https://www.facebook.com/groups/productmarketingworld,,https://www.facebook.com/groups/productmarketingworld,https://twitter.com/PMMworld
Conference,Advertising,Product Marketing Summit New York,21 Mar 2019-22 Mar 2019,08:45 AM - 05:30 PM (21 Mar 2019)|08:45 AM - 05:00 PM (22 Mar 2019),5-6 Dec 2018,TBD,USA,New York,New Lab,300,,https://productmarketingworld.com/location/newyork,+1 310 734 8479,jking@teamsequel.io,"Inspiring Content Created and Delivered by Pioneering Product Marketers

In September 2019, Product Marketing Summit will assemble the largest gathering of PMMs from the worlds largest companies and most exciting startups in San Francisco to share Product Marketing success stories, experiences and challenges of those positioned at the intersection of product, marketing & sales.

https://productmarketingworld.com/location/newyork/whyattend",,"Eligibility Criteria: Open to industry professionals
Fees: Content Pass - $250
Attendee Registration","Partnership opportunities available
Contact required for further information
Partnership Registration",,,https://www.facebook.com/groups/productmarketingworld,,https://www.facebook.com/groups/productmarketingworld,https://twitter.com/PMMworld
Conference,Advertising,Product Marketing Summit Boston,16 Oct 2019-17 Oct 2019,08:45 AM - 05:00 PM (16 Oct 2019)|08:45 AM - 04:30 PM (17 Oct 2019),,Oct-20,USA,Boston,Courtyard Boston Downtown,300,,https://productmarketingworld.com/location/boston,+1 310 734 8479,jking@teamsequel.io,"Inspiring Content Created and Delivered by Pioneering Product Marketers

In September 2019, Product Marketing Summit will assemble the largest gathering of PMMs from the worlds largest companies and most exciting startups in San Francisco to share Product Marketing success stories, experiences and challenges of those positioned at the intersection of product, marketing & sales.

https://productmarketingworld.com/location/boston/whyattend",,"Eligibility Criteria: Open to industry professionals
Fees: PMM Team - $795
Silver Pass - $995
Gold Pass - $1.195
Platinum Pass - $1.395
Attendee Registration","Partnership opportunities available
Contact required for further information
Partnership Registration",,,https://www.facebook.com/groups/productmarketingworld,,https://www.facebook.com/groups/productmarketingworld,https://twitter.com/PMMworld
Conference,Advertising,Product Marketing Summit Chicago,11 Nov 2019-12 Nov 2019,09:00 AM - 05:00 PM (11 Nov 2019)|09:00 AM - 04:30 PM (12 Nov 2019),,Nov-20,USA,Chicago,Morningstar Global HQ,300,,https://productmarketingworld.com/location/chicago,+1 310 734 8479,jking@teamsequel.io,"Inspiring Content Created and Delivered by Pioneering Product Marketers

In November 2019, Product Marketing Summit will assemble the largest gathering of PMMs from the worlds largest companies and most exciting startups in San Francisco to share Product Marketing success stories, experiences and challenges of those positioned at the intersection of product, marketing & sales.

https://productmarketingworld.com/location/chicago/whyattend",,"Eligibility Criteria: Open to industry professionals
Fees: PMM Team - $695
Silver Pass - $795
Gold Pass - $995
Platinum Pass - $1.195
Attendee Registration","Partnership opportunities available
Contact required for further information
Partnership Registration",,,https://www.facebook.com/groups/productmarketingworld,,https://www.facebook.com/groups/productmarketingworld,https://twitter.com/PMMworld
Conference,Advertising,Product Marketing Summit London,3 Dec 2019-4 Dec 2019,09:00 AM - 05:45 PM (3 Dec 2019)|09:00 AM - 05:00 PM (4 Dec 2019),,Dec-20,United Kingdom,London,TBD,300,,https://productmarketingworld.com/location/london,+1 310 734 8479,jking@teamsequel.io,"Inspiring Content Created and Delivered by Pioneering Product Marketers

In December 2019, Product Marketing Summit will assemble the largest gathering of PMMs from the worlds largest companies and most exciting startups in San Francisco to share Product Marketing success stories, experiences and challenges of those positioned at the intersection of product, marketing & sales.

https://productmarketingworld.com/location/london/whyattend",,"Eligibility Criteria: Open to industry professionals
Fees: PMM Team - 695 + VAT
Silver Pass - 795 + VAT
Gold Pass - 995 + VAT
Platinum Pass - 1.195 + VAT
Attendee Registration","Partnership opportunities available
Contact required for further information
Partnership Registration",,,https://www.facebook.com/groups/productmarketingworld,,https://www.facebook.com/groups/productmarketingworld,https://twitter.com/PMMworld
Conference,Advertising,Product Marketing Summit Dublin,23 Jan 2020-24 Jan 2020,09:00 AM - 05:45 PM (23 Jan 2020)|09:00 AM - 05:00 PM (24 Jan 2020),,Jan-21,Ireland,Dublin,TBD,300,,https://productmarketingworld.com/location/dublin,+1 310 734 8479,jking@teamsequel.io,"Inspiring Content Created and Delivered by Pioneering Product Marketers

In January 2020, Product Marketing Summit will assemble the largest gathering of PMMs from the worlds largest companies and most exciting startups in San Francisco to share Product Marketing success stories, experiences and challenges of those positioned at the intersection of product, marketing & sales.

https://productmarketingworld.com/location/dublin",,"Eligibility Criteria: Open to industry professionals
Fees: PMM Team - 695
Silver Pass - 795
Gold Pass - 995
Platinum Pass - 1.195
Attendee Registration","Partnership opportunities available
Contact required for further information
Partnership Registration",,,https://www.facebook.com/groups/productmarketingworld,,https://www.facebook.com/groups/productmarketingworld,https://twitter.com/PMMworld
Conference,Advertising,Product Marketing Summit Vancouver,16 Apr 2020-17 Apr 2020,09:00 AM - 05:45 PM (16 Apr 2020)|09:00 AM - 05:00 PM (17 Apr 2020),,Apr-21,Canada,Vancouver,TBD,300,,https://productmarketingworld.com/location/vancouver,+1 310 734 8479,jking@teamsequel.io,"Inspiring Content Created and Delivered by Pioneering Product Marketers

In January 2020, Product Marketing Summit will assemble the largest gathering of PMMs from the worlds largest companies and most exciting startups in San Francisco to share Product Marketing success stories, experiences and challenges of those positioned at the intersection of product, marketing & sales.

https://productmarketingworld.com/location/vancouver/whyattend",,"Eligibility Criteria: Open to industry professionals
Fees: PMM Team - $795
Silver Pass - $795
Gold Pass - $995
Platinum Pass - $1.195
Attendee Registration","Partnership opportunities available
Contact required for further information
Partnership Registration",,,https://www.facebook.com/groups/productmarketingworld,,https://www.facebook.com/groups/productmarketingworld,https://twitter.com/PMMworld
Conference,Advertising,Wpromote Challenger Summit,16 Sep 2019-17 Sep 2019,05:00 PM - 08:00 PM (16 Sep 2019)|07:30 AM - 06:00 PM (17 Sep 2019),24-25 Sep 2018,Sep-20,USA,Santa Monica,Fairmont Miramar Hotel,,,https://www.wpromote.com/challenger-summit-2019,+1 866 977 6668,events@wpromote.com,"The Day That Will Change You and Your Business

Challenger Summit 2019 is connecting digital innovators with disruptive marketing tactics and bold ideas that will make them leaders of the future. This great event focuses on delivering the best digital marketing campaigns possible.

https://www.wpromote.com/challenger-summit-2019",,"Eligibility Criteria: Open to industry professionals
Fees: Challenger Summit Admission - $995
Add-On: Workshops At Wpromote HQ - $200","Sponsorship opportunities available
Contact required for further information
events@wpromote.com",,https://youtube.com/user/Wpromote,https://www.facebook.com/wpromote,https://instagram.com/wpromoteofficial,https://www.linkedin.com/company/wpromote,https://twitter.com/wpromote
Conference,Advertising,The Digital Transformation Conference Manchester,12 Sep 2019,08:30 AM - 06:00 PM,12-Sep-18,Sep-20,United Kingdom,Manchester,etc.venues,,,http://www.digitaltransformationmanchester.co.uk/,,hello@roar-media.co.uk,"Bringing Digital Business Innovators Together

The Digital Transformation Conference brings together leaders spearheading digital initiatives in their organisations to offer insights, education and case studies on what can be a confusing environment.

http://www.digitaltransformationmanchester.co.uk/",,"Eligibility Criteria: Open to industry professionals
Fees: Super-Early-Bird - 149","Sponsorship opportunities available
Contact required for further information
sam@roar-media.co.uk",,,,,https://www.linkedin.com/company/roar-media-uk/,https://twitter.com/Roar_Digital
Conference,Advertising,Benchmark Search Conference,11 Sep 2019,08:45 AM - 04:45 PM,05-Sep-18,Sep-20,United Kingdom,Manchester,Hilton Deansgate,,6,https://benchmarkconference.click.co.uk,+44 1706 828855,alex.rimmer@dontpanicprojects.com,"Exclusive Event Designed for Senior In-House Marketing Professionals

Benchmark is the Norths leading search marketing event, offering an inspiring, engaging and entertaining day where world-class experts discuss the latest strategies and techniques, and share their own success stories.

https://benchmarkconference.click.co.uk/about/","Click Consult,Ahrefs,Ceuta Group,Oncrawl,Digital Agency Network,The Juice Academy","Eligibility Criteria: Open to industry professionals
Fees: Free
Attendee Registration","Sponsorship Fees: Packages vary between 2.000 + VAT - 5.000 + VAT
Exhibitor Fees: Exhibitor package - 950 + VAT",https://www.flickr.com/photos/132729366@N06/albums/72157701211929775,https://www.click.co.uk/benchmark-search-conference-2018-video-presentations,,,,https://twitter.com/BenchmarkConf
Conference,Advertising,Intrigue Summit London,1 May 2020,08:50 AM - 06:00 PM,,TBD,United Kingdom,London,One Moorgate Place (expected),,,https://www.salesgasm.com/intrigue2020london,+1 646 810 3891,info@salesgasm.com,"The World's Most Intimate Digital Marketing Summit

For over 4 years, Intrigue is Intriguing marketers all across the globe. Marketers attend this unique event to learn as well as inspire. The audience members get involved not just in asking questions, but also give their perspective on a point discussed by the speakers. Marketers also attend this event to network and find solutions to their marketing problems. It is a themed as the digital marketing buyers and suppliers rendezvous for a reason.

https://www.salesgasm.com/intrigue2020london",,"Eligibility Criteria: Open to industry professionals
Fees: Contact required for further information","Sponsorship and exhibition opportunities available
Contact required for further information",https://www.salesgasm.com/imagegallery,https://www.salesgasm.com/imagegallery,https://www.facebook.com/salesgasm,https://www.instagram.com/salesgasm/,https://www.linkedin.com/company/salesgasm,https://twitter.com/salesgasm
Conference,Advertising,Intrigue Summit Singapore,1 Oct 2019,08:45 AM - 06:00 PM,30-May-18,TBD,Singapore,,HotelRamadaatZhongshan Park (expected,,,https://www.salesgasm.com/intrigue2019singapore,+1 646 810 3891,info@salesgasm.com,"The World's Most Intimate Digital Marketing Summit

For over 4 years, Intrigue is Intriguing marketers all across the globe. Marketers attend this unique event to learn as well as inspire. The audience members get involved not just in asking questions, but also give their perspective on a point discussed by the speakers. Marketers also attend this event to network and find solutions to their marketing problems. It is a themed as the digital marketing buyers and suppliers rendezvous for a reason.

https://www.salesgasm.com/intrigue2019singapore",,"Eligibility Criteria: Open to industry professionals
Fees: Contact required for further information
Attendee Registration","Sponsorship and exhibition opportunities available
Contact required for further information",https://www.salesgasm.com/imagegallery,https://www.salesgasm.com/imagegallery,https://www.facebook.com/salesgasm,https://www.instagram.com/salesgasm/,https://www.linkedin.com/company/salesgasm,https://twitter.com/salesgasm
Conference,Advertising,Intrigue Summit Ho Chi Minh City,30 Oct 2019,08:00 AM - 05:00 PM,,TBD,Vietnam,Ho Chi Minh City,TBD,,,https://www.salesgasm.com/intrigue2019hochiminhcity,+1 646 810 3891,info@salesgasm.com,"The World's Most Intimate Digital Marketing Summit

For over 4 years, Intrigue is Intriguing marketers all across the globe. Marketers attend this unique event to learn as well as inspire. The audience members get involved not just in asking questions, but also give their perspective on a point discussed by the speakers. Marketers also attend this event to network and find solutions to their marketing problems. It is a themed as the digital marketing buyers and suppliers rendezvous for a reason.

https://www.salesgasm.com/intrigue2019hochiminhcity",,"Eligibility Criteria: Open to industry professionals
Fees: All Access Pass
Early Bird 1 - $99 + Fee
Early Bird 2 - $199 + Fee
Standard Price - $299 + Fee
VIP Access Pass
Early Bird 1 - $199 + Fee
Early Bird 2 - $299 + Fee
Standard Price - $399 + Fee","Sponsorship and exhibition opportunities available
Contact required for further information",https://www.salesgasm.com/imagegallery,https://www.salesgasm.com/imagegallery,https://www.facebook.com/salesgasm,https://www.instagram.com/salesgasm/,https://www.linkedin.com/company/salesgasm,https://twitter.com/salesgasm
Conference,Advertising,Intrigue Summit Melbourne,5 Feb 2020-6 Feb 2020,08:00 AM - 06:00 PM (5 Feb 2020)|08:45 AM - 02:00 PM (6 Feb 2020),27-Feb-19,Feb-21,Australia,Melbourne,TBD,,,https://www.salesgasm.com/intrigue2020melbourne,+1 646 810 3891,info@salesgasm.com,"The World's Most Intimate Digital Marketing Summit

For over 4 years, Intrigue is Intriguing marketers all across the globe. Marketers attend this unique event to learn as well as inspire. The audience members get involved not just in asking questions, but also give their perspective on a point discussed by the speakers. Marketers also attend this event to network and find solutions to their marketing problems. It is a themed as the digital marketing buyers and suppliers rendezvous for a reason.

https://www.salesgasm.com/intrigue2020melbourne",,"Eligibility Criteria: Open to industry professionals
Fees: Free Delegate Ballot Registration - Free
All Access Pass - $199 + Fees
Elite After Party Pass - $300 + Fees","Sponsorship and exhibition opportunities available
Contact required for further information",https://www.salesgasm.com/imagegallery,https://www.salesgasm.com/imagegallery,https://www.facebook.com/salesgasm,https://www.instagram.com/salesgasm/,https://www.linkedin.com/company/salesgasm,https://twitter.com/salesgasm
