Type of Event,Event Verticals,Name of Event,Dates,Hours,Date of Last Year's Event,Date of Next Year's Event,Country,City,Venue,# Atendees of Last Event,# Exhibitors of Last Event,URL,Phone Number,E-mail,About the Event,Exhibitors,Attendees,Exhibitor Info,Link to Photos,Link to Videos,Facebook,Instagram,Linkedin,Twitter
Trade Show,"Baby, Children, Maternity",Children Baby Maternity Expo,24 Jul 2019-26 Jul 2019,9:00 AM - 5:00 PM (24 Jul 2019-25 Jul 2019)|9:00 AM - 3:00 PM (26 Jul 2019),25-27 Jul 2018,Jul-20,China,Shanghai,National Convention & Exhibition Center,90000,3300,https://www.cbmexpo.com/en,+86 21 6157 7288,cbmexpo@cbmexpo.com,"World's Largest Exhibition for Child Baby Maternity Products and Services

CBME China is the world's largest trade fair for child, baby and maternity products & services. This is the perfect venue for you to meet buyers, manufacturers, distributors, and suppliers in the industry from all over the world. The fair is highlighted by an innovative products award where the most innovative and best products in different categories are determined. Primary buyers have the chance to participate in a private buyer meeting.

https://www.cbmexpo.com/en/article.php?id=128","Shanghai Buono Trade Co.,LTD,Muyingfang,Suzhou Checkmate Trading.,Co Ltd,Liaocheng Haojiayi Dairy Co.,Ltd,Shenzhen bangxing Rubber technology Co,Let,Shanghai Chuncui Foods,Taizhou Huangyan New Version Industry & trading Co., Ltd,Hebei Shengxu Food Co., Ltd.,Sanhe JuYangJiPin Trading Co.,Ltd,Anyang Sheng Tuan Garment Co., Ltd.,Cangnan Youbei Garment Co. Ltd.,Shanghai Fanzhi Trading Co. Ltd.,Xuzhou Zhengwu Trading Co., Ltd,Gao Lin Business Shenzhen Co., Ltd.,Henan Yeesain Health Technology Co., Ltd,Sunflower,Johnson& Johnson,J-Tex Group Ltd.,Beijing Yunqing Technology Co., Ltd.,AeroSleep","Eligibility Criteria: Open to industry professionals and trade visitors
Fees: Free
Attendee Registration","Sponsorship Fees: No info
Exhibitor Fees: One side open booth (15 sq m) - $4.065
Two sides open (15 sq m) - $4.110
Exhibitor Registration",,https://www.youtube.com/channel/UCRZopivDcAIjTZ64AgouVQg,https://www.facebook.com/CBMEXPO,https://www.instagram.com/cbmechina/,https://www.linkedin.com/company/cool-kids-fashion-shanghai/about/,https://twitter.com/OfficialCBME
Trade Show & Conference,"Baby, Children, Maternity",Kind + Jugend,19 Sep 2019-22 Sep 2019,09:00 AM - 06:00 PM (19 Sep 2019-21 Sep 2019)|09:00 AM - 04:00 PM (22 Sep 2019),20-23 Sep 2018,Sep-20,Germany,Cologne,Koelnmesse GmbH,24874,1239,https://www.kindundjugend.com/,+49 180 6 117017,kindundjugend@visitor.koelnmesse.de,"The international leading trade fair for premium baby and toddler products

The international leading trade fair for premium baby and toddler products presents itself since 2017 even bigger: wth six exhibition halls covering around 110,000 m, there has never before been so much to see in Kind + Jugend.

https://www.kindundjugend.com/fair/kind-und-jugend-2019/kind-und-jugend-2019.php","Hangzhou Xiangrong Textiles Co., Ltd.,&ME,3 Sprouts,7 A.M. Enfant, Inc.,ABC Design GmbH,Ador Group (HK) Limited,Alpine Nederland B.V.,Anna und Paul GmbH,Opus Innovations Ltd,Edwards & Co,Easywalker B.V.,Status Products Ltd,Master Baby Home, S.L.,Drgerwerk AG & Co. KGaA,HABA Habermaass GmbH,Gorfion GmbH,Schardt GmbH & Co. KG,Schmidt Spiele GmbH,Twistshake of Sweden AB,Baby Tula","Eligiblity Criteria: Open to industry professionals and trade visitors
Fees: Day ticket - Online 18, Box office 28
2-day ticket - Online 25, Box office 39
Season ticket - Online 39, Box office 58
Attendee Registration","Sponsorship Fees: Contact required for pricing information
Exhibitor Fees: 9 sq m stand prices vary from 15.888 to 18.988
Exhibitor Registration",https://www.kindundjugend.com/news/content-for-media-representatives/image-database/bildmaterial-85.php,https://www.youtube.com/channel/UCvtnDrABcwe4t04ljnVKAGg,https://www.facebook.com/kindundjugend,https://www.instagram.com/kindundjugend/,,https://twitter.com/kindundjugend
Trade Show & Conference,"Baby, Children, Maternity",China Kids Expo,16 Oct 2019-18 Oct 2019,09:00 AM - 06:00 PM,16-18 Oct 2018,Oct-20,China,Shanghai,Shanghai New International Expo Centre,71819,2023,https://en.china-kids-expo.com/,+86 10 6950 7766 Ext.767,mark.chang@koelnmesse.cn,"Asia's leading B2B event for the baby industry

China Kids Expo (CKE), organized by China Toy & Juvenile Products Association (CTJPA) and Koelnmesse China, is Asia's leading trade fair for toy & baby product. Held annually since 2011 in Shanghai, CKE is the must- attend event that unites innovative products, industry trend, export-oriented manufactures, and comprehensive sourcing visitor. It is the best way to get full insights about China Baby Product industry and build connection with new business partners in China.

https://en.china-kids-expo.com/index.php?m=content&c=index&a=lists&catid=82","Fisher Price,Quinny,Chicco,Cybex,Maxi Cosi,Goodbaby Child Products Co. Ltd.,Cixi Kalli Cart Industry Co. Ltd.,Britax,Combi,Bair Kids Neccessities Co. Ltd.,Osk Baby & Chidlren Products Co. Ltd.,Ningbo INF Baby Product Co., Ltd.,Joie Children's Products China Co., Ltd.,Le Jour Co.,Ltd.,Jakobs GmbH,Pumpkin Organics,Jellycat Ltd,DIW Co Ltd,Hubei Little Sun Baby Products Co Ltd ,Ador Group Co.,Ltd","Eligibility Criteria: Open to industry professionals
Fees: Free
Attendee Registration","Sponsorship Fees: Catalogue Ad (1 Full page 4 C) - 280
Exhibitor Fees: Space only (min. 48 sq m) - 210/sq m
Premium shell scheme (min. 12 sq m) - 290/sq m
Exhibitor Registration",https://en.china-kids-expo.com/html/index_PressCenter/photoGallery/2017/,,https://www.facebook.com/kidsexpochina/,,https://www.linkedin.com/showcase/china-kids-expo/,https://twitter.com/ChinaKidsExpo
Trade Show & Conference,"Baby, Children, Maternity",Pregnancy & Baby Fair,5 Oct 2019-6 Oct 2019,10:00 AM - 05:00 PM,06-07 Apr 2019,Apr-20,Ireland,Dublin,RDS Simmonscourt,20000,500,https://www.pregnancyandbabyfair.ie/,,info@pregnancyandbabyfair.ie,"Ireland's biggest, best and only exhibition covering all things pregnancy & baby related

Pregnancy & Baby Fair Dublin is an exhibition covering all things pregnancy & baby related. We have gathered the world biggest baby brands under one roof as well as Ireland's leading retailers and product specialists. In addition, we also have Ireland's top pregnancy & baby professionals ready to give the attendees the best and latest advice and address any concerns or questions they might have about this exciting yet daunting time of life.

https://www.pregnancyandbabyfair.ie/about/","Forever Living,Mumbra,John Magory,Baby Moments,Snugglebundi,Wheelkidz,Poddlepod,Barnardos,Decare Dental,Johnson's Baby,Michael Guineys,Hayfield Manor,Hippy Chick,Sonnybear,Pip and Bear,Cocoon Childcare,Pretty Bowtique,Lulu & Levi,Dainty Bear,Baby Bedibies","Eligibility Criteria: Open to industry professionals and end users
Fees: Starts from 15.86
Attendee Registration","Sponsorship Fees: No info
Exhibitor Fees: Contact required for further information",https://www.pregnancyandbabyfair.ie/gallery/,https://www.pregnancyandbabyfair.ie/gallery/,https://www.facebook.com/IrelandsPregnancyAndBabyFair/,https://www.instagram.com/pregnancyandbabyfair/,,
Trade Show & Conference,"Baby, Children, Maternity",Young Child Expo & Conference,28 Apr 2020-1 May 2020,07:00 AM - 05:00 PM,30 Apr-03 May 2019,Apr-May 2021,USA,New York City,The New Yorker A Wyndham Hotel,1200,40,https://www.youngchildexpo.com,+1 212 787 9700 Ext. 333,nancy.evangelista@losninos.com,"To help in Growth of young Children

The Young Child Expo & Conference began in 2003 as a joint professional development project of Fordham University's Graduate School of Education and Los Nios Services. Our goal is simple  to provide useful information to professionals and parents in order to help all young children learn, grow and reach their full potential.

https://www.youngchildexpo.com/about","New York Center for Child Development ,Independent Feeding Tray, Inc,Bilingual Birdies,Autism Early Enrichment Services, LLC,Discount School Supply,Los Nios Training,Kids Peace,Mercy College,Smithsonian Early Enrichment Center,Profectum Foundation,Deep Play for Kids,New York Therapy Placement Services, Inc,GoNoodle,TheraCare of New York,WNET,Judge Rotenberg Educational Center,Birch Family Services,Community Playthings,Discount School Supply,Achieve Beyond","Eligibility Criteria: Open to industry professionals and parents
Fees: Early Bid Rate
1 day - $185, 2 days -$285, 3 days - $385
Regular Professional Rate
1 day - $235, 2 days - $335, 3 days - $435
Student/Parent
1 day - $160, 2 days - $260, 3 days - $360
Attendee Registration","Sponsorship Fees: Contact required for pricing information
Exhibitor Fees: Contact required for pricing information
Exhibitor Registration",https://www.youngchildexpo.com/gallery,,https://www.facebook.com/youngchildexpo/,https://www.instagram.com/youngchildexpo/,,https://twitter.com/youngchildexpo?lang=en
Conference,"Baby, Children, Maternity",National Kindergarten Conference,8 July 2019-12 July 2019,09:00 AM-06:00 PM,9-13 Jul 2018,Jul-20,USA,Las Vegas,The Venetian,5500,,http://www.cvent.com/events/sde-2019-national-conference/event-summary-084bce35e5224e0c8876572e98ad457a.aspx,,schristensen@sde.com,"Personlize Your Learning Path

Get exclusive access to 100+ education experts sharing their research, practical strategies, and inspiration. Return to your classroom more prepared (and more joyful!) than ever before to make a positive impact on student learning. In Las Vegas, you'll join 5,500+ PreK-12 educators from around the U.S. and the world and create your personalized agenda from 400+ sessions in five different grade- and topic-focused strands.

http://www.cvent.com/events/sde-2019-national-conference/custom-132-084bce35e5224e0c8876572e98ad457a.aspx",,"Eligibility Criteria: Open to children education professionals
Fees: 2-Day Pass - $529
3-Day Pass - $629
4-Day Pass - $679
Attendee Registration",,,,https://www.facebook.com/SDE4Educators,,https://www.linkedin.com/groups/4366173/,https://twitter.com/SDE4educators
Conference,"Baby, Children, Maternity",Infectious Diseases in Children,23 Nov 2019-24 Nov 2019,09:00 AM-06:00 PM,17-18 Nov 2018,Nov-20,USA,New York City,Sheraton New York Times Square Hotel,1000,,https://www.healio.com/meeting/idcnewyork/home,+1 856 848 1712 Ext.219 or Ext. 476,registration@contactAMS.com,"Gain the experience and knowledge of 20 leading specialists

The program has been carefully crafted to take an in-depth look at the latest updates and advances to enhance your expertise on both common and emerging pediatric infectious diseases. It offers renowned faculty to provide perspective on the areas that need more of your attention this year. Come prepared with questions and get immediate feedback as you interact with faculty and peers for two consecutive days.

https://www.healio.com/meeting/idcnewyork/program/cme-overview",,"Eligibility Criteria: Open to industry professionals
Fees: Early-bird Rate
Physician - $560, Physician Assistant/ Nurse/Resident - $400
Pre-reg Rate
Physician - $660, Physician Assistant/ Nurse/Resident - $500
Standard Rate
Physician - $760, Physician Assistant/ Nurse/Resident - $600
Group Rate  3+ Attendees (1 Physician (required) and 2+ Nurses or Resident/Students)
Physician - $560 by 7/31/19 - $660 by 9/30/19 - $760 by 11/18/19, Physician Assistant/ Nurse/Resident - $300 by 11/18/19
Attendee Registration",,,,,,,https://twitter.com/idcnewyork
Trade Show & Conference,"Baby, Children, Maternity",Mommy & Baby Fair,26 Jul 2019-28 Jul 2019,10:00 AM - 06:00 PM (26 Jul 2019-27 Jul 2019)|10:00 AM - 05:00 PM (28 Jul 2019),,Jul 2020 (expected),India,New Delhi,Pragati Maidan,,,https://mommybabyfair.com/,+91 9999935011,info@tulip3pmedia.in,"A B2B Show for Maternity, Baby & Kids

The 1st edition of Mommy & Baby Fair will be launched on 26  28 July 2019, at Hall 7, Pragati Maidan, New Delhi. Mommy & Baby fair is an international B2B platform which provides the global exhibitors with the opportunities to enter into the highly growing Indian market and explore the unmet demands of the industry.

https://mommybabyfair.com/","U-Grow,SpeCtra,Chinmay Kids,Timios,Unicharm,Azafran,Green Gold,Clifton Export,Rama Visiton Limited,JHS,The Moms Co.,Medela,Cussons Baby,QPlay,Woo Woo,Arete,Smily Kiddos,Mimmo Organics,Green Toys","Eligibility Criteria: Open to industry professionals and trade visitors
Fees: Free
Attendee Registration","Sponsorship Fees: Contact required for pricing information
Exhibitor Fees: Shell scheme (9 sq m) - 108.000 INR
Exhibitor Registration",,,https://www.facebook.com/Mommy-Baby-Fair-2019-2047288608867467/,,https://www.linkedin.com/company/mommy-baby-fair/,https://twitter.com/MBF_Exhibition
Trade Show & Conference,"Baby, Children, Maternity",Playworld Village,9 Mar 2020-11 Mar 2020,10:00 AM - 6:00 PM,27 Feb-01 Mar 2018,Feb-Mar 2021,UAE,Dubai,Dubai World Trade Centre,6908,305,https://paperworld-middle-east.ae.messefrankfurt.com/dubai/en.html,+971 4 389 4500,paperworld@uae.messefrankfurt.com,"A great platform to enter the Middle East market for toys, games and children's lifestyle

Connect with leading manufacturers and suppliers, discover the latest trends and canvas an exciting variety of creative solutions for your marketing and office needs. In addition to a dedicated segment for corporate gifts and premiums, Paperworld Middle East is also home to the region's leading platform for children's toys and games, Playworld Village (formerly Playworld Middle East).

https://paperworld-middle-east.ae.messefrankfurt.com/dubai/en/facts-figures.html","Brevillier Urban & Sachs,Calidad,Capital Envelopes,Elbon International,Hamelin GmbH,Max Bringmann KG,Mitsubishi Pencil Co. Ltd.,Dollar Industries,TCC Marketing Co. Ltd.,The Patch Wood Co. Ltd.,Shangdong Beinali Toy Co. Ltd.,Shepherd Co. Ltd.,Sunrise Co. Ltd.,Pun Pun Playground Toys Co. Ltd.,Shandong  Beinali Toy Co. Ltd.,Lucky Child JSC,Luxor International Pvt. Ltd.,Rainbow Max,Reveal Industries,Kores GmbH","Eligibility Criteria: Open to industry professionals and trade visitors
Fees: Free
Attendee Registration","Sponsorship Fees: Contact required for further information
Exhibitor Fees: Raw pace - from $435/sq m
Exhibitor Registration",https://paperworld-middle-east.ae.messefrankfurt.com/dubai/en/press/image-material.html,https://www.youtube.com/channel/UCjVhr3PIIVjwZmtr3Mok7IA,https://www.facebook.com/paperworldMEA,https://www.instagram.com/paperworldMEA/,https://www.linkedin.com/company/paperworldmea/about/,https://twitter.com/paperworldMEA
Trade Show,"Baby, Children, Maternity",Asian Toys and Baby Products Show,20 Oct 2019-23 Oct 2019,09:30 AM - 06:00 PM,20-23 Oct 2018,20-23 2020,Hong Kong,Hong Kong,Hong Kong Convention and Exhibition Centre,38900,455,https://www.asiantnb.com/en-index.php,+852 2700 6726,cs@comasia.com.hk,"The Key Showcase and Sourcing Hub for Asian Toys, Games and Baby Products

Asian Toys & Baby Products Show takes place over four days during the late October at the Hong Kong Convention and Exhibition Centre. The show dates that coincide with the autumn peak sourcing timeslot make it become a regular fixture of the autumn Southern China sourcing circuit for global buyers.

https://www.asiantnb.com/en-show-intro.php","Aida Tech Limited,Easco Toys International Ltd.,Elsa Toy International Limited,Gil Asia Limited,Matzu-E Toys Limited,Mary's Lab,Maxitronix Educational Company Limited,Vipo Technology Limited,Hangzhou Huanyu Toys Co., Ltd.,International Compliance Workshop Limited,Kai Hing Industrial Limited,Kelly Toys Co., Limited,Linbo Hongkong Limited,Senco International Limited,Feilong Plastic Industry (HK) Ltd.,D.J. Toys Enterprise Corp.,Donerland Co., Ltd.,Haichang International Company,Nantong Best-Today International Group.,Zhangping TK Toys And Gifts Co., Ltd.","Eligibility Criteria: Open to industry professionals and trade visitors
Fees: Contact required for pricing information
Attendee Registration","Sponsorship Fees: No info
Exhibitor Fees: Contact required for pricing information
Exhibitor Registration",,https://www.asiantnb.com/en-show-video.php,https://www.facebook.com/asiantnb/,https://www.instagram.com/asiantnb/,,https://twitter.com/asian_tnb
Trade Show,"Baby, Children, Maternity",Children Baby Maternity Expo Turkey,8 Jan 2020-11 Jan 2020,10:00 AM - 06:00 PM,9-12 Jan 2019,Jan-20,Turkey,Istanbul,Istanbul Expo Center,15000,250,https://www.cbmeturkey.com/,+90 533 559 13 43,hatice@efemfuar.com,"The leading children, baby and maternity products exhibition in Eurasia region

Regarded as the only gateway to the Eurasia market, CBME Turkey has grown larger than ever! Being the most recognized baby and children trade show in Eurasia, CBME Turkey is definitely an international marketplace for buyers to source producers with high quality and good price.

https://www.cbmeturkey.com/general-info","Alexpo - Childhood Business,Amber by Mazukna,Armoni Kids,Cherry Love,Funny Baby,L&A Kids,Marions,Mio Design,Cigit Kids,Chocho,Moonstar Kids,Walenti,Beneti,Happy Wippa,Lajudy Kids,Lovetti,Midimod Gold,Moi Noi,Papulin,Alg Life","Eligibility Criteria: Open to industry professionals and trade visitors
Fees: Free
Attendee Registration","Sponsorship Fees: Contact required for pricing information
Exhibitor Fees: Contact required for pricing information
Exhibitor Registration",,https://www.youtube.com/channel/UCoSFkuSQKbeFXF0Fkny7yow,https://www.facebook.com/cbmeturkey,https://www.instagram.com/cbmetr/,https://www.linkedin.com/company/cbmeturkey/,https://twitter.com/cbmetr
Trade Show,"Baby, Children, Maternity",Children Baby Maternity Expo India,7 Apr 2020-9 Apr 2020,10:00 AM-06:00 PM,10-12 Apr 2019,Apr-21,India,Mumbai,Bombay Convention and Exhibition Centre,6000,130,https://www.cbmeindia.com/,+91 982 150 2287,pankaj.shende@ubm.com,"International Children, Baby & Maternity Industry Expo

To cater to the diverse needs of the Mother and Baby Sector across India and subcontinent, CBME India 2018 offers a wide selection of products and services through its specialised categories Baby care, Mother care, Toys, Apparel, Maternity, Licensing, Pre-School and Day Care.

https://www.cbmeindia.com/Visitors/Why-Visit","Big Cub,Budds Buddy,CuddlyCoo,KeyRoo,Kido Glamz,The Mumum Co.,D9 Toys,Smart Mom,Royal Ausnz,Baby Charm,SpeCtra,Uzin Medicare,Ggumbi,Merissa,Kiddums,Putti Atti,Perfection,Dr. Ato,Azafran,Krakki","Eligibility Criteria: Open to industry professionals and trade visitors
Fees: Free
Attendee Registration","Sponsorship Fees: No info
Exhibitor Fees: Contact required for pricing info
Exhibitor Registration",https://www.cbmeindia.com/Media/Photo-Gallery-2019,https://www.cbmeindia.com/Media/Video-Gallery,https://www.facebook.com/cbme.india/,,https://www.linkedin.com/showcase/cbme-india/,
Trade Show,"Baby, Children, Maternity",Child & Junior Fashion,24 Sep 2019-27 Sep 2019,09:00 AM - 06:00 PM,25-28 Feb 2019,Feb-20,Russia,Moscow,Expocentre,12000,319,https://www.cjf-expo.ru/en/,+7 499 795 39 43,gureeva@expocentr.ru,"International Exhibition for Child and Junior Fashion; Maternity Wear

The CJF  Child and Junior Fashion Exhibition is a unique communication tool for professionals of the children's fashion industry from all over the world. The exhibition helps to strengthen the existing ties with partners as well as to sign new deals. The recent marketing research indicates that buyers are keenly interested in the growth of the exhibition for clothes and footwear for children, teenagers, and expecting mothers.

https://www.cjf-expo.ru/en/why_CJF/","Dan & Dani,Colibri Kids,Fleuer De vie,Grigor'ev Aleksey Viktorovich,Ivbaby,JDL Junior,Karamelli,Katrin Miller,Kiwiland,Malenkaya Lady Ltd,Lucky Child,Olmi Company,Riona Kids,Sky Lake,Viktory & Sergio,Stella,Naslednik Vyzhanova,Moda,Lila Style,GrandLeo","Eligibility Criteria: Open to industry professionals and trade visitors
Fees: No info
Attendee Registration","Sponsorship Fees: Contact required for pricing information
Exhibitor Fees: Contact required for pricing information
Exhibitor Registration",https://www.cjf-expo.ru/en/photo/2019_sp/01/,https://www.youtube.com/playlist?list=PLl5Cy3mtlw0nE4G9zGw_g1vc5xOsxwhbW,,,,
Conference,"Baby, Children, Maternity",International Conference on Pediatrics and Neonatology,25 Jul 2019-26 Jul 2019,09:00 AM - 06:00 PM,,Jul 2020 (expected),Netherlands,Amsterdam,Holiday Inn Amsterdam - Arena Towers,,,http://pediatrics-congress.alliedacademies.com/,,sarah-cristie@alliedscholars.net,"Encompass Emerging Trends in Clinical Pediatrics

Allied Academies takes immense pleasure in inviting all the participants around the globe to attend ""CME Accredited International Conference on Pediatrics and Neonatology"" to be held at at Amsterdam, Netherlands  during July  25-26 ,2019  to nurture and conduct an interdisciplinary research in Pediatrics and Neonatology  which includes Oral presentations, keynote presentations, poster presentations, young research forum and exhibitions.

http://pediatrics-congress.alliedacademies.com/about",,"Eligibility Criteria: Open to industry professionals and academia members
Fees: Vary between $100 - $1.549
Attendee Registration","Sponsorship Fees: No info
Exhibitor Fees: $2.099
Exhibitor Registration",,,,,,
Trade Show & Conference,"Baby, Children, Maternity",Excellence in Early Childhood Education and Care Conference.,16 Aug 2019-17 Aug 2019,09:00 AM-06:00 PM,17-18 Aug 2018,Aug-20,Australia,Melbourne,Crown Conference Centre,500,50,https://vic.childcarealliance.org.au/events/conference,+61 3 9532 2017,vic@childcarealliance.org.au,"A must-attend event for Service Operators, Directors and Educators

Engaging and expert keynote presentations, break out sessions for service operators, early childhood teachers and educators, an expansive trade exhibition and opportunities for networking all add to the appeal of our highly-regarded event.

https://vic.childcarealliance.org.au/events/conference","Burgess Rawson,McArthur,Guild Insurance,ChildCareSuper,Bonkers Beat,Quikkids,Modern Teaching Aids,Ezidebit,Step Learning Resources,Kidsoft,Victorian Inclusion Agency,Offspring Education,ChildHR,Bunnings Warehouse,Multiverse,SleepSmart,Wholesome Child,ChildCareEasyPay.com.au,Bell Bird Kidz,Department of Education and Training","Eligibility Criteria: Open to industry professionals
Fees: Tickets for members vary from $450 to $695
For non-members vary from $550 - $850
Attendee Registration","Sponsorship Fees: Vary between $1.650 -$25.000
Exhibitor Fees: 
Single Booth
ACAV Supplier Member - $2,500, Other Suppliers - $2,800
Double Booth
ACAV Supplier Member - $4,500
Other Suppliers $4,900
Exhibitor Registration",,,https://www.facebook.com/childcarealliancevic,,https://www.linkedin.com/company/australian-childcare-alliance---victoria/,https://twitter.com/ChildcareVic
Trade Show,"Baby, Children, Maternity",Children's Club,4 Aug 2019-6 Aug 2019,09:00 AM - 06:00 PM,3-5 Mar 2019,Mar-20,USA,New York,Pier 94,8000,500,https://www.ubmfashion.com/shows/childrensclub-1#attendee-planning,+1 310 940 4095,kristina.ishchenko@ubm.com,"International exhibition featuring every category of children's clothing

Exhibiting brands reflect an eclectic base of established collections and new designers bursting onto the scene. CHILDREN'S CLUB is an excellent opportunity to be seen by major department stores, online retailers, and better children's specialty boutiques.

https://www.ubmfashion.com/shows/childrensclub-1#attendee-planning","98 Coast Av.,Accessories by Adriana,Baby Club Chic,Charlie's Project,Claire & Charlie,Dex Kids,Eurokids,Gurly Bird,Herschel Supply,Hush Puppies Kids,Island Kids & Kids Isle,Jack & Friends,Juliana from Spain,Kappa,Kiddo,L'Pety Canar,Le Chic,Marc O' Polo,Merrell Kids,Michael Kors Collection","Eligibility Criteria: Open to industry professionals and trade visitors
Fees: Free
Attendee Registration","Sponsorship Fees: No information
Exhibitor Fees: Contact required for pricing information
Exhibitor Registration",https://www.ubmfashion.com/shows/childrensclub-1#exhibitor-planning?display=modal,https://www.youtube.com/watch?time_continue=2&v=-7THlxYQDdM,,https://www.instagram.com/childrensclub/,,
Trade Show & Conference,"Baby, Children, Maternity",MommyCon & DaddyCon Orlando,30 Aug 2019-31 Aug 2019,01:00 PM - 04:45 PM (30 Aug 2019)|08:00 AM - 03:45 PM (31 Aug 2019),31 Aug-1 Sep 2018,Aug-Sep 2020,USA,Orlando,Caribe Royale Convention Center,1000,48,https://mommycon.com/location/orlando/,,info@mommycon.com,"Meet leading experts who focus on subjects specific to parenting

Join thousands of families who have attended MommyCon & DaddyCon for a weekend of fun for new and expectant parents. We bridge education and learning with an interactive exhibitor hall, countless sessions and a hands-on approach to testing new products. You will meet leading experts who focus on subjects specific to parenting. Meet with one of our resident educators to try on baby carriers in-person.

https://mommycon.com/location/orlando/#faq","Huggies,Bioderma,Abby's Lane,Kindred Bravely,MommyCon Shoppe,Maddie & Izzy,Polyblox,Smart Bottoms / Bumblito,Weston A Price,Lady Eleanor Co.,Happy Family,Charlie Banana,AppleCheeks,Ju-Ju-Be,Lil Tulips,National Peanut Board,Naked Panda,Renzo's Vitamins,Kinderpack,Crescent Womb","Eligibility Criteria: Open to industry professionals and parents
Fees: VIP Admission - $150
Two Day Premium Admission - $75
Two Day Premium Admission Toddler - $75
Premium Admission Baby - $50
Premium Admission Toddler - $50
General Admission - $25
DaddyCon General Admission - $25
Child Admission - Free
Attendee Registration","Sponsorship Fees: Contact required for further information
Exhibitor Fees: Contact required for further information",,https://www.youtube.com/channel/UCB0rQ07rdtI_EXCfHZsKeeA,https://www.facebook.com/mommyconusa/,https://www.instagram.com/mommycon/,,https://twitter.com/MommyConUSA
Trade Show & Conference,"Baby, Children, Maternity",Bologna Children's Book Fair,30 Mar 2020-2 Apr 2020,09:00 AM - 06:30 PM (30 Mar 2020-31 Mar 2020)|09:00 AM - 03:00 PM (1 Apr 2020),1-4 Apr 2019,Mar-Apr 2021,Italy,Bologna,Fiera di Bologna,28946,1442,http://www.bookfair.bolognafiere.it/en/home/878.html,+39 051 282111,bookfair@bolognafiere.it,"The world's leading professional event dedicated to the children's publishing industry

The Bologna Children's Book Fair is an industry leading event that has succeeded in bringing together a unique and diverse global audience thanks to over 50 years experience. The result is the world's premium copyright exchange hub when it comes to publishing  which also extends to current multimedia and licensing businesses for children's stories, illustration, animation and related areas.

http://www.bookfair.bolognafiere.it/en/the-fair/the-bologna-childrens-book-fair/5656.html","ABC Forlag,Bayard Editions,Carlton Publishing Group,Penguin Random House,Maurizio Corraini SRL,Maison Georges,Hachette Children's Group,La Coccinella SRL,La Galera,Gerstenberg Verlag GmbH & Co. Kg.,JNJ Agency,Oslo Literary Agency,Orchard Books,Feiwel & Friends,Red Bird Publishing,Yekibud Editores,404 Editions,Gallimard Jeunesse,Sassi Editore SRL,Ibby Italia,Natur & Kultur","Eligibility Criteria: Open to industry professionals and trade visitors
Fees: To be announced
Registration will be opened.
Attendee Registration","Sponsorship Fees: No information
Exhibitor Fees: Stand prices vary between 1.870 - 6.585
Compulsory Registration fee - 390
Guest firms registration fee - 390
Collective stands - 160 for each
Exhibitor Registration",http://www.bookfair.bolognafiere.it/en/media/photogallery/2184.html,http://www.bookfair.bolognafiere.it/en/media/video-gallery/2417.html,https://www.facebook.com/BolognaChildrensBookFair,https://www.instagram.com/bolognachildrensbookfair/,https://www.linkedin.com/company/bolognachildrensbookfair/,https://twitter.com/BoChildrensBook
Trade Show,"Baby, Children, Maternity",BeFe BABYFAIR,15 Aug 2019-18 Aug 2019,10:00 AM - 06:00 PM,21-24 Feb 2019,Feb-20,South Korea,Seoul,"Coex, Hall A & B",150000,150,https://www.befe.co.kr/exhibition/fairMain_en.befe?lang=en,,babyfair@befe.co.kr,"The first exhibition of baby products in Korea

Held twice a year in Seoul, 'BeFe BABYFAIR' is the first exhibition of baby products in Korea, which attracts 150 exhibitors with their famous brands from 20 countries around the world. Exhibitors participate at BeFe BABYFAIR as a market test-bed for its new products and promotions. It is recognized as a must-attend exhibition who are planning to launch baby products in Korea. In fact 40% of the exhibitors are from overseas.

https://www.befe.co.kr/exhibition/fairInfo3_en.befe?lang=en","Alvins,Bebecook,David & Kate,English Egg,Gam Seong studio,Hyundai Marine & Fire Insurance,Jang Daewon,Kangaruru,Mamachi,Mothernbaby	,Pampers,Richell,Scandimom,Tommee Tippee,Woodolens,Ziazizo market,Miso,HuBDIC,Gerber,Foogo","Eligibility Criteria: Open to industry professionals and trade visitors
Fees: Free
Attendee Registration","Sponsorship Fees: No information
Exhibitor Fees: Standard booth - $2.700 (on a 18 sq m rental basis)
Raw booth - $2.300/9 sq m (min. 36 sq m)
Additional facility fees are available.
Exhibitor Registration",https://www.befe.co.kr/exhibition/fairLately1_en.befe?lang=en,https://www.befe.co.kr/exhibition/fairLately2_en.befe?lang=en,,https://www.instagram.com/befebabyfair/,,
Trade Show,"Baby, Children, Maternity",Spielwarenmesse,29 Jan 2020-2 Feb 2020,09:00 AM - 06:00 PM,30 Jan-3 Feb 2019,Jan-Feb 2021,Germany,Nuremberg,Spielwarenmesse,67000,2886,https://www.spielwarenmesse.de/language/1/,+49 911 99813-0,info@spielwarenmesse.de,"The world's leading fair for toys, hobbies and leisure articles

Experience the Spirit of Play at the key meeting point for the toy industry. As the largest and most important event of the year, the toy fair in Nuremberg brings together all international decision-makers. Well-known brands, trendy start-ups, buyers for major chains, independent retailers and large numbers of media representatives combine to make the Spielwarenmesse a unique event for all players in the toys and games market.

https://www.spielwarenmesse.de/fair/fair-profile/language/1/","4D Cityscape Inc.,A.W.E.CO. Srl,AceCamp GmbH,B&G International,Candylab Toys Inc,Carletto Deutschland GmbH,Early Years Resources,Eastcolight (HK ) Limited,ICM Holding Ltd.,Nanchen OHG,Nelson Verlag GmbH,Paintglow,Panda Consumer GmbH,L.A. Larsen AS,Raboesch Models B.V.,Rainbow Designs Ltd,Wader-Wozniak Sp. z o.o.,Child Friend Industrial Co., Ltd.,Konrad Keller GmbH,Kellner SteckfigurenHans-Georg Kellner","Eligibility Criteria: Open to industry professionals and trade visitors
Fees: One-day ticket
presale e-ticket - 19
presale paper ticket - 25
ticket desk - 30
Permanent ticket
presale e-ticket - 38
presale paper ticket - 49
ticket desk - 55
Attendee Registration","Sponsorship Fees: No information
Exhibitor Fees: Raw stands - 179 /sq m
Corner stands - 218/sq m
Head stands - 234/sq m
Block stands - 238/sq m
Minimum stand size 9 sq m
Exhibitor Registration",,https://www.youtube.com/channel/UC8EUAYEuJrv42FdK1ZM3ybQ?sub_confirmation=1,https://www.facebook.com/Spielwarenmesse,https://www.instagram.com/spielwarenmesse/,https://www.linkedin.com/showcase/spielwarenmesse/,https://twitter.com/inttoyfair
Trade Show,"Baby, Children, Maternity",Toy Fair New York,22 Feb 2020-25 Feb 2020,09:00 AM - 06:00 PM (22 Feb 2020-24 Feb 2020)|09:00 AM - 04:00 PM (25 Feb 2020),16-19 Feb 2019,Feb-21,USA,New York,Jacob K. Javits Convention Center,30000,1000,https://www.toyfairny.com/,+1 646 454 5589,lmangiaracina@toyassociation.org,"The Largest International Toy Fair

The global toy community gathers at Toy Fair to buy and sell product, pitch and exchange ideas, meet with partners, and so much more. This is a trade-only event for play professionals.

https://www.toyfairny.com/tf/exhibit/toyfair/exhibit/why-toy-fair.aspx","Akibabus Ltd,Barry and Jason - Games & Entertainment,Contender Brands,DoodleMatic,Drop the Puck,EasyRead Time Teacher Ltd,Elly Lu Organics,GoFunFace.com,Jaq Jaq Bird,Oribel Inc,PlayMonster LLC,Pocket Box Office,POWERUP Toys,Strictly Briks,TeeTurtle LLC,USAOPOLY,Whatsitsface?,Baby Paper,Cortex Toys,CutieLine LLC","Eligibility Criteria: Open to industry professionals and trade visitors
Fees: Contact required for pricing information
Attendee Registration","Sponsorship Fees: Various options available. Contact required for pricing information
Exhibitor Fees: Combo package - $3.500
Raw space only option - $35/sq ft (100 sq ft min.)
Tabletop exhibit - $1.600 for Toy Association members, $2.200 for non members
Exhibitor Registration",,https://www.youtube.com/playlist?list=PLCcfWgJBwb1iAUNa_queNqr3jOltM3AIn,https://www.facebook.com/TheToyAssociation,https://www.instagram.com/toyfair_ny/,,https://twitter.com/toyfairny
Trade Show,"Baby, Children, Maternity",INDX Kidswear,9 Feb 2020-10 Feb 2020,09:00 AM - 06:00 PM (9 Feb 2020)|09:00 AM - 05:00 PM (10 Feb 2020),30 Jun-1 Jul 2019,Jun-Jul 2021,United Kingdom,Shirley,Cranmore Park,12000,200,https://www.indxshow.co.uk/kidswear,+44 121 683 1415,kidswear@indxshow.co.uk,"The only show of its kind in the UK

INDX Kidswear showcases an unrivalled selection of over 200 fashion, accessories, footwear and special-occasion exhibitors, including both leading names and up and coming brands, to help you discover your next bestseller.

https://www.indxshow.co.uk/kidswear","Balloon Chic,Chipmunks,Bench,Antony Morato Junior,Hatley,Fabelab,Jelly Bean London,John Richmond Jr,Little Green Radicals,Peter Jo Kids,Petit Bateau,Steiff Clothing and Plush Toys,Zoocchini,Nursery Time,Mintini Baby,The Middle Daughter,Little Giants Ltd,Little Darlings Ceremony,Kids ONLY,Juliana Baby Clothes","Eligibility Criteria: Open to industry professionals and trade visitors
Fees: Free
Attendee Registration","Sponsorship Fees: Contact required for further information
Exhibitor Fees: Contact required for further information",https://www.indxshow.co.uk/kidswear/kidswear-gallery,https://www.youtube.com/playlist?list=PLeWpTWk1x4vojGSK3jAqRnDKN2EAGkWEx,https://www.facebook.com/IndependentKidsShow,https://www.instagram.com/indxkidswear/,https://www.linkedin.com/company/indx-independent-exhibitions/,https://twitter.com/Indxkidswear
Trade Show,"Baby, Children, Maternity",International Tokyo Toy Show,13 Jun 2019-16 Jun 2019,10:00 AM - 05:30 PM (13 Jun 2019)|10:00 AM - 05:00 PM (14 Jun 2019)|09:00 AM - 05:00 PM (15 jun 2019)|09:00 AM - 04:00 PM (16 Jun 2019),7-10 Jun 2018,Jun-20,Japan,Tokyo,Tokyo Big Sight,20000,197,http://www.toys.or.jp/toyshow/index_en.html,,toyshow2019@toys.or.jp,"Tokyo's annual toy exhibition

Various toy manufacturers from around the world gathered at the Tokyo Big Sight for a four-day toy exhibition where they showcase a plethora of colors and figures with toy displays all over the place providing a great whole day experience not only to children but even to those that are children at heart.

http://www.toys.or.jp/toyshow/index_en.html","Angel Trump Co. Ltd.,Bandai Co. Ltd.,Sega Toys Co. Ltd.,Shimzu Corporation,Hasbro Japan GK,Freesia Enterprise Ltd.,Universal Soft Co. Ltd.,Natsuaki,Sony Creative Products Inc.,Sony Interactive Entertainment Inc.,Miyuki-Seiko Co. Ltd.,Kawada Co. Ltd.,Games Workshop,Platz Co. Ltd.,Hello Mac,Ensky Co. Ltd.,Fuji Boeki Co. Ltd.,Lumica Corporation,The Japan Toy Association,TK Create","Eligibility Criteria: 13-14 Jun open to trade visitors
15-16 Jun open to general public
Fees: Free
Attendee Registration","Sponsorship Fees: No information
Exhibitor Fees: Contact required for further information",,,,,,
Conference,"Baby, Children, Maternity",Florida Krimes Against Kids Conference,7 Aug 2019-9 Aug 2019,09:00 AM - 06:00 PM,25-27 Jul 2018,,USA,Orlando,Disney's Coronado Springs Resort,500,,https://www.fncac.org/2019-conference,+1 850 671 4791,fncac@fncac.org,"The Conference that promises to provide something to everyone

With over 50 sessions in three days, the 2019 Conference promises to provide something for everyone. Our faculty includes presenters who are recognized for their passion and expertise. The combination of high-quality training, tremendous networking opportunities and the excitement of the Walt Disney World Resort offers an experience that will challenge and inspire everyone who attends the conference.

https://www.fncac.org/2019-conference",,"Eligibility Criteria: Open to industry professionals
Fees: Contact required for pricing information
Attendee Registration",,,,,,,https://twitter.com/FNCAC
Conference,"Baby, Children, Maternity",Kidz In Motion Conference,22 Aug 2019-24 Aug 2019,09:00 AM-06:00 PM,,Aug-20,USA,Orlando,Omni Orlando Resort at ChampionsGate,,,http://kidzinmotion.org/,+1 407 595 4464,info@kidzionmotion.us,"National Child Passenger Safety Conference

The Annual Kidz In Motion Conference is a national child passenger safety conference which aims to develop an inclusive Child Passenger Safety Community through collaboration, networking and mentoring, educate and inspire the passion for Child Passenger Safety, and create a positive, respectful and interactive learning environment.

http://kidzinmotion.org/about-us/",,"Eligibility Criteria: Open to industry professionals
Fees: Conference registration rates
Before May 2, 2019 - $350.00
May 2, 2019 - July 1, 2019 - $425.00
After July 1, 2019 - $500.00
Pre-conference registration rates
Full Day Workshop - $125/$150/$175
Half-Day Workshop - $75/$100/$125
2 Half-Day Workshops - $125/$150/$250
Attendee Registration","Sponsorship Fees: No information
Exhibitor Fees: By May 1, 2019
Non-profit - $400
For-profit - $750
After May 1, 2019
Non-profit - $500
For-profit - $1.000
Exhibitor Registration",,,https://www.facebook.com/Kidz.In.Motion,https://www.instagram.com/kidz_in_motion/,,https://twitter.com/kidzinmotion1
