Type of Event,Event Verticals,Name of Event,Dates,Hours,Date of Last Year's Event,Date of Next Year's Event,Country,City,Venue,# Atendees of Last Event,# Exhibitors of Last Event,URL,Phone Number,E-mail,About the Event,Exhibitors,Attendees,Exhibitor Info,Link to Photos,Link to Videos,Facebook,Instagram,Linkedin,Twitter
Conference,"Banking, Finance",London Fintech Week,8 Jul 2019-9 Jul 2019,09:00 AM - 07:00 PM,6-13 Jul 2018,Jul-20,United Kingdom,London,etc.venues,2000,40,https://www.fintechweek.com/,,events@fintechww.com,"The original is back. L ondon Fintech Week 2019

Held in London, the heart of the Fintech revolution, the annual event brings together the Fintech sector in London and beyond to discuss the latest developments in Fintech. Delegates come from around the globe to engage in one of the worlds leading financial ecosystems.

https://www.fintechweek.com/","Griffin,BitAssist,Credit Kudos,NewBTC,ApTap,Risk Save,Frontier Network,IBM,CFTE,StepLadder,ElevatHer,Bitcar,Crowd For Angels,Plexus,Sharevest,Envestnet Yodlee,Fintech Alliance,BBFTA,Work on Blockchain,Cocoon Global","Eligibility Criteria: Open to industry professionals
Fees: 538,80 incl. VAT
Attendee Registration",,,https://www.youtube.com/user/FinTechWeek,https://www.facebook.com/fintechweek/,,https://www.linkedin.com/company/fintechweek/,https://twitter.com/FinTechWeek
Conference,"Banking, Finance",TradeFinex,18 Jun 2019,09:30 AM - 05:10 PM,,Jun-20,UAE,Abu Dhabi,Al Maqam Tower,,,http://events.tradefinex.org/,,events@tradefinex.org,"One single platform to address the increasing global trade finance gap

The first in a series of global roundtables convening trade and finance stakeholders to advance and showcase real-world use cases of hybrid blockchain and applications.

http://events.tradefinex.org/",,"Eligibility Criteria: Open to industry professionals
Price: Delegate Registration
Early bird - $299, Regular - $499
Virtual Attendee Pass
Early bird - $99, Regular - $199
Attendee Registration",,,https://www.youtube.com/channel/UCQaL6FixEQ80RJC0B2egX6g,,,https://www.linkedin.com/company/xinfin/,https://twitter.com/XinFin_Official
Conference,"Banking, Finance",Middle East Investment Summit,14 Apr 2020-15 Apr 2020,09:00 AM-06:00 PM,23-24 Apr 2019,Apr-21,UAE,Dubai,Jumeirah Emirates Towers Hotel,600,,https://www.terrapinn.com/conference/middle-east-investment-summit/index.stm,+971 4440 2500,enquiry.me@terrapinn.com,"The ultimate platform for industry professionals to network, strategise and learn from prominent global leaders, alongside their peers and colleagues

We have been fortunate to be the stewards of an event that for 21 years has met the needs of Middle Eastern institutional and private investors. With over $3 trillion of wealth in attendance annually, we are looking for innovative fund managers and solution providers who can help investors diversify their portfolios.

https://www.terrapinn.com/conference/middle-east-investment-summit/our-story.stm",,"Eligibility Criteria: Open to industry professionals
Fees: Individual Pass - $2.875
Group Booking - $2.590
Attendee Registration",,,,,,,https://twitter.com/meisdxb
Trade Show & Conference,"Banking, Finance",Seamless Middle East,25 Mar 2020-26 Mar 2020,09:00 AM-06:00 PM,10-11 Apr 2019,Mar-Apr 2021,UAE,Dubai,Dubai International Convention & Exhibition Centre,10000,500,https://www.terrapinn.com/exhibition/seamless-middle-east/FREE-Expo.stm#highlights,+971 4440 2500,enquiry.me@terrapinn.com,"An Event For The Brave New World Of Commerce

Technology is fundamentally changing the finance and commerce ecosystem. As consumers, businesses and governments adapt to a digital world, the desire for tech enabled solutions that improve traditional transaction methods and financial services is growing rapidly.

https://www.terrapinn.com/exhibition/seamless-middle-east/our-story.stm","Wuhan Tianyu Information Industry Co. Ltd.,LexisNexis Risk Solutions,3C Payment,AdvanIDe,Alhamrani Universal Company,Al Nawras Digital Solutions,Appgain Inc.,AustriaCard,Barnes International,Beijing Shenzhou Anfu Technology Co. Ltd.,Bitel Co. Ltd.,Bluebird Inc.,Castles Technology Co. Ltd.,Centerm Information,Checkout.com,MIND IOT Technology,Card Imaging Master,Compass Plus Ltd.,Crane Payment Innovations,Elyctis","Eligibility Criteria: Open to industry professionals & trade visitors
Fees: Conference ticket costs $1.500. Up to 65% discount is available if booked early. Exhibition is free to attend for conference visitors.
Special ticket offers available for group booking, confirmed exhibitors, retailers, startups, and government entities.
Attendee Registration","Sponsorship Fees: Various options are included exhibition packages
Exhibitor Fees: Starts at $405 per sq m
Exhibitor Registration",https://www.terrapinn.com/exhibition/seamless-middle-east/photos.stm,https://www.youtube.com/user/cardschannel,https://www.facebook.com/seamlessmiddleeast,,https://www.linkedin.com/showcase/seamless-middle-east/about/,https://twitter.com/seamlessDXB
Conference,"Banking, Finance",Digital Marketing for Financial Services Summit,19 Jun 2019-20 Jun 2019,07:30 AM - 05:00 PM,11-12 Jun 2018,Jun-20,Canada,Toronto,The Westin Harbour Castle Conference Centre,350,,https://www.financialdigitalmarketing.com/,+1 866 298 9343 Ext. 200,customercare@strategyinstitute.com,"The largest gathering of financial marketers in Canada

Adopt cutting edge tactics from leading innovators to gain a competitive advantage. Join 350+ attendees at the only event of its kind in Canada! Stay ahead of the curve with crucial insights.

https://www.financialdigitalmarketing.com/attending/who-attends/",,"Eligibilility Criteria: Open to industry professionals
Fees: Regular Investments - $2.195
Vendors, Suppliers & Consultants - $2.795
Early Birds Primary Priicng - $800
Early Birds Secondary Pricing - $400
Group of four receives 25% discount.
Attendee Registration",,https://www.financialdigitalmarketing.com/,,,,https://www.linkedin.com/groups/8353396/,https://twitter.com/DMFinancialServ
Conference,"Banking, Finance",Finance Transformation India Summit,18 Jul 2019-19 Jul 2019,08:00 AM - 05:00 PM,24-25 Jul 2018,Jul-20,India,Mumbai,Holiday Inn Mumbai International Airport,2000,,https://financetransformationindia.com/Home.aspx,+91 22 6608 9643,damodar.pai@inventicon.in,"Enabling enterprise performance and value through better cost management - driving efficiency and strategy

Building on the previous editions the 6th Finance Transformation India Summit 2019 will bring together leading industry experts to share best practices, case studies and latest trends from leading regional companies. This summit is designed to enable finance departments within organizations to not only be efficient and effective, but also integrated and flexible.

https://financetransformationindia.com/Home.aspx",,"Eligibility Criteria: Open to industry professionals
Fees: All access for Indian attendees - INR 35.400 incl. tax
All access for international attendees - $595
Attendee Registration",,https://financetransformationindia.com/5th-Edition.aspx,,https://www.facebook.com/InventiconBI/,,https://www.linkedin.com/company/inventicon-business-intelligence/,https://twitter.com/inventiconbi
Trade Show & Conference,"Banking, Finance",Accounting & Finance Show LA,23 Jul 2019-24 Jul 2019,08:00 AM - 05:30 PM (23 Jul 2019)|08:00 AM - 04:00 PM (24 Jul 2019),25-26 Jul 2018,Jul-20,USA,Los Angeles,Los Angeles Convention Center,2500,100,https://www.terrapinn.com/exhibition/accounting-finance-show-la/index.stm,+1 212 379 6322,enquiry.us@terrapinn.com,"Technology-Ideas-Skills For Accountants Bookkeepers & Finance Managers

The Accounting & Finance Show brings together the technology, the people and the experts that will keep you ahead of the exciting changes that are sweeping your profession. Whether you are an accountant or bookkeeper in private practice or a finance manager in a small business, this is the event for you. Where else do you have access to hundreds of new solutions on one giant show floor and a free conference programme that addresses the key skill development needs for your digital future?

https://www.terrapinn.com/exhibition/accounting-finance-show-la/our-story.stm","Entigrity,Adra by Trintech,AccountingSuite,AbacusNext,Aero Workflow,ancora Software,ANTS,Avidxchange,Camico,CardConnect,Cebod Telecom,ChargeZoom,Drake Software,Cloud9 Hosting,Divvy,DMMed Group,Emburse,FloQast,The Franchise Connectors,Gable Tax Group","Eligibility Criteria: Open to industry professionals
Fees: Free
Attendee Registration","Sponsorship Fees: Vary between $12.500 - $50.000
Exhibitor Fees: 5x10 booth - $2.500
10x10 booth - $5.000
20x10 booth - $10.000
Sponsorship packages include exhibition.
Exhibitor Registration",https://www.terrapinn.com/exhibition/accounting-finance-show-la/photos.stm,,https://www.facebook.com/AccountingShow,,https://www.linkedin.com/showcase/accounting-&-finance-show/,https://twitter.com/AccountingShow
Conference,"Banking, Finance",Payments & Cards Summit,6 Aug 2019,09:00 AM - 09:00 PM,22-Aug-18,Aug-20,India,Mumbai,The Westin Mumbai Garden City,136,,https://www.payments-cards.com/index.html,+91 987 002 2364,aditee@kamikaze.co.in,"The Summit unpacks the rapid advancement in technology and customer expectations in the industry

The Payments & Cards Summit is India's only event which is built exclusively for the payment and card executives at the industry's leading issuers, networks, retailers, e-tailers and innovators. Providing innovation, stimulation, thought leadership and relevancy in today's market, it is the must attend event for organisations looking for the right tools, solutions and advice on how to best run their business.

https://www.payments-cards.com/index.html",,"Eligibility Criteria: Open to industry professionals
Fees: Nomination fee - INR 17.500 + INR 4.124,68 processing fee
All access fee - INR 22.500 +  INR 4.124,68 processing fee
Attendee Registration",Limited sponsorship & exhibition opportunities available. Contact required for further information,https://photos.google.com/share/AF1QipPUSxuH4G4jyzJ2U8pH7QwaueEavyMeQXfODNcHyWm3pAdV2udZeHSvSJsi-GcXbA?key=WUZJWUdqaGlGTE5LakhtRUxQQTJpeWdweEFJdHJn,,,,,
Conference,"Banking, Finance",Finnovex Southern Africa,24 Jul 2019-25 Jul 2019,08:00 AM - 06:00 PM,,Jul-20,South Africa,Johannesburg,Montecasino Ballroom,,,https://finnovex.com/FinnovexSouthernAfrica/,+971 58 551 8437,info@exibex.com,"A must-attend conference focusing on the developments in the banking industry

Finnovex will bring together Fintech influencers, senior banking experts and industry leaders to network, collaborate and discuss the future of the banking and financial services industry. With banks now looking to become truly digital entities, it will be innovation that will act as the differentiator between the best and the rest.

https://finnovex.com/FinnovexSouthernAfrica/about/",,"Eligibility Criteria: Open to industry professionals
Fees: Delegate ticket - $743,19
Vendor ticket - $1.697,97
Attendee Registration","Sponsorship opportunities available.
sponsorship@exibex.com",,https://www.youtube.com/channel/UCfxEoE4GycX1m7YeHdOZQXQ,,https://www.instagram.com/finnovex/,https://www.linkedin.com/showcase/finnovex-middle-east/,https://twitter.com/Finnovexlive
Conference,"Banking, Finance",Finnovex West Africa,22 Oct 2019-23 Oct 2019,09:00 AM - 05:00 PM,,Oct-20,Nigeria,Lagos,To be announced,,,https://finnovex.com/wa/,+971 58 551 8437,info@exibex.com,"The Leading Summit on Financial Services Innovation and Excellence

Through Finnovex West Africa, we bring forth a platform for industry shaping discussions with experts, thought-leaders and innovators from all across the financial services community that will concentrate on global trends and disruptions.

https://finnovex.com/wa/",,"Eligibility Criteria: Open to industry professionals
Fees: Banker practitioner - $199
Startup - $299
Vendor - $1.999
Attendee Registration","Sponsorship opportunities available.
sponsorship@exibex.com",,https://www.youtube.com/channel/UCfxEoE4GycX1m7YeHdOZQXQ,,https://www.instagram.com/finnovex/,https://www.linkedin.com/showcase/finnovex-middle-east/,https://twitter.com/Finnovexlive
Conference,"Banking, Finance",Finnovex Middle East,19 Mar 2019,08:00 AM - 07:00 PM,,Mar-20,UAE,Dubai,The Address Dubai Marina,300,,https://finnovex.com/finnovexmiddleeast,+971 58 551 8437,info@exibex.com,"Middle East's Leading Summit Financial Services Innovation

Finnovex Middle East will discuss the roles of banking and non-banking institutions, financial organizations, investment firms, fintech companies, and other stakeholders in developing incentives to the paradigm shift in this sector.

https://finnovex.com/finnovexmiddleeast/#",,"Eligibility Criteria: Open to industry professionals
Fees: $637
Attendee Registration","Sponsorship opportunities available.
sponsorship@exibex.com",https://finnovex.com/finnovexmiddleeast/,https://www.youtube.com/channel/UCfxEoE4GycX1m7YeHdOZQXQ,,https://www.instagram.com/finnovex/,https://www.linkedin.com/showcase/finnovex-middle-east/,https://twitter.com/Finnovexlive
Trade Show & Conference,"Banking, Finance",BankTech Asia Kuala Lumpur,16 Jul 2019-17 Jul 2019,08:00 AM - 05:00 PM,24-25 Jul 2018,Jul-20,Malaysia,Kuala Lumpur,Kuala Lumpur Convention Centre,500,40,http://banktechasia.com,+603-2170 1588,info@banktechasia.com,"Leading Banking Technology Event in Asia

Marking its 11th year being the leading Banking Technology event in Asia for a decade now, BankTech Asia  Kuala Lumpur Regional Series returns in 2019 to offer the latest insights, innovations and solutions for the Banking and Fintech industry. 2018, we saw a wave of disruption sweep across the financial industry with regulators and incumbents from the region each responding with their own strategy to fintech and other disruptions.

http://banktechasia.com/11th-annual-kl/","iPayLinks,Comarch,TechData,SMEBank,ActiveOps,Giat,Stratus Technologies & NCR Corporation ,AlphaPayment,iexceed,Big Data Scoring,Luminous,Suitebox,HelloGold,ThreatMark,InstaReM,Netregy,Neteon Touch Solutions,Malaysia Debt Ventures,Kaspersky,TROY Group Inc.","Eligibility Criteria: Open to industry professionals
Fees: RM 3.199
Attendee Registration","Sponsorship Fees: Contact required for further information
Exhibitor Fees: Contact required for further information
Exhibitor Registration",http://banktechasia.com/shortcodes/gallery/,,https://www.facebook.com/BankTechAsia/,https://www.instagram.com/banktechasia/,https://www.linkedin.com/company/banktech-asia/,https://twitter.com/BankTechAsia
Conference,"Banking, Finance",Future of Financial Services Auckland,1 Aug 2019,09:00 AM - 06:00 PM,09-Aug-18,06-Aug-20,New Zealand,Auckland,Cordis Auckland,400,,https://fst.net.au/conferences/future-financial-services-auckland-2019,+61 2 8484 0687,tingl@fst.net.au,"New Zealand's only Technology in Financial Services Conference

This annual conference will once again bring together 400+ Technology, Innovation, Digital and Strategy executives from New Zealands leading financial services organisations to join in dynamic conversations around disruptive technology trends, digital innovation and the evolvoing financial markets ecosystem that are redefining strategic business operations for the industry.

https://fst.net.au/conferences/future-financial-services-auckland-2019",,"Eligibility Criteria: Open to industry professionals
Fees: Contact required for pricing information
Attendee Registration","Sponsorship opportunities available
MarkQ@fst.net.au",,,https://www.facebook.com/fstmedia/,,https://www.linkedin.com/company/fst-media/,https://twitter.com/FSTMedia
Conference,"Banking, Finance",Future of Financial Services ASEAN,3 Oct 2019,09:00 AM - 06:00 PM,26-Sep-18,Sep-Oct 2020,Singapore,Singapore,Sheraton Towers,250,,https://fst.net.au/conferences/future-financial-services-asean-2019,+65 3157 6024,JosephH@fst.asia,"Financial Event that brings together the brightest minds from the region's most innovative financial institutions

This by invitation-only event will bring together 250+ Chiefs and Divisional Heads at Asias largest banks, insurance and financial services organisation to share thought-leadership insights on industry trends and emerging technologies that will change the face of the industry in the years to come.

https://fst.net.au/conferences/future-financial-services-asean-2019",,"Eligibility Criteria: This event is by invitation only. Professionals who want to attend can still register their interest in the event.
Fees: Contact required for pricing information
Attendee Registration","Sponsorship opportunities available
AmanM@fst.asia",,,https://www.facebook.com/fstmedia/,,https://www.linkedin.com/company/fst-media/,https://twitter.com/FSTMedia
Conference,"Banking, Finance",Future of Financial Services Melbourne,22 Jul 2020,09:00 AM - 06:00 PM,06-Jun-19,Jun-Jul 2021,Australia,Melbourne,Crown Metropol Melbourne,500,,https://fst.net.au/conferences/future-financial-services-melbourne-2020,+61 2 9376 3225,marcele@fst.net.au,"Melbourne's only dedicated technology and innovation in financial services conference

The event will bring together 500+ technology, digital, and strategy executives from Australia's leading banks, insurers, and superannuation providers and will feature industry thought-leaders that present the latest industry trends and emerging disruptive technologies - including AI, robotic process automation, Open APIs, cloud computing - and strategies that position their organisations at the vanguard of digital innovation.

https://fst.net.au/conferences/future-financial-services-melbourne-2020",,"Eligibility Criteria: Open to industry professionals
Fees: Contact required for pricing information
Registration will be opened.
","Sponsorship opportunities available
MarkQ@fst.net.au",,,https://www.facebook.com/fstmedia/,,https://www.linkedin.com/company/fst-media/,https://twitter.com/FSTMedia
Conference,"Banking, Finance",Future of Financial Services Sydney,14 Nov 2019-15 Nov 2019,09:00 AM - 06:00 PM,8-9 Nov 2018,5-6 Nov 2020,Australia,Sydney,Hyatt Regency,1000,,https://fst.net.au/conferences/future-financial-services-sydney-2019,+61 2 8484 0687,tingl@fst.net.au,"The largest financial services tech event in Australia and Asia Pacific

Join the discussion to learn how the industry is embracing change and accelerating its technology adoption to sharpen the competitive edge and improve customer experience. Open Banking, AI & Machine Learning, Data Analytics, Blockchain, Digital Innovation, the emergence of Neobanks and many other topics are sitting high on the agenda in 2019.

https://fst.net.au/conferences/future-financial-services-sydney-2019",,"Eligibility Criteria: Open to industry professionals
Fees: Contact required for pricing information
Attendee Registration","Sponsorship opportunities available
MarkQ@fst.net.au",,,https://www.facebook.com/fstmedia/,,https://www.linkedin.com/company/fst-media/,https://twitter.com/FSTMedia
Conference,"Banking, Finance",European Pensions & Investments Summit,28 Oct 2019-30 Oct 2019,09:00 AM - 06:00 PM,20-22 May 2019,May-20,Netherlands,Amsterdam,Hilton Amsterdam,500,,http://www.epi-summit.com/,+357 22 849 400,WebEnquiries@marcusevanscy.com,"The ultimate meeting point, bringing elite buyers and sellers together

As an invitation-only event taking place behind closed doors, the summit offers regional pension investors and international fund managers and consultants an intimate environment for focused discussion of the key new drivers shaping institutional asset allocations.

http://www.epi-summit.com/program.asp?eventID=&LangID=&pageID=18#.XS8myegza00",,"Eligibility Criteria: Invitation-only event, industry professionals can still register their interests in the event
Fees: Contact required for pricing information
Attendee Registration","Sponsorship opportunities available
Contact required for further information",,https://www.youtube.com/user/MarcusEvansInvest,,,,https://twitter.com/meEventsInvest
Trade Show,"Banking, Finance",Invest,16 Jul 2019-17 Jul 2019,08:30 AM - 05:30 PM (16 Jul 2019)|08:30 AM - 04:00 PM (17 Jul 2019),10-11 Jul 2018,Jul-20,USA,New York,New York Marriott Marquis,1500,31,https://www.financial-planning.com/conference/invest-2019,+1 212 803 8456,Ingrid.Olsen@sourcemedia.com,"The industry's largest and most anticipated digital wealth management event of the year

Now in its fifth year, In|Vest 2019 will bring together the entire wealth management industry  those that serve retail customers, HNW, UHNW, digital advisors, insurance, asset managers, investors, all manners of solution providers, and consultants to debate and uncover the solutions that are working today, and on the horizon.

https://www.financial-planning.com/conference/invest-2019/about","Broadridge Financial Solutions,Chalice,Chetu,Clearnomics,Doxim,Egnyte,ETNA,EY,FactSet Research Systems,Fiserv,Folio Financial,IHS Markit Digital,InvestCloud,Investment Metrics,Jemstep,Kurtosys,LTI,Plaid,Private Client Resources,Silver Wealth Technologies","Eligibility Criteria: Open to industry professionals
Fees: Standard rate
Banks & Financial Advice Firms (Serving Primarily Retail Customers) - $1.695
Software Vendors, B2B Solution Providers and Consultants - $1.995
Rate expires after June 7, 2019
Attendee Registration","Sponsorship Fees: Contact required for pricing information
Exhibitor Fees: Contact required for pricing information
Sponsorship Registration",,,,,,https://twitter.com/InVest_Event
Conference,"Banking, Finance",TBLI Conference Europe,12 Jun 2019-13 Jun 2019,09:00 AM - 05:30 PM (12 Jun 2019)|09:30 AM - 01:00 PM (13 jun 2019),19-20 Nov 2015,,Switzerland,Zurich,Volkshaus Foundation Zurich,300,,https://www.tbligroup.com/zurich-2019,+31 20 428 6752,info@tbligroup.com,"Explore investment opportunities and learn about latest trends

The overall purpose to attend the TBLI Conference Europe is to build out an effective research programmes and best methods for the development of Investment strategies aspects. An array of presentations and workshop will give you a platform to share the research work by the professionals.

https://www.tbligroup.com/zurich-2019",,"Eligibility Criteria: Open to industry professional
Fees: Contact required for pricing information
Attendee Registration",,https://www.flickr.com/photos/tbliconference/albums/72157709104334837,,https://www.facebook.com/tbliconference/,,https://www.linkedin.com/company/tbli-group/?originalSubdomain=tr,https://twitter.com/tbli_conference
Conference,"Banking, Finance",TBLI Conference Asia Singapore,7 Nov 2019-8 Nov 2019,09:00 AM - 05:30 PM (7 Nov 2019)|11:00 AM - 13:00 PM (8 Nov 2019),,,Singapore,Singapore,Singapore Management University,,,https://www.tbligroup.com/asia-2019,+31 20 428 6752,info@tbligroup.com,"Asian Events for Investment Decision Makers

Join institutional investors, fund distributors and asset owners at the leading conference on global ESG and impact investing. Network, explore investment opportunities and discuss the latest trends. The Fourth TBLI CONFERENCE ASIA will be held in Singapore, November 7th - 8th 2019.

https://www.tbligroup.com/asia-2019",,"Eligibility Criteria: Open to industry professionals
Fees: Free
Attendee Registration",,,,https://www.facebook.com/tbliconference/,,https://www.linkedin.com/company/tbli-group/?originalSubdomain=tr,https://twitter.com/tbli_conference
Conference,"Banking, Finance",Crypto World Zug Conference,1 Jun 2019-2 Jun 2019,09:00 AM - 05:00 PM,12-13 Jun 2018,Jun-20,Switzerland,Zug,Galvanic Center,,,https://www.cryptoworldzug.io,,info@cryptoworldzug.io,"A Place to Breathe and Learn Blockchain & Crypto

A rare occasion that brings bitcoin and cryptocurrencies to a level that is also suitable for beginners. Most congresses on these topics assume a decent basic knowledge to be able to follow the speakers. The Crypto World Zug organizers want to fill this void with a 2-day congress that also aims to the amateurs and enthusiasts.

https://www.cryptoworldzug.io/about/",,"Eligibility Criteria: Open to industry professionals and enthusiasts
Fees: Contact required for pricing information
Registration for the next event will be opened.","Sponsorship Fees: Apero - CHF 3.500
Silver - CHF 3.000
Gold - CHF 5.000
Platinum - CHF 10.000
Sponsorship Registration",,https://www.cryptoworldzug.io/media/,,,https://www.linkedin.com/groups/8686715/,https://twitter.com/cryptoworldzug
Trade Show & Conference,"Banking, Finance",FINANZ',21 Jan 2020-22 Jan 2020,10:00 AM - 06:00 PM (21 Jan 2020)|09:30 AM - 05:00 PM (22 Jan 2020),22-23 Jan 2019,Jan-Feb 2021,Switzerland,Zurich,StageOne Event & Convention Hall,3100,98,https://finanzmesse.ch,+41 44 241 30 60,info@finanzmesse.ch,"Switzerlands largest financial fair

The fair slogan of FINANZ20 is Traditional values in a digital world and the event will once again be held at StageOne in Zurich Oerlikon. In addition to the attractive programme, FINANZ20 will also offer training seminars for professionals, organized by specialist financial associations. FINANZ20 / IMMO20 will be aimed solely at professional investors as it has been the case for the last two years.

https://finanzmesse.ch/en/infos-and-facts/facts.html","AXA Investment Managers Schweiz AG,BNP Paribas (Suisse) SA,Bloomberg,Commerzbank AG / ComStage ETFs,East Capital,Eurizon Capital,Fisch Asset Management AG,Hauck & Aufhuser Fund Services S.A.,Invesco,Janus Henderson Investors,LGT Capital Partners AG,MainFirst Affiliated Fund Managers S.A.,ODDO BHF Asset Managment SAS,SIA Funds AG,Swissquote Bank,Twelve Capital AG,UBS AG,zCapital AG,TokenSuisse AG,vwd group Switzerland AG","Eligibility Criteria: Open to only professional investors
On invitation or CHF 250.- at the cash desk
Tickets / Registration possible from December 2019","Sponsorship Fees: Sponsoring package - CHF 6.500
Contact required for further sponsoring opportunities
Exhibitor Fees: Stand space (at least 15 sq m) - CHF 585 per sq m
Modular exhibition stands vary between CHF 735 - CHF 821
Multi Brand Concept - CHF 5.300 per participant
Glass Cube (50 sq m) - CHF 20.000
Exhibitor Registration",https://finanzmesse.ch/en/infos-and-facts/review/impressionen.html,https://finanzmesse.ch/en/infos-and-facts/review/videos.html,,,https://www.linkedin.com/company/finanzmesse-z%C3%BCrich/?viewAsMember=true,https://twitter.com/finanzmesse
Conference,"Banking, Finance",Richmond Finance Summit,3 Oct 2019-4 Oct 2019,09:00 AM - 06:00 PM,4-5 Oct 2018,1-2 Oct 2020,Switzerland,Lausanne,Beau-Rivage Palace,,,http://www.finance-summit.com/,+1 212 651 8700,general@richmondevents.com,"A unique event, for the key decision-makers and supplier companies of the wealth management and investment industry

This conference programme aims to give senior industry professionals access to new ideas, solutions and innovations to help take their departments and companies forward. The agenda is pitched at a high level and we endeavour to present new case studies and new thinkers on the programme each year.

http://www.finance-summit.com/Conference.aspx",,"Eligibility Criteria: This event is by invitation-only.
Fees: Contact required for further information
Attendee Registration",,,http://www.finance-summit.com/Video.aspx,,,https://www.linkedin.com/company/richmond-events-switzerland/,https://twitter.com/fiforum
Trade Show & Conference,"Banking, Finance",The MoneyShow San Francisco,15 Aug 2019-17 Aug 2019,08:15 AM - 05:45 PM (15 Aug 2019)|08:30 AM - 06:45 PM (16 Aug 2019)|08:00 AM - 05:15 PM (17 Aug 2019),23-25 Aug 2018,Aug-20,USA,San Francisco,Hilton San Francisco Union Square,,,https://conferences.moneyshow.com/moneyshow-san-francisco,+1 800 970 4355,Support@moneyshow.com,"The Premium Money Show in San Francisco

At The MoneyShow San Francisco will you meet face-to-face and hear from a hand-picked roster of preeminent economists, renowned advisors, and top-performing money managers who are distinguished for their original and unbiased body of work. You'll get in-depth perspectives, actionable recommendations, and even one-on-one discussions with some of the best minds in the world of money.

https://conferences.moneyshow.com/moneyshow-san-francisco/","Merrill,tastytrade,CME Group,National Retail Properties, Inc.,TIAA Bank,Zhittya Genesis Medicine Inc.,Action Forex,Aflac Incorporated,BetterInvesting,Eagle Financial Publications,FINRA Investor Education Foundation,Forbes,Infrastructure Capital Advisors, LLC,Investors Hub,KDOW,MarketWatch,Palace Way Partners LLC,PENSCO Trust Company,Schaeffer's Investment Research, Inc.,Turner Capital Investments","Eligibility Criteria: Open to industry professionals
Fees: Free
Attendee Registration","Sponsorship Fees: Contact required for further information
Exhibitor Fees: Contact required for further information
Exhibitor Registration",,https://www.youtube.com/moneyshow,https://www.facebook.com/FollowMoneyShow,,https://www.linkedin.com/company/moneyshow/,https://twitter.com/moneyshows
Trade Show & Conference,"Banking, Finance",Seamless East Africa,2 Sep 2019-4 Sep 2019,08:30 AM - 05:30 PM,3-5 Sep 2018,Sep-20,Kenya,Nairobi,Radisson Blu,1500,90,https://www.terrapinn.com/exhibition/seamless-east-africa/index.stm,+971 4440 2500,enquiry.me@terrapinn.com,"East Africa's Leading Fintech Conference

Seamless East Africa, now in its 5th edition, has proven to be the flagship fintech event of East Africa. The event has grown year on year, bringing together 800+ payments, banking and fintech professionals to Nairobi from across 45 countries. Our audience consists of 83% decision makers and influencers, and is represented by all major banks in East Africa.

https://www.terrapinn.com/exhibition/seamless-east-africa/our-story.stm","Barnes International,Dataprotect,Exatec ATM,F5,Fujian Morefun Electronic Technology Co., Ltd.,FutureCard,Giro FinTech,Global Payment Services,SZFP Technology Limited,MobiIoT,Matica Fintec S.R.L.,Waypotat,Wisecard Technology Co. Ltd.,Global Technology Partners,Cashberry,BankBuddy,icolo.io,BitHub Africa,KuBitX,Pennysmart","Eligibility Criteria: Open to industry professionals
Fees: Free Expo Pass - Free
Financial Inclusion Summit (Pre-Event Summit) - $200
Merchant Payments Summit (Pre-Event Summit) - $200
Special Rate for Banks & Insurance Companies - $300
3 Day Conference Pass (Conf+Summit+Expo) - $1.250
2 Day Conference Pass (Includes Expo) - $1.050
Attendee Registration","Sponsorship Fees: Sponsorship packages include exhibition.
Packages vary from $20.000 to $120.000.
Exhibitor Fees: Start from $8.000.
Exhibitor Registration",https://www.terrapinn.com/exhibition/seamless-east-africa/photos.stm,https://www.terrapinn.com/exhibition/seamless-east-africa/photos.stm,https://www.facebook.com/SeamlessAfrica/?tn-str=k*F,,,https://twitter.com/seamless_africa
Trade Show & Conference,"Banking, Finance",Wealth/Stack,8 Sep 2019-10 Sep 2019,03:00 PM - 05:10 PM (8 Sep 2019)|08:00 AM - 06:30 PM (9 Sep 2019)|08:30 AM - 03:30 PM (10 Sep 2019),,Sep-20,USA,Scottsdale,The Scottsdale Plaza Resort,,,https://finance.knect365.com/wealth-stack/,+1 888 670 8200,register@knect365.com,"Bridging the gap between technology, investment management and practice management

Wealth/Stack has been created to address current technological disruption in the industry. Giving advisors much-needed insight to be able to future-proof their business and thrive.

https://finance.knect365.com/wealth-stack/","Amplify ETFs,Carson Group,eMoney Advisor,Fix Flyer,Naviplan by Advicent,RiskAlyze,TradePMR,United Capital,YCharts","Eligibility Criteria: Open to industry professionals
Fees: Advisor Rate - $145
Standard Rate - $1.295
Attendee Registration","Sponsorship Fees: Contact required for further information
Exhibitor Fees: Contact required for further information
Exhibitor Registration",,,,https://www.instagram.com/wealthstack/,,https://twitter.com/wealthstackconf
Conference,"Banking, Finance",Swiss Payment Forum,11 Nov 2019-12 Nov 2019,08:30 AM - 06:00 PM (11 Nov 2019)|08:30 AM - 04:00 PM (12 Nov 2019),5-6 Nov 2018,Nov-20,Switzerland,Zurich,Marriott Hotel Zurich,200,,https://www.swisspaymentforum.ch/,+41 71 677 8700,info@vereon.ch,"Innovative Payment Models, Payment and Banking, Open Banking, Blockchain

The Swiss Payment Forum will take place for the 7th time on November 11 and 12, 2019. You can expect exciting presentations and targeted networking with an expected number of 150 decision-makers from the payment industry, commerce and science.

https://www.swisspaymentforum.ch/en/agenda",,"Eligibility Criteria: Open to industry professionals
Fees: CHF 2.195 per person
Special price - CHF 695
Attendee Registration",,https://www.swisspaymentforum.ch/rueckblick-2018,https://www.youtube.com/playlist?list=PLeZKnNJ03yWTuVcivG4-QpnU9pCeNOQ7W,,,,https://twitter.com/spfzh
Conference,"Banking, Finance",Swiss Lending Conference,6 May 2019,04:00 PM - 10:00 PM,09-May-18,May-20,Switzerland,Zurich,SIX ConventionPoint,100-150,,https://www.swisslendingconference.com/,+41 58 399 2111,,"The largest lending event in continental Europe

?The conference is tailored to banks and institutional investors interested in the digitalization of the lending industry. The event will cover the developments that shape the growing Digital Lending industry, both in Switzerland and internationally Globally, as well as showcase the most attractive current opportunities in the space.

https://www.swisslendingconference.com/",,"Eligibility Criteria: This event is by invitation-only. Industry professionals may request invitation.
Fees: Contact required for further information
Registration for the next year's event will be opened.",,https://www.swisslendingconference.com/,,,,https://www.linkedin.com/company/lendity/,https://twitter.com/lenditych
Trade Show & Conference,"Banking, Finance",Capital Fair,17 Sep 2019,09:00 AM - 06:00 PM,18-Sep-18,Sep-20,Germany,Berlin,Estrel Hotel Berlin,9000,170,https://www.hauptstadtmesse.de,+49 89 15 88 15-479,veranstaltungen@fondsfinanz.de,"One of the most important communication platforms of the financial services industry

This event showcases product from Banking, Insurance & Finance industry. This event showcases products like The free meeting point for trade visitors from the insurance and financial sector is one of the most important information and communication platform for brokers in Germany etc. in the Banking, Insurance & Finance industry.

https://www.hauptstadtmesse.de/","Allianz Life Insurance AG,AXA Group AG,BMW Munich office,Continentale Insurance Association,Fonds Finanz Maklerservice GmbH,Generali Insurance AG,Hannoversche Lebensversicherung AG,INTER Life insurance AG, Janitos Insurance AG,Markel Insurance SE,NV Insurance VVaG,ONE Insurance AG,Policen Direkt GmbH,R + V General Insurance AG,Swiss Life AG,uniVersa General Insurance AG,VHV General Insurance AG,Waldenburg Insurance AG,xbAV,Zurich Group Germany","Eligibility Criteria: Open to industry professionals and trade visitors
Fees: Free
Attendee Registration","Sponsorship Fees: No info
Exhibitor Fees: Exhibitor packages vary between 5.000 - 12.000 (2018 prices).
Exhibitor Registration",,,https://www.facebook.com/fondsfinanz,,,https://twitter.com/fonds_finanz_
Conference,"Banking, Finance",Land and Poverty Conference,25 Mar 2019-29 Mar 2019,09:00 AM - 07:00 PM,19-23 Mar 2018,Mar-20,USA,Washington DC,World Bank Headquarters,1500,,https://www.worldbank.org/en/events/2018/08/13/land-and-poverty-conference-2019-catalyzing-innovation#5,,landconference@worldbank.org,"Catalyzing Innovation

The Land and Poverty conference presents the latest research and innovations in policies and good practice on land governance around the world. This conference has become one of the largest international events on land governance, attracting over 1,500 participants from governments, academics, civil society, and the private sector.

https://www.worldbank.org/en/events/2018/08/13/land-and-poverty-conference-2019-catalyzing-innovation#5",,"Eligibility Criteria: Open to industry professionals
Contact required for registration details",,https://photos.google.com/share/AF1QipO1whJkR12b8mF9p39KYpmnd26VvLSIEf0RINWItkfwyvykcREFZy8ogupmsJs-lQ?key=XzNkR1RfZzhfRWt4MTQzR2pjcWt3YWxsazNnRXNB,,,,,
Conference,"Banking, Finance",World Pension Summit,22 Oct 2019-24 Oct 2019,08:00 AM - 09:30 PM,30 Oct-1 Nov 2018,Oct-Nov 2020,Netherlands,The Hague,Louwman Museum,300,,https://conferences.pionline.com/conference/WPS/2019/,+1 212 210 0247,dc-registration@pionline.com,"The Global Platform for and by Pension Professionals

Pensions & Investments WorldPensionSummit is THE global platform 'for and by' pension professionals. The 2019 on October 22-24 program in The Hague will focus on Shifting Powers + Sustainable Investment: Separating the signal from the noise. Both in plenary sessions and dedicated tracks of choice we discuss the long-term components of vital pension cross-roads.

https://conferences.pionline.com/conference/WPS/2019/",,"Eligibility Criteria: Open to industry professionals
Fees: 1.995
Attendee Registration","Sponsorship opportunities available
Contact required for further information
egorman@pionline.com",,,https://www.facebook.com/WorldPensionSummit/,,,https://twitter.com/pensionsnews
Trade Show & Conference,"Banking, Finance",Singapore FinTech Festival,11 Nov 2019-15 Nov 2019,09:30 AM - 05:00 PM ,12-16 Nov 2018,Nov-20,Singapore,,Singapore Expo,45000,500,https://www.fintechfestival.sg/,+65 8551 0689,karina.jamora@singex.com,"The Largest Event for the Global Fintech Community

The Singapore FinTech Festival is back for its fourth year. It continues to be the biggest FinTech event in the world providing a global platform for the FinTech community to connect, collaborate and co-create. Get inspired from visionaries and thought leadership executives from financial institutions, fintechs, venture capital firms, central banks and regulators and academia.

https://www.fintechfestival.sg/themes","Abu Dhabi Global Market,Aida Technologies,Japan External Trade Organisation,Hewlett Packard Enterprise,Copenhagen Fintech,Kuliza Technologies,Mastercard,Microsoft,Thought Machine,Galileo Platforms,DBS Bank Ltd.,Deloitte & Touche Business Advisory,Ernst & Young Solutions LLP,Bank of China Limited,BBVA,Finantix,Nec Corporation,Consensys,Weinvest,Aida Technologies","Eligibility Criteria: Open to industry professionals and trade visitors
Fees: [Startups] 3-Day Conference Pass [Early Bird Rate] (Till 16 Aug) - S$199
[ASEAN, INDIA, MAINLAND CHINA] 3-Day Conference Pass [Early Bird Rate] - S$399
[SINGAPORE] 3-Day Conference Pass [Early Bird Rate] - S$499
[Rest of World] 3-Day Conference Pass [Early Bird Rate] - S$699
Trade Visitor Pass - Free
Attendee Registration","Sponsorship Fees: Contact required for further information
Exhibitor Fees: Contact required for further information
Exhibitor Registration",https://www.flickr.com/photos/170072273@N04/,https://www.youtube.com/channel/UCQNI-8DwtJWMFIfSUEOcijA,https://www.facebook.com/sgfintechfest/,https://www.instagram.com/sgfintechfest/,https://www.linkedin.com/in/sgfintechfest/,https://twitter.com/sgfintechfest?lang=en
Conference,"Banking, Finance",Crittenden Real Estate Finance Conference,18 Sep 2019-20 Sep 2019,05:00 PM - 07:00 PM (18 Sep 2019)|09:00 AM - 06:15 PM (19 Sep 2019)|09:00 AM - 12:30 PM (20 Sep 2019),12-14 Sep 2018,Sep-20,USA,Miami,Mandarin Oriental Miami,604,,https://www.crittendenrealestatefinance.com/,+1 800 211 1697,info@crittendenconferences.com,"A Bridge of Information Between the Real Estate Industry and Professionals

?The Crittenden Real Estate Finance Conference is a two-and-a-half day event for Real Estate professionals. The conference is comprised of educational sessions and networking opportunities to aid in the growth of your business. Each educational session is facilitated by the industry's leading executives, with years of experience who are at the forefront of up-to-date information.

https://www.crittendenrealestatefinance.com/aboutus.html",,"Eligibility Criteria: Open to industry professionals
Fees: 1st Registrant - $695
2nd Registrant - $595
3rd Registrant - $495
For groups of 5 or more, additional discounts are available.
Attendee Registration","Sponsorship opportunities available
Contact required for further information
Sponsorship Registration",,,,,https://www.linkedin.com/company/crittenden-conferences/,https://twitter.com/crittendenconf
Trade Show & Conference,"Banking, Finance",China International Fair for Investment & Trade,8 Sep 2019-9 Sep 2019,09:00 AM - 06:00 PM,8-11 Sep 2018,Sep-20,China,Xiamen,Xiamen International Conference and Exhibition Center,120000,,http://www.chinafair.org.cn/english/index/index.aspx,+86 592 285 9828,cifit@chinafair.org.cn,"China's Only International Investment Promotion Event

The China International Fair for Investment and Trade (CIFIT), approved by the State Council of the People's Republic of China, takes place in September every year in Xiamen, China. Themed on ""Introducing FDI"" and ""Going Global"", CIFIT focuses on nationality and internationality, investment negotiation and investment policy promotion, coordinated development of national and regional economy, as well as economic and trade exchanges across the Taiwan Strait.

http://www.chinafair.org.cn/english/overview/about.aspx",,"Eligibility Criteria: Open to industry professionals
Fees: Free
Attendee Registration","Sponsorship Fees: No information
Exhibitor Fees: Standard booth (9 sq m) - $2.000
Raw space (36 sq m) - $7.200
Exhibitor Registration",,,https://www.facebook.com/CIFITinXiamen/,,,
Conference,"Banking, Finance",Zurich Banking Conference,22 Oct 2019,09:00 AM - 12:30 PM,02-Oct-18,Oct-20,Switzerland,Zurich,Widder Hotel,,,https://events.moodys.io/events/banking-zurich-2019,+44 207 772 1562,jasmine.endres@moodys.com,"Mounting Risks in the Age of Transformation

The conference brings together senior investors, issuers and analysts to discuss growth challenges in the continued low interest rated environment. Join us to get the latest credit insight on the most pressing issues facing global and regional banks today.

https://events.moodys.io/events/banking-zurich-2019",,"Eligibility Criteria: Open to industry professionals
Fees: Contact required for pricing information
Attendee Registration",,,,,,https://www.linkedin.com/company/moody's-investors-service/,https://twitter.com/moodysinvsvc
Conference,"Banking, Finance",Singapore Summit,6 Sep 2019,08:00 AM - 04:20 PM,,Sep-20,Singapore,,JW Marriott Hotel South Beach,,,https://events.moodys.io/events/singapore-summit,,Veronica.George@moodys.com,"Where next for Asia's corporate credit?

The inaugural Summit will give you a deeper insight into increasing Asia's credit differentiation between regions and corporate sectors. In one day you will get a complete picture of key growth and credit risk drivers from prominent investors, issuers and top Moody's analysts.

https://events.moodys.io/events/singapore-summit",,"Eligibility Criteria: Open to industry professionals
Fees: Contact required for pricing information
Attendee Registration",,,,,,https://www.linkedin.com/company/moody's-investors-service/,https://twitter.com/moodysinvsvc
Conference,"Banking, Finance",Paris Banking Conference,9 Oct 2019,09:00 AM - 12:15 PM,09-Oct-18,Oct-20,France,Paris,Park Hyatt Paris,450,,https://events.moodys.io/events/banking-paris-2019,+44 207 772 1562,jasmine.endres@moodys.com,"Latest Credit Insight on French Banking System and Insurance

The conference brings together senior investors, issuers and analysts to discuss growth challenges in the continued low interest rated environment.

https://events.moodys.io/events/banking-paris-2019",,"Eligibility Criteria: Open to industry professionals
Fees: Contact required for pricing information
Attendee Registration",,,,,,https://www.linkedin.com/company/moody's-investors-service/,https://twitter.com/moodysinvsvc
Conference,"Banking, Finance",Milan Banking Conference,11 Oct 2019,09:00 AM - 12:15 PM,05-Oct-18,Oct-20,Italy,Milan,The Westin Palace,,,https://events.moodys.io/events/banking-milan-2019,+44 207 772 1562,jasmine.endres@moodys.com,"Oppotunity to Get Perspectives on Credit Markets and Network with Banking Professionals

The conference will provide an opportunity for investors, analysts and credit professionals to get an insight into Moody's views on key trends and issues driving credit ratings.

https://events.moodys.io/events/banking-milan-2019",,"Eligibility Criteria: Open to industry professionals
Fees: Contact required for pricing information
Attendee Registration",,,,,,https://www.linkedin.com/company/moody's-investors-service/,https://twitter.com/moodysinvsvc
Conference,"Banking, Finance",London Banking Summit,3 Oct 2019,09:00 AM - 01:45 PM,,Oct-20,United Kingdom,London,Plaisterers Hall,200,,https://events.moodys.io/events/banking-london-2019,+44 207 772 1562,jasmine.endres@moodys.com,"Full picture of the Banking Sector in an Age of Change

Moodys London Banking Summit will look into how UK and European banks profitability challenges are being amplified by tech disruption and shifting customer expectations in a period of economic uncertainty.

https://events.moodys.io/events/banking-london-2019",,"Eligibility Criteria: Open to industry professionals
Fees: Contact required for pricing information
Attendee Registration",,,,,,https://www.linkedin.com/company/moody's-investors-service/,https://twitter.com/moodysinvsvc
Conference,"Banking, Finance",Blockchain Summit,20 Aug 2019,09:10 AM - 04:00 PM,28-Aug-18,Aug-20,Singapore,,Suntec Convention Centre,1000,12,https://www.blockchainsummitsingapore.com/,+44 117 284 0041,raluca@nexusmediacom.com,"Asia's Leading Blockchain for Business Event

Connecting industry leaders, business decision makers and tech innovators, Blockchain Summit Singapore is a 1 day conference and exhibition dedicated to the business of blockchain and distributed ledger technology (DLT). Based on unrivalled content, visionary speakers and exceptional networking opportunities, Blockchain Summit singapore is a must-attend event to understand the challenges and opportunities of our blockchain future.

https://www.blockchainsummitsingapore.com/","Hashcube,Commercia Network,Ktune,Double Lucky,Consensys,AlphaWallet,Xanpool,AID Tech,OK Blockchain Centre,Accubits,Longhash,Bezant","Eligibility Criteria: Open to industry professionals
Fees: Standard Pass pre-register - Free
Executive Pass - SGD $175, SGD $250 (after 6 Aug)
VIP Pass - SGD $300, SGD $375 (after 6 Aug)
IT Buyers Pass - Free
Attendee Registration","Sponsorship Fees: Contact required for further information
Exhibitor Fees: Contact required for further information
Exhibitor Registration",,https://www.youtube.com/channel/UCMzChbjHbP9rsZtcQrezMxQ?view_as=subscriber,https://www.facebook.com/Blockchain-Summit-351721528881486/,https://www.instagram.com/blockchainsummithq/,,https://twitter.com/BlockchainHQ
Conference,"Banking, Finance",Banking Transformation Summit,23 Oct 2019,09:00 AM - 05:00 PM,,Oct-20,United Kingdom,London,The Business Design Centre,,,https://bankingtransformationsummit.com,,mark@nexusmediacom.com,"Digital Transformation in Banking

The Banking Transformation Summit 2019 brings together key players from across the finance and banking industry. Showcasing the latest innovations, unlocking the potential of new technologies and offering unparalleled networking opportunities.

https://bankingtransformationsummit.com/attend/why-attend.html","SAP,IBM,Cisco,Pwc,Accenture,Oracle Cloud,EY,KPMG,Deloitte,Consensys,Intel,Gemalto","Eligibility Criteria: Open to industry professionals
Fees: Standard Pass pre-register - Free
Executive Pass - 396 + VAT, 495 + VAT (after 4 Sep)
Attendee Registration","Sponsorship Fees: Contact required for further information
Exhibitor Fees: Contact required for further information
Exhibitor Registration",,https://www.youtube.com/channel/UCH6PHnNyzsJ7xg6q-ffe2Vg,https://www.facebook.com/Connected-World-Summit-388518431875180/,,https://www.linkedin.com/showcase/connected-world-summit/,
Conference,"Banking, Finance",Annual Forum on Anti-Money Laundering and Financial Crime,6 May 2020-7 May 2020,TBD,7-8 May 2019,May-21,Canada,Toronto,One King West,172 companies,,https://www.canadianinstitute.com/19th-annual-forum-anti-money-laundering-financial-crime/,+1 877 927 0718 ext. 7505,speakeropportunity@canadianinstitute.com,"Is Your Organization Prepared for Increased Oversight and a New Enforcement Regime?

It can be challenging to ensure that your organization has a dynamic anti-money laundering and financial crime compliance program that can capably implement new protocols to meet regulatory changes. From ensuring that your client monitoring system is up-to-date, to comprehensive internal assessments to prepare for outside audit, to keeping your finger on the pulse of contemporary and growing AML/ATF risks, it is critical for financial institutions to remain cognizant of new industry developments.

https://www.canadianinstitute.com/19th-annual-forum-anti-money-laundering-financial-crime/",,"Eligibility Criteria: Open to industry professionals
Fees: Conference only
Register & Pay by October 4, 2019 - $1.895
Register & Pay by May 5, 2020 - $2.295
Conference only | Solution providers/vendors
Register & Pay by October 4, 2019 - $2.095
Register & Pay by May 5, 2020 - $2.495
Attendee Registration","Sponsorship opportunities available
Contact required for further information
Sponsorship Registration",,,,,https://www.linkedin.com/groups/8423498/,https://twitter.com/CI_Financial
Conference,"Banking, Finance",GTR West Africa,4 Feb 2020-5 Feb 2020,TBD,25-26 Apr 2019,TBD,Nigeria,Lagos,Eko Hotel & Suites,350,,https://www.gtreview.com/events/africa/gtr-west-africa-2020/#tab_overview,,avilka@gtreview.com,"West Africa's Leading Trade Finance Gathering

For regional corporates and trade financiers looking to make their next move, GTR West Africa provides the ideal platform to expand professional networks and hear cutting-edge perspectives from a wide range of trade and export finance experts.

https://www.gtreview.com/events/africa/gtr-west-africa-2020/#tab_overview",,"Eligibility Criteria: Open to industry professionals
Fees: Standard rate - $1.799
Corporate rate - $499
Attendee Registration",,,https://www.youtube.com/user/ExportaGroupEvents?feature=mhee,https://www.facebook.com/GlobalTradeReview,,https://www.linkedin.com/company/exporta/?trk=hb_tab_compy_id_296909,https://twitter.com/gtreview
Trade Show & Conference,"Banking, Finance",Accounting & Finance Show NY,14 Jul 2020-15 Jul 2020,TBD,10-11 Jul 2019,Jul-21,USA,New York,Javits Center - River Pavilion,3000,100,https://www.terrapinn.com/exhibition/accounting-finance-show-new-york/index.stm,+1 646 619 1776,aidan.brain@terrapinn.com,"Technology-Ideas-Skills for Accountants, Bookkeepers & Finance Managers

The Accounting & Finance Show, now in its third year, brings together the technology, the people and the experts that will keep you ahead of the exciting changes sweeping your profession.

https://www.terrapinn.com/exhibition/accounting-finance-show-new-york/our-story.stm","Accounting Suite,Botkeeper,Calligo,Cetera,Credit Management Group LLC,Drake Software,Emburse,GTM Payroll Services,Hansaworld,Hubdoc,ICount4You,LaSalle Solution,MSM Designz,Payroll Dynamics,Sage,ScanSnap,Smart Vault,Wiley,Taxdome,XeroExhibitor Registration","
Eligibility Criteria: Open to industry professionals
Fees: Free
Attendee Registration","Sponsorship Fees: Vary from $10.000 to $50.000
Sponsorship packages include exhibiton.
Exhibitor Fees: 50 sq ft Booth - $3.500
100 sq ft Booth - $5.500
200 sq ft Booth - $10.000
Exhibitor Registration",,,https://www.facebook.com/AccountingShow/?__tn__=%2Cd%2CP-R&eid=ARCDh0YptYDgDqI9ydp4J8KWYxMjeosg2bkfN462w4cY2vE2XcD9tWOrxt9f2vhySR5QZ52DuB51Qyit,,https://www.linkedin.com/showcase/accounting-&-finance-show/,https://twitter.com/AccountingShow
Conference,"Banking, Finance",MoneyLIVE Digital Banking,30 Jun 2020-1 Jul 2020,09:00 AM - 05:00 PM,25-26 Jun 2019,Jun-Jul 2021,United Kingdom,London,etc. Venues St. Pauls,350,,https://marketforcelive.com/money-live/events/digital-banking/,+44 20 7760 8685,enquiries@marketforce.eu.com,"Pushing the Boundaries of Digital Banking Innovation

Be part of the 350+ trendsetters establishing how AI, quantum computing, open-APIs, voice tech and chatbots are sending tremors throughout their businesses and altering customer expectations in banking forever.

https://marketforcelive.com/money-live/events/digital-banking/",,"Eligibility Criteria: Open to industry professionals
Fees: Financial Services - 1.095
Standard - 1.545
Attendee Registration","Sponsorship opportunity available
Contact required for further information
Sponsorship Registration",,https://www.youtube.com/playlist?list=PLLQHA_BfBGVPORab6Ivlii-WsknKOD3F0,https://www.facebook.com/MoneyLIVE.1,,https://www.linkedin.com/showcase/moneylive/,https://twitter.com/Money_Live_
Conference,"Banking, Finance",MoneyLIVE Lending,2 Oct 2019,08:15 AM - 06:00 PM,03-Oct-18,Oct-20,United Kingdom,London,113 Chancery Lane - The Law Society,,,https://marketforcelive.com/money-live/events/lending/,+44 20 7760 8685,enquiries@marketforce.eu.com,"Defining a New Future in Lending

At MoneyLIVE: Lending, superstars in the secured, unsecured and alternative lending market will take to the stage. Make sure you dont miss their insights on the most important subjects in lending today, from designing new mortgage products to harnessing the potential of data to revolutionise credit profiling, and more.

https://marketforcelive.com/money-live/events/lending/",,"Eligibility Criteria: Open to industry professionals
Fees: Financial Services - 1.045
Standard - 1.295
Attendee Registration","Sponsorship opportunity available
Contact required for further information
Sponsorship Registration",,https://www.youtube.com/playlist?list=PLLQHA_BfBGVPORab6Ivlii-WsknKOD3F0,https://www.facebook.com/MoneyLIVE.1,,https://www.linkedin.com/showcase/moneylive/,https://twitter.com/Money_Live_
Conference,"Banking, Finance",MoneyLIVE Nordic Banking 2019,21 Oct 2019-23 Oct 2019,09:00 AM - 06:00 PM,6-8 Nov 2018,Oct-Nov 2020,Denmark,Copenhagen,Radisson Blu Scandinavia,300,,https://marketforcelive.com/money-live/events/nordic-banking/,+44 20 7760 8685,enquiries@marketforce.eu.com,"The Nordic Region's Leading Banking Innovation Conference

MoneyLIVE: Nordic Banking brings together retail banks, challengers and FinTechs from across the Nordic region to spur innovation in banking.

https://marketforcelive.com/money-live/events/nordic-banking/",,"Eligibility Criteria: Open to industry professionals
Fees: Financial Services - 1.195 + VAT (Early bird until 6 Sep), 1.595 + VAT (Full price)
Standard - 1.595 + VAT (Early bird until 6 Sep), 1.995 + VAT (Full price)
Attendee Registration","Sponsorship opportunity available
Contact required for further information
Sponsorship Registration",,https://www.youtube.com/playlist?list=PLLQHA_BfBGVPORab6Ivlii-WsknKOD3F0,https://www.facebook.com/MoneyLIVE.1,,https://www.linkedin.com/showcase/moneylive/,https://twitter.com/Money_Live_
Conference,"Banking, Finance",MoneyLIVE Summit,25 Nov 2019-26 Nov 2019,09:00 AM - 05:00 PM,26-27 Nov 2018,Nov-20,United Kingdom,London,QEII Centre,500,,https://marketforcelive.com/money-live/events/summit/,+44 20 7760 8685,enquiries@marketforce.eu.com,"Setting the Pace in Banking and Payments Innovation Worldwide

MoneyLIVE Summit is the event for the most senior and innovative leaders across banking, payments and FinTech to network, share ideas and supercharge the digital banking revolution.

https://marketforcelive.com/money-live/events/summit/",,"Eligibility Criteria: Open to industry professionals
Fees: Financial Services - 1.395 + VAT (Early bird until 20 Sep), 1.595 + VAT (Full price)
Standard - 1.895 + VAT (Early bird until 20 Sep), 2.145 + VAT (Full price)
Start-Up - 395
Group discounts available
Attendee Registration","Sponsorship opportunity available
Contact required for further information
Sponsorship Registration",,https://www.youtube.com/playlist?list=PLLQHA_BfBGVPORab6Ivlii-WsknKOD3F0,https://www.facebook.com/MoneyLIVE.1,,https://www.linkedin.com/showcase/moneylive/,https://twitter.com/Money_Live_
Trade Show & Conference,"Banking, Finance",The MoneyShow Las Vegas,11 May 2020-13 May 2020,TBD,13-15 May 2019,May-20,USA,Las Vegas,Ballys Las Vegas Hotel & Casino,,,https://conferences.moneyshow.com/moneyshow-las-vegas/?scode=035323,+1 800 970 4355,Support@moneyshow.com,"Connect Face-to-Face with Thousands of Affluent Investors & Traders

The top financial services companies in the world advertise, sponsor, and exhibit at The MoneyShow conferences year-after-year. The MoneyShow delivers outstanding value in the of thousands of highly qualified, affluent, and topically targeted leads, plus unique networking opportunities with savvy investors, traders, financial advisors, experts and leading media in major global financial markets.

https://conferences.moneyshow.com/moneyshow-las-vegas/?scode=035323",,"Eligibility Criteria: Open to industry professionals
Fees: Contact required for further information
Attendee Registration","Sponsorship Fees: Contact required for further information
Exhibitor Fees: Contact required for further information
Exhibitor Registration",,https://conferences.moneyshow.com/moneyshow-las-vegas/live-stream/webcast-schedule/,https://www.facebook.com/FollowMoneyShow/,,https://www.linkedin.com/company/moneyshow/,https://twitter.com/moneyshows
Conference,"Banking, Finance",World Bank Group Youth Summit,3 Dec 2018-4 Dec 2018,08:00 AM - 06:45 PM (3 Dec 2018)|08:00 AM - 06:30 PM (4 Dec 2018),4-5 Dec 2017,Dec-19,USA,Washington DC,World Bank Headquarters,400,,https://www.worldbank.org/en/events/2018/07/25/world-bank-youth-summit-2018-unleashing-the-power-of-human-capital#1,,youthsummit@worldbank.org,"Unleashing the Power of Human Capital

Established in 2013, the Youth Summit is an annual event held by the World Bank Group (WBG) to engage with youth globally on the most pressing topics facing their generation. The primary goals of the Summit are to (1) empower youth to explore innovative ideas for tackling development challenges, (2) provide youth with the tools to build and engage in impactful projects, and (3) promote dialogue between youth, the WBG, and other key stakeholders globally.

https://www.worldbank.org/en/events/2018/07/25/world-bank-youth-summit-2018-unleashing-the-power-of-human-capital#1",,"Eligibility Criteria: Open to world youth
Fees: Contact required for further information",,,https://live.worldbank.org/youth-summit-2018,https://www.facebook.com/groups/879956098846105/,,,
Conference,"Banking, Finance",Fundamentals of Finance and Accounting for Non-Financial Managers,5 Sep 2019-6 Sep 2019,09:00 AM - 06:00 PM,8-9 Jul 2019,TBD,USA,New York,AMA Conference Center,,,https://www.amanet.org/fundamentals-of-finance-and-accounting-for-non-financial-managers/,+1 877 566 9441,customerservice@amanet.org,"Fundamental Financial Skills for Managers

Learn how to think finance, and youll expand your career opportunities. From accruals to write-offs to receivables and payables, this workshop shows non-financial managers the concepts, tools, and techniques that can help make each decision pay offon the job and on the bottom line.

https://www.amanet.org/fundamentals-of-finance-and-accounting-for-non-financial-managers/",,"Eligibility Criteria: Open to industry professionals
Fees: Non members - $2.445
AMA members - $2.195
GSA pricing - $2.079
Attendee Registration",,,https://www.youtube.com/user/AmericanManagement/,https://www.facebook.com/AmericanManagementAssn/,,https://www.linkedin.com/company/american-management-association/,https://twitter.com/amanet
Conference,"Banking, Finance",Africa Assembly,22 Jun 2020-23 Jun 2020,09:00 AM - 06:00 PM,24-25 Jun 2019,Jun-21,France,Paris,The Westin,400,,https://oilandgascouncil.com/event-events/africa-assembly-and-dinner/,+44 20 7384 8006,christina.finnerty@oilcouncil.com,"The Most Influential African Oil & Gas Fincance & Investment Platform

The Oil & Gas Councils Africa Assembly is recognised as the regions most influential corporate development, strategy, finance and investment gathering. We bring together the African energy industry community with the financiers and investors backing innovative projects across the continent.

https://oilandgascouncil.com/event-events/africa-assembly-and-dinner/",,"Eligibility Criteria: Open to industry professionals
Fees: Oil & Gas Companies
Super early bird (until 20th March 2020) - 1.995
Early bird (until 8th March 2020) - 2.495
Full price - 2.695
Non Oil & Gas Companies
Super early bird - 2.295
Early bird - 2.795
Full price - 2.995
Attendee Registration",,https://oilandgascouncil.com/event-events/africa-assembly-and-dinner/,https://www.youtube.com/channel/UCvQktBfpZQ7h-pE5gNo9lLA/featured,,,,https://twitter.com/TheOilCouncil
Conference,"Banking, Finance",Moody's Analytics Summit,3 Nov 2019-5 Nov 2019,11:00 AM - 06:00 PM (3 Nov 2019)|08:30 AM - 04:30 PM (4 Nov 2019)|08:30 AM - 05:00 PM (5 Nov 2019),4-7 Nov 2018,Nov-20,USA,Scottsdale,The Phoenician,,,https://masummit19.moodys.io/,+1 212 553 3646,patricia.froehlich@moodys.com,"Making Better Decisions Faster

Bringing together communities of interest in credit & capital management, compliance & regulation, quantitative analytics and commercial real estate to share insights and best practices. Connect, learn and collaborate with leaders, experts, and your peers.

https://masummit19.moodys.io/highlights",,"Eligibility Criteria: Open to industry professionals
Fees: Client - $1.700
Non-client - $3.300
Government official - $850
Attendee Registration",,https://masummit19.moodys.io/,https://masummit19.moodys.io/,,,https://www.linkedin.com/company/moodysanalytics/,https://twitter.com/MoodysAnalytics
Conference,"Banking, Finance",Moody's Analytics Commercial & Ag Lending Conference,16 Sep 2019-18 Sep 2019,01:00 PM - 06:30 PM (16 Sep 2019)|08:00 AM - 06:30 PM (17 Sep 2019)|08:30 AM - 04:30 PM (18 Sep 2019),24-26 Sep 2018,Sep-20,USA,Omaha,CHI Health Center,300,,https://calc19.moodys.io,+1 402 348 1381,kim.saitta@moodys.com,"Strengthening Our Lending Community Together

Learn from Moody's Analytics solutions experts on key technology advancements. Gain insight into new features and tools for greater efficiencies in your credit process. Participate in hands-on training conducted by Moody's Analytics solutions experts. Deepen your knowledge and expand best practices for increased efficiency.

https://calc19.moodys.io/",,"Eligibility Criteria: Open to industry professionals
Fees: Conference - $449
Training Half Day - $249
Training Full Day - $498
Attendee Registration",,https://calc19.moodys.io/,https://calc19.moodys.io/,,,https://www.linkedin.com/company/moodysanalytics/,https://twitter.com/MoodysAnalytics
Trade Show & Conference,"Banking, Finance",ABA Bank Marketing Conference,22 Sep 2019-24 Sep 2019,"08:00 AM - 06:30 PM (22 Sep 2019)|
08:30 AM - 06:30 PM (23 Sep 2019)|08:30 AM - 12:30 PM (24 Sep 2019)",23-25 Sep 2018,Sep-20,USA,Austin,JW Marriott Austin,300,60,https://www.aba.com/Training/Conferences/Pages/MKTG.aspx,+1 800 226 5377,jcapotos@aba.com,"Bring The Art of Marketing to Life

This is the flagship conference for bank marketing and retail professionals. The conference attracts over 300+ chief marketing officers, marketing directors, sales managers, retail banking and personal financial services executives, as well as CEOs from institutions of all sizes, both nationally and internationally. A comprehensive exhibit hall is an important part of the event.

https://www.aba.com/Training/Conferences/Pages/MKTG_showguide.aspx","Kane Graphical ,Level Access ,Environics Analytics ,ServisFirst Bank ,Convergint Technologies ,Unleased Technologies ,Haberfeld Associates ,StrategyCorps,DNSimple,InLighten,Direggio,Banc Intranets, LLC,American Bankers Association,Allpoint Network,Marquis,PWCampbell,Q2,Saylent Technologies,Pannos Marketing,Banzai","Eligibility Criteria: Open to industry professionals
Fees: ABA Member/Service Member/Marketing Network Member/CFMP - $1.590
?ABA Member Team Discount - $1.390
Hometown Host - exclusively for banks chartered in Texas - $795
Non-Member Bankers - $1.990
?Non-Member Service Providers - $2.490
Spouse/Guest - $195
Attendee Registration","Sponsorship Fees: Contact required for further information
Exhibitor Fees: ABA Service Members - $3.965
Non-Members - $4.995
Exhibitor Registration",https://www.aba.com/Training/Conferences/Pages/mktg-experience.aspx,,https://www.facebook.com/AmericanBankersAssociation,https://www.instagram.com/americanbankersassociation/,https://www.linkedin.com/company/american-bankers-association/,https://twitter.com/ABABankers
Conference,"Banking, Finance",Jack Henry Annual Conference and TechConnect,7 Oct 2019-10 Oct 2019,08:00 AM - 06:00 PM,16-18 Oct 2018,Oct-20,USA,San Diego,San Diego Convention Center,,,https://www.jackhenrybanking.com/learn-more/pages/annual-conference.aspx,,askus@jackhenry.com,"One Don't-Miss Occasion for Banking Technology

At the JAC, youll experience dynamic and interactive educational sessions, training classes, roundtable discussions, and product demonstrations. Many classes offer continuing professional education credits. Youll also have the opportunity to attend TechConnect where you can experience firsthand the solutions provided by Jack Henry Banking, ProfitStars, our strategic partners, and select solutions providers.

https://discover.jackhenry.com/jac",,"Eligibility Criteria: Open to industry professionals
Fees: Contact required for pricing details
Attendee Registration","Sponsorship Fees: Sponsorship packages available
Contact required for further information
Exhibitor Fees: Contact required for further information
Exhibitor Registration",https://discover.jackhenry.com/jac,https://discover.jackhenry.com/jac,https://www.facebook.com/jackhenrybanking/,,https://www.linkedin.com/company/jack-henry-banking/,https://twitter.com/JHABanking
Trade Show & Conference,"Banking, Finance",Mortgage Bankers Association Annual Convention & Expo,27 Oct 2019-30 Oct 2019,07:30 AM - 06:00 PM,14-17 Oct 2018,Oct-20,USA,Austin,Austin Convention Center,4000,500,https://www.mba.org/conferences-and-education/event-mini-sites/annual-convention-and-expo,+1 202 557 2700,meetings@mba.org,"The Nation's Largest Gathering of Real Estate Finance Professionals

Whether you are new to the industry or a seasoned professional, everyone who's anyone in real estate finance should be there. Attendees include professionals working in the single-family sector of the real estate finance industry.

https://www.mba.org/conferences-and-education/event-mini-sites/annual-convention-and-expo/who-should-attend","Advantage Systems, Inc.,Bankers Insurance Service,CBC Mortgage Agency,Chetu Inc.,CoreLogic,Deluxe,eOriginal, Inc.,Infinity IPS Inc.,LendingQB,Loan Vision,MetLife, Inc.,Mortgage Bankers Association,Nationwide Appraisal Network,Nexsys Technologies,Optimal Blue, LLC,QuestSoft,REI Loans,Sagent Lending Technologies,Taylor Communications,Universal Credit Services","Eligibility Criteria: Open to industry professionals
Fees: Member
Before 8/2/2019 - $1.195
Standard - $1.395
After 10/18/2019 - $1.445
Non-Member
Before 8/2/2019 - $2.995
Standard - $3.495
After 10/18/2019 - $3.750
Attendee Registration","Sponsorship Fees: Vary between $25.000 - $225.000
Exhibitor Fees: Choice 10' x 10'?/ 10' x 20'
MBA Member - $5.900 / $11.800
Non-Member - $11.800 / $23.600
Premium 10' x 10' / 10' x 20'
MBA Member: $6.900 / $13.800
Non-Member: $13.800 / $27.600
Premium Island prices vary from $40.500 to 74.500 for MBA members, from $81.000 to $149.000 for non-members.
Exhibitor Registration",,,https://www.facebook.com/mbamortgage,https://www.instagram.com/mortgage_bankers_association/,https://www.linkedin.com/company/mortgage-bankers-association/,https://twitter.com/mbamortgage
Trade Show & Conference,"Banking, Finance",ABA Annual Convention,27 Oct 2019-29 Oct 2019,08:00 AM - 07:30 PM (27 Oct 2019)|07:00 AM - 06:30 PM (28 Oct 2019)|07:00 AM - 03:30 PM (29 Oct 2019),21-23 Oct 2018,Oct-20,USA,Seattle,Washington State Convention Center,,115,https://www.aba.com/Training/Conferences/Pages/annual.aspx,+1 800 226 5377,ldwyer@aba.com,"The Industry's Premier Event

The Annual Convention gathers bankers from institutions of all sizes to explore trends and emerging issues in financial servicesand how we can respond to ensure a strong future for our industry.

https://www.aba.com/Training/Conferences/Pages/annual.aspx","Visa,Man & Machine, Inc.,LendingFront,CyberScout,BMO Financial Group,Basys Processing,Axis Communications,Elan Financial,First American Proesssional Real Estate,GRC Solutions,Hanwha Techwin America,P2Binvestor,Neustar, Inc.,PayNet Incorporated,Q2,Servion Group,Haberfeld Associates,Laurel Road,Marquis,Deposit Slips LLC","Eligibility Criteria: Open to industry professionals
Fees: ABA Bank Member - $1.395
ABA Member Team Discount - $1.095
Non-member - $2.495
Spouse/Guest - $495
Attendee Registration","Sponsorship Fees: Contact required for further information
Exhibitor Fees: ABA Service Members - $4.295
Non-members - $6.200
Exhibitor Registration",,https://www.youtube.com/user/AmericanBankersAssn,https://www.facebook.com/AmericanBankersAssociation,https://www.instagram.com/americanbankersassociation/,https://www.linkedin.com/company/american-bankers-association/,https://twitter.com/ABABankers
Trade Show & Conference,"Banking, Finance",ABA Financial Crimes Enforcement Conference,8 Dec 2019-10 Dec 2019,TBD,2-4 Dec 2018,Dec-20,USA,Washington DC,Washington Marriott Wardman Park,1050,,https://www.aba.com/Training/Conferences/Pages/FCE.aspx,+1 800 226 5377,dfriedla@aba.com,"Comprehensive. In-Depth. Exclusively Bank-Focused.

The ABA/ABA Financial Crimes Enforcement Conference will bring together the nation's top anti-money laundering financial services, legal, and law enforcement experts along with senior regulatory officials. This is ""the"" reliable forum where you will find expert guidance designed and delivered by the leading authorities on anti-money laundering strategies and solutions.

https://www.aba.com/Training/Conferences/Pages/FCE-showguide.aspx","American Bankers Association,Mazars USA?,MJ Boyd Consulting?,BAE Systems?,Banker's Toolbox, Inc.,Summit Technology,NTT Data Services,ARC Risk and Compliance,ACA Compliance Group,Quantexa,Refinitiv,KPMG LLP?,Guardian Analytics,Safe Banking Systems LLC,The Mercadien Group,FTI Consulting?,Thomson Reuters,Booz Allen Hamilton,Compliance Anchor?,Ayasdi","Eligibility Criteria: Open to industry professionals
Fees: ?ABA Member/ Government - $1.390 (by 10/11), $1.740 (after 10/11)
American Bankers Association Certifications - $1.390
American Bar Association Member - $1.390 (by 10/11), $1.740 (after 10/11)
Non-member - $2.040
Guest - $195
Attendee Registration","Sponsorship Fees: Contact required for further information
Exhibitor Fees: ABA Service Members - $4.395
Non-Members - $5.595
Exhibitor Registration",,https://www.youtube.com/user/AmericanBankersAssn,https://www.facebook.com/AmericanBankersAssociation,https://www.instagram.com/americanbankersassociation/,https://www.linkedin.com/company/american-bankers-association/,https://twitter.com/ABABankers
Trade Show & Conference,"Banking, Finance",ABA Conference for Community Bankers,9 Feb 2020-12 Feb 2020,07:00 AM - 07:30 PM (9 Feb 2020)|07:00 AM - 06:30 PM (10 Feb 2020)|08:00 AM - 06:00 PM (11 Feb 2020)|07:00 AM - 11:45 AM (12 Feb 2020),10-13 Feb 2019,Feb-21,USA,Orlando,Omni Orlando Resort at ChampionsGate,,100,https://www.aba.com/Training/Conferences/Pages/community.aspx,+1 800 226 5377,SRadziew@aba.com,"The Premier Event for Community Bank CEOs

The Conference for Community Bankers (formerly known as NCCB) is the premier event developed forand bycommunity bank CEOs.

https://www.aba.com/Training/Conferences/Pages/community.aspx","3SI Security Systems,Visa, Inc.,Fiserv, Inc.,Crescent Mortgage,Q2 Software, Inc.,Axis Communications,Money Concepts International, Inc.,Allied Solutions,Chatham Financial Corp.,CMPG Risk Solutions?,Econ O Check Corporation,DebtX,Reich & Tang,Hanwha Techwin America,inLighten?,FTNI,First Data CFI,VITEX, Inc.,Summit Technologies,S&P Global Market Intelligence","Eligibility Criteria: Open to industry professionals
Fees: ABA Member/Service Member - $1.295 (by Sep 27), $1.595 (after Sep 27)
ABA Member Team Discount - $995
ABA Member Outside Bank Director - $995
Non-member - $2.695
Spouse/Guest - $195
Attendee Registration",Exhibitor and sponsorship registrations will be opened.,,https://www.youtube.com/user/AmericanBankersAssn,https://www.facebook.com/AmericanBankersAssociation,https://www.instagram.com/americanbankersassociation/,https://www.linkedin.com/company/american-bankers-association/,https://twitter.com/ABABankers
Conference,"Banking, Finance",Finovate Asia,14 Oct 2019-15 Oct 2019,08:50 AM - 05:35 PM (14 Oct 2019)|09:00 AM - 06:25 PM (15 Oct 2019)|08:30 AM - 04:00 PM (16 Oct 2019),29-30 Oct 2018,Oct-20,Singapore,,Marina Mandarin,450,,https://finance.knect365.com/finovateasia/,+1 888 670 8200,register@knect365.com,"Cutting-edge Solutions & Key Insights from & for the World's Largest Fintech Market

FinovateAsia is returning to Singapore, one of the world's leading fintech hubs. The city has all of the key elements needed to drive fintech innovation, including strong governmental support, an atmosphere of collaboration - both between incumbents/startups and tech/finance - and a deep pool of talented individuals from all over the world.

https://finance.knect365.com/finovateasia/",,"Eligibility Criteria: Open to industry professionals
Fees: Main 2 day event - $1.695
Summit Day - $1.195
Attendee Registration","Sponsorship packages vary from 10.500 to 24.500
Sponsorship Registration",,https://www.youtube.com/channel/UCIi4K3Gk3hULdetAoPDd-WQ,https://www.facebook.com/Finovate/,https://instagram.com/finovateseries,https://www.linkedin.com/company/finovate-conference-series/,https://twitter.com/finovate
Trade Show & Conference,"Banking, Finance",ABA Wealth Management and Trust Conference,23 Feb 2020-25 Feb 2020,09:00 AM - 06:00 PM,10-12 Feb 2019,Feb-21,USA,Orlando,Omni Orlando Resort at ChampionsGate,500,60,https://www.aba.com/Training/Conferences/Pages/WMT.aspx,+1 202 663 7584,ngautam@aba.com,"The National Event that Address the Latest Issues Facing the Trust Industry

Hear and interact with the industry thought leaders, as well as create new paths to success. Learn how to build relationships, make full use of the latest technologies, and become a forward-focused advisor for your clients. The ABA Wealth Management and Trust Conference will show you how to create those connections, and take them into the future.

https://www.aba.com/Training/Conferences/Pages/WMT.aspx","American Bankers Association,BNY Mellon Investment Management,Morgan Stanley Investment Management,Osterweis Capital Management,Northern Trust Corporation,Northern Trust Asset Management,Raymond James Financial Institutions Division,Invesco,FCI Advisors,DWS Investments,Crossing Bridge Advisors,Reich & Tang,Accutech Systems Corporation,Salient Partners,Total Bank Solutions,InvestEdge,Franklin Templeton Investments,FinTech Securities,CUSIP Global Services,Litman Gregory Asset Management","Eligibility Criteria: Open to industry professionals
Fees: ABA Professional Certification Holder - $1.290
ABA Member / Service Member / Government - $1.390 (by 12/20), $1.590 (after 12/20)
Non-Member - $2.090
Guest - $195
Attendee Registration","Sponsorship Fees: Contact required for further information
Exhibitor Fees: ABA Service Members - $3.695
Non-Members - $5.195
Exhibitor Registration",,,https://www.facebook.com/AmericanBankersAssociation,https://www.instagram.com/americanbankersassociation/,https://www.linkedin.com/company/american-bankers-association,https://twitter.com/ABABankers
Conference,"Banking, Finance",Finovate Europe,11 Feb 2020-13 Feb 2020,09:00 AM - 06:30 PM,12-14 Feb 2019,Feb-21,Germany,Berlin,InterContinental Berlin,1200,,https://finance.knect365.com/finovateeurope/,+44 20 7017 7200,info.events@knect365.com,"Innovative Fintech, Real World Applications

See the best of the Europes fintech through unique, short-form demos. Expert speakers on banking, regtech, payments, customer experience, investech, open banking and AI.

https://finance.knect365.com/finovateeurope/",,"Eligibility Criteria: Open to industry professionals
Fees: Main 3 day event - 1.095 + 19% VAT (by 27 September),  2.195 + 19% VAT (after 27 September)
Summit Day - 795 + 19% VAT (by 27 September), 995 (after 27 September)
Attendee Registration","Sponsorship packages vary between 15.500 - 77.350
Sponsorship Registration",,https://www.youtube.com/playlist?list=PLdscmqhRMVY22TCdK3vabWSEkTHSychvn,https://www.facebook.com/Finovate/,https://instagram.com/finovateseries,https://www.linkedin.com/company/finovate-conference-series/,https://twitter.com/finovate
Conference,"Banking, Finance",Finovate Fall,23 Sep 2019-25 Sep 2019,08:00 AM - 06:50 PM (23 Sep 2019-24 Sep 2019)|08:00 AM - 05:10 PM (25 Sep 2019),24-26 Sep 2018,Sep-20,USA,New York,New York Marriott Marquis,1500,,https://finance.knect365.com/finovatefall/,+1 888 670 8200,register@knect365.com,"Cutting-Edge Fintech in the World's Financial Capital

Finovate has the insight and ideas you need to stay ahead of your competition. FinovateFall - the flagship New York showcase - debuted in 2007. And it remains the best place to stay informed and find your next big advantage.

https://finance.knect365.com/finovatefall/","Glance,Faraday,Dessa,Coconut Software,Billshark,TransPerfect,WealthEngine,Vymo,SparkPost,Persistent Systems,NuoDB,Momentum Design Lab,Introhive,Glue42,Glia,Exago,ebankIT,Intellaegis DBA masterQueue,PLAID,Eigen Technologies","Eligibility Criteria: Open to industry professionals
Fees: Main 3 day event - $2.195 (by 16 August), $2.595 (after 16 August)
Summit Day - $1.195 (by 16 August), $1.395 (after 16 August)
Atendee Registration","Sponsorship packages vary between 15.500 - 77.350
Sponsorship Registration",,https://www.youtube.com/playlist?list=PLdscmqhRMVY3QkWcH6yh12C3p1URnB5KF,https://www.facebook.com/Finovate/,https://instagram.com/finovateseries,https://www.linkedin.com/company/finovate-conference-series/,https://twitter.com/finovate
Conference,"Banking, Finance",Finovate Middle East,19 Nov 2019-21 Nov 2019,08:00 AM - 03:00 PM (19 Nov 2020)|08:00 AM - 05:05 PM (20 Nov 2020)|08:30 AM - 05:35 PM (21 Nov 2020),26-27 Feb 2018,TBD,UAE,Dubai,The Ritz-Carlton DIFC,400,,https://finance.knect365.com/finovate-middle-east/,+44 20 7017 7200,middleeast@finovate.com,"Regional Fintech Focus, Global Fintech Solutions

Alongside Strategic Partner, United Arab Emirates Ministry of Finance, Finovate brings together the Middle East's fintech community to showcase cutting-edge banking, financial and payments technology on a global scale. See the latest fintech innovations demoed live on stage and hear insights from global financial services experts.

https://finance.knect365.com/finovate-middle-east/",,"Eligibility Criteria: Open to industry professionals
Fees: Main 2 day event - $1.095 + 5% VAT (by 5 September), $1.395 + 5% VAT (after 5 September)
Summit Day - $795 + 5% VAT (by 5 September), $995 + 5% VAT (after 5 September
Attendee Registration","Sponsorship packages vary between $13.650 - $31.850
Sponsorship Registration",,https://www.youtube.com/playlist?list=PLdscmqhRMVY0ZGdfEXU_EePL-wiuC1Iv4,https://www.facebook.com/Finovate/,https://instagram.com/finovateseries,https://www.linkedin.com/company/finovate-conference-series/,https://twitter.com/finovate
Conference,"Banking, Finance",Real-world Solutions and Insights from Fintech's Cutting Edge,27 May 2020-29 May 2020,08:00 AM - 06:00 PM,8-10 May 2019,May-21,USA,San Francisco,Hilton San Francisco Union Square,1100,,https://finance.knect365.com/finovatespring/,+1 888 670 8200,register@knect365.com,"Real-World Solutions and Insights from Fintech's Cutting Edge

See the best of the Bay Areas fintech through unique, short-form demos. Expert speakers on banking, payments, lending, community banking, AI and customer experience.

https://finance.knect365.com/finovatespring/","Billshark,Faraday,glia,Momentum Design Lab,SparkPost,TruilooYseop","Eligibility Criteria: Open to industry professionals
Fees: Main 3 day event - $1.495 (by 6 December), $2.495 (after 6 December)
Summit Day - $995 (by 6 December), $1.395 (after 6 December)
Attendee Registration","Sponsorship packages vary between $21.000 - $49.250
Sponsorship Registration",,https://www.youtube.com/playlist?list=PLdscmqhRMVY1yones4ooS4uVOCnUgBIot,https://www.facebook.com/Finovate/,https://instagram.com/finovateseries,https://www.linkedin.com/company/finovate-conference-series/,https://twitter.com/finovate
Trade Show & Conference,"Banking, Finance",ABA Agricultural Bankers Conference,10 Nov 2019-13 Nov 2019,08:00 AM - 07:00 PM (10 Nov 2019)|08:00 AM - 06:00 PM (11 Nov 2019)|07:00 AM - 06:00 PM (12 Nov 2019)|07:00 AM - 11:30 AM (13 Nov 2019),11-14 Nov 2018,Nov-20,USA,Dallas,Hyatt Regency Dallas,,50,https://www.aba.com/Training/Conferences/Pages/AGR.aspx,+1 800 226 5377,cwatkins@aba.com,"Unique Perspectrives into the World of Agricultural Banking Perspectives

As an ag banker, serving your customer means more than providing a lending channel. Youve got to be in touch with the intricacies of the farm as a business to be able to guide your customers to growth. When you align yourself with your customer as a true partner, you can both thrive.

https://www.aba.com/Training/Conferences/Pages/AGR.aspx","Global Ag Risk Solutions,American Bankers Association,Producers Livestock Credit Corporation,Farm Financial Standards Council,Crowe LLP,AXA Equitable AgriFinance,Rockport Solutions, LLC,Raymond James,Conterra Agricultural Capital,BigIron Auction Company,Iron Solutions, Inc,Murray Wise Associates,Moody's Analytics,Rockport Solutions, LLC,South Dakota Bankers Association,Stewart-Peterson,TRG Mobilearth Inc,USDA Farm Service Agency,USDA Rural Development,Zions Agricultural Finance","Eligibility Criteria: Open to industry professionals
Fees: ABA Member - $895 (by 8/30), $995 (after 8/30)
Team Discount - $735 (by 8/30), $875 (after 8/30)
Nonmember Service Member - $1.545
Guest - $380
Attendee Registration","Sponsorship Fees: Contact required for further information
Exhibitor Fees: Contact required for further information",,,https://www.facebook.com/AmericanBankersAssociation,https://www.instagram.com/americanbankersassociation/,https://www.linkedin.com/company/american-bankers-association,https://twitter.com/ABABankers
Trade Show & Conference,"Banking, Finance",Fincon,4 Sep 2019-7 Sep 2019,11:00 AM - 07:00 PM (4 Sep 2019)|08:00 AM - 06:30 PM (5 Sep 2019-6 Sep 2019)|08:30 AM - 04:00 PM (7 Sep 2019),26-29 Sep 2018,Sep-20,USA,Washington DC,Washington Hilton,2000,100,https://finconexpo.com/,+214 799 0610,admin@finconexpo.com,"The World's Largest Financial Conference and Expo

In September 2019, an energetic community of money media nerds will descend on Washington, D.C. These 2,000+ personal finance content creators and influencers will connect, collaborate, and learn from each other at the worlds largest financial conference and expo.

https://finconexpo.com/fincon19/",,"Eligibility Criteria: Open to industrry professionals and trade visitors
Fees: Basic Influencer Pass - $497
Pro Influencer Pass - $797
Brand/Industry Pass - $897 (Full price)
Attendee Registration","Sponsorship Fees: Vary between $325 - $60.000
Exhibitor Fees: Vary between $2.500 - $23.750
Exhibitor Registration",,https://www.youtube.com/channel/UCvh6547pUxNwVTYpH88XOEg,https://www.facebook.com/finconexpo/,https://www.instagram.com/finconexpo/,,https://twitter.com/FinCon?ref_src=twsrc%5Egoogle%7Ctwcamp%5Eserp%7Ctwgr%5Eauthor
Trade Show & Conference,"Banking, Finance",FIA Annual Futures and Options Expo,29 Oct 2019-31 Oct 2019,09:00 AM - 06:00 PM,16-18 Oct 2018,Oct-20,USA,Chicago,Hilton Chicago,4000,120,https://fia.org/events/expo-2019,,info@fia.org,"Explore Ways to Amplify Innovation, Fuel Progress and Take on the Industry's Biggest Challenges

Expo covers the cleared derivatives industry from end to end. Whether ground-breaking fintech startups in the Innovators Pavilion or leading voices analyzing the most pressing issues, the 35th Annual Futures & Options Expo is your destination to build partnerships, spot trends and define the future of our industry.

https://fia.org/events/expo-2019","Neovest Inc.,Nanhua USA LLC,BittWare,CN First International Futures Limited,RSM US LLP,Singapore Exchange,The Institute for Financial Markets,FreightWaves,Intercontinental Exchange (ICE),EY,Enyx,CME Group,OCC,Baton Systems,Minneapolis Grain Exchange, Inc.,McKay Brothers & Quincy Data,Taiwan Futures Exchange,Tokyo Commodity Exchange Inc.,Tokyo Financial Exchange Inc.,London Metal Exchange","Eligibility Criteria: Open to industry professionals
Fees: Full Conference
FIA member - $775 ($875 after Sep 6)
Non-member - $1.050 ($1,150 after Sep 6)
Government - $400
Single Day
FIA member -  $450 ($500 after Sep 6)
Non-member - $615 ($680 after Sep 6)
Trade Show Plus
FIA member -  $100
Non-member - $130
Trade Show Only
FIA member -  $35
Non-member - $35
Single Session
FIA member - $150 (Available in early Oct)
Non-member - $170 (Available in early Oct)
Attendee Registration","Sponsorship Fees: Options vary between $1.600 - $45.000 for members. $1.920 - $54.000 for non members.
Exhibitor Fees: $3.815 - $23.355 for members
$5.145 - $30.395 for non-members
Exhibitor Registration",,,,,,https://twitter.com/FIAconnect
Conference,"Banking, Finance",FIA-SIFMA AMG Asset Management Derivatives Forum,5 Feb 2020-7 Feb 2020,08:00 AM - 07:00 PM,13-15 Feb 2019,Feb-21,USA,Laguna Miguel,The Ritz-Carlton Laguna Miguel,300,,http://fia-sifmaamgforum.org/,+1 312 636 2919,tvitalechan@fia.org,"Latest Developments in Global Derivatives Trading and Clearing, Operations and Regulation

Attracting more than 300 executives, the annual Asset Management Derivatives Forum brings together market participants from all sides of a trade to examine the latest developments in global derivatives trading and clearing, operations and regulation. The Forum presents a unique opportunity to connect investors with market expertise in over-the-counter and exchange-traded derivatives, attracting attendees from the joint membership of FIA and SIFMA AMG.

http://fia-sifmaamgforum.org/",,"Eligibility Criteria: Open to industry professionals
Fees: Contact required for further information",,https://www.flickr.com/photos/42096231@N07/albums/72157707012760375,,,,,https://twitter.com/FIAconnect
Trade Show & Conference,"Banking, Finance",Annual AML & Financial Crime Conference,23 Sep 2019-25 Sep 2019,08:00 AM - 06:30 PM (22 Sep 2020)|07:50 AM - 06:00 PM (23 Sep 2020)|08:00 AM - 06:00 PM (24 Sep 2020)|08:00 AM - 12:35 PM (25 Sep 2020),3-5 Oct 2018,Sep-Oct 2020,USA,Las Vegas,Aria Resort & Casino,2500,100,https://www.acamsconferences.org/vegas/,+1 305 373 0020,info@acams.org,"Financial Crime Prevention Conference in Las Vegas

Join over 2,500 influential anti-financial crime professionals, regulators, law enforcement investigators and government officials at this comprehensive financial crime prevention conference in Las Vegas. During the course of three days, the financial crime prevention community has the opportunity to learn from inspiring subject-matter experts, connect with other industry professionals and gain new insights and practical strategies to help their institutions combat financial crime.

https://www.acamsconferences.org/vegas/","4iQ,Acams,Accenture,Brighterion,Bureau Van Dijk,Crowe,CSI,EY,FTI Consulting,IBM,KPMG,Lexis Nexis,McKinsey & Company,Oracle Financial Services,Pwc,SAS,Thomson Reuters,Hypur,Genpact,Financial Integrity Network","Eligibility Criteria: Open to industry professionals
Fees: ACAMS Member - Main Conference Standard Price - $2.195
Non-Member - Main Conference Standard Price - $2.395
ACAMS Member - Conference and 1 Workshop Standard Price - $2.645
Non-Member - Conference and 1 Workshop Standard Price - $2.845
ACAMS Member - Conference and 2 Workshops Standard Price - $2.895
Non-Member - Conference and 2 Workshops Standard Price - $3.095
Attendee Registation","Sponsorship Fees: Contact required for further information
Exhibitor Fees: Contact required for further information
Exhibitor Registration",https://www.acamsconferences.org/vegas/#gallery,https://www.youtube.com/playlist?list=PLM6F7LisNmysxvAH39VE_9iQ65xhT2lUf,,,,https://twitter.com/ACAMS_AML?ref_src=twsrc%5Etfw%7Ctwcamp%5Eembeddedtimeline%7Ctwterm%5Eprofile%3AACAMS_AML&ref_url=https%3A%2F%2Fwww.acamsconferences.org%2Fvegas%2F
Conference,"Banking, Finance",Money 20/20 USA,27 Oct 2019-30 Oct 2019,10:05 AM - 04:40 PM (27 Oct 2019)|10:50 AM - 05:10 PM (28 Oct 2019)|09:35 AM - 04:50 PM (29 Oct 2019)|09:05 AM - 02:35 PM (30 Oct 2019),21-24 Oct 2018,Oct-20,USA,Las Vegas,The Venetian,11500,,https://us.money2020.com/,+1 212 682 8000,info@money2020.com,"Journey to the Future of Money

Money20/20 is the doorway to the epicenter of the Payments, Banking, Fintech and Financial Services ecosystem. As the home of the Money Revolution we unite captains of industry, dreamers, trailblazers, innovative thinkers and fearless leaders that hold the keys to fundamental changes in the way the world uses, spends, borrows and moves money.

https://us.money2020.com/event-theme",,"Eligibility Criteria: Open to industry professionals
Fees: Full Pass - $2.895 (early bird), $3.495 (full price)
Retailer Pass - $995
Government & Credit Unions - $2.195
Attendee Registration","Contact required for further information
Sponsor/Exhibitor Registration",,https://www.youtube.com/playlist?list=PLIO3CgwH3qs-6KZBTPJW3JKvmaS8FJaq6,https://www.facebook.com/Money2020/,,https://www.linkedin.com/company/money2020,https://twitter.com/money2020
Trade Show & Conference,"Banking, Finance",Money 20/20 China,4 Dec 2019-6 Dec 2019,08:00 AM - 06:30 PM,14-16 Nov 2018,Nov-Dec 2020,China,Hangzhou,Hangzhou International Expo Centre,,,https://www.money2020-china.com/,+86 571 22835728,china@money2020.com,"The Space Where the Industry's Smartes

Founded in 2011, Money20/20 creates destination events serving the world's most exciting FinTech markets. These ground-breaking events are where the most innovative and influential people in payments, FinTech and the broader financial services industry connect.

https://www.money2020-china.com/overview/about-money2020",,"Eligibility Criteria: Open to industry professionals
Fees: Early-bird rate - $1.995
Full rate - $3.350
Government/Industry Associations/Credit Unions - $1.595
Retailers - $995
StartUps - $995
Attendee Registration","Contact required for further information
Sponsorship Registration",https://www.money2020-china.com/overview/2018-photo,https://www.money2020-china.com/overview/2018-video,https://www.facebook.com/Money2020/,,https://www.linkedin.com/company/money2020,https://twitter.com/money2020
Trade Show & Conference,"Banking, Finance",Money 20/20 Asia,24 Mar 2020-26 Mar 2020,09:30 AM - 06:00 PM,19-21 Mar 2019,Mar-21,Singapore,,Sands Expo and Convention Centre,10000,,https://asia.money2020.com/,+44 203 033 2070,asia@money2020.com,"Relive the Action from Money 20/20 Asia

Every year, the worlds senior leaders across Payments, Financial Services and FinTech come together at Money20/20 Asia to network and connect over the critical developments shaping the future of money in Asia and to grow and futureproof their businesses.

https://asia.money2020.com/money2020-asia-critical-your-business","Google,Discover Global Network,Hanwha,Master Card,Standard Chartered,Stripe,UL,First Data,IBM Blockchain World Wire,PayU,TSYS,American Express,Citi,Banking Circle,Paypal,Singtel,JB Financial Group,Jumio,Rapyd,TNG Fintech Group","Eligibility Criteria: Open to industry professionals
Registration will be opened.
Attendee Registration","Sponsorship Fees: Contact required for further information
Exhibitor Fees: Standard booth - $50.500 - $250.000
Shell scheme booth - $7.000 - $34.000
Sponsorship Registration",https://asia.money2020.com/2019-photo-gallery-all,https://asia.money2020.com/video-gallery,https://www.facebook.com/Money2020/,,https://www.linkedin.com/company/money2020,https://twitter.com/money2020
Trade Show & Conference,"Banking, Finance",Money 20/20 Europe,16 Jun 2020-18 Jun 2020,09:00 AM - 06:00 PM,3-5 Jun 2019,Jun-21,Netherlands,Amsterdam,RAI Amsterdam,,,https://europe.money2020.com/,+44 203 033 2070,europe@money2020.com,"The Relationships Will Shape the Future of Money

You come to hear what will drive the industry before it hits the industry. We facilitate three days of networking-rich opportunities and bring together the most brilliant minds to deliver the next frontier of Financial Services.

https://europe.money2020.com/","ACI Worldwide,AECI,Amazon Pay,American Express,Google,Banking Circle,Discover Global Network,Feedzai,Finastra,Huawei,ING,Mastercard,JCB Europe,Idemia,Paypal,Santander,Nets,Nexi,Tink,Visa","Eligibility Criteria: Open to industry professionals
Fees: Onsite ticket - 3.495 + VAT
Registration for 2020 event will be opened.
Attendee Registration","Contact required for further information
Sponsorship Registration",,,https://www.facebook.com/Money2020/,,https://www.linkedin.com/company/money2020,https://twitter.com/money2020
Conference,"Banking, Finance",The Exceptional Advisor Conference,27 May 2020-30 May 2020,09:00 AM - 06:00 PM,5-8 May 2019,May-21,USA,Boston,Hynes Convention Center,1500,100,https://investmentsandwealth.org/ace,+1 303 770 3377,,"Advnced Education for Experienced Investment and Wealth Advisors

While the Investments & Wealth Institute does not explicitly require prerequisite education or experience to attend, attendees who wish to maximize the value of each session should consider participating in the Investments & Wealth Institute's CIMA, CPWA, or RMA certification programs.

https://investmentsandwealth.org/conferences/2020/ace-2020,-the-exceptional-advisor-conference/pages/continuing-education","Oberweis Asset Management, Inc.,ProShares","Eligibility Criteria: Open to industry professionals
Fees: Institute Members - $795 (by Sep 13), $895 (after Sep 13)
Join & Go - $995 (by Sep 13), $1.095 (after Sep 13)
Non-members - $1.245 (by Sep 13), $1.345 (after Sep 13)
Attendee Registration","Sponsorship Fees: $50.000
Exhibitor Fees: $15.000
Sponsor & Exhibitor Registration",,https://www.youtube.com/user/IMCAVision/featured,https://www.facebook.com/investmentsandwealthinstitute/,,https://www.linkedin.com/company/357916/,https://twitter.com/iw_inst
Trade Show & Conference,"Banking, Finance",FIMA - Financial Information Management,4 May 2020-6 May 2020,08:00 AM - 07:00 PM,1-3 Apr 2019,Apr-May 2021,USA,Boston,The Sheraton,425,,https://fimaus.wbresearch.com/,+1 888 482 6012,,"Created By The Data Management Community, For The Data Management Community

Financial Information Management (FIMA), launched in 2005 is the leading data management event for financial services in the United States. Born as a reference data management event, FIMA has quickly grown to cover so much more as different kinds of data are creating new risks to manage and opportunities to capitalize on. Each of our events hosts more than 425guests from over 145 companies with three days content and 12 hours of networking.

https://fimaus.wbresearch.com/about-us","Aginity,ARM Insight,Bloomberg,Bureau van Dijk,Compact Solutions,Everteam,Exchange Data International,IHS Markit,Informatica,KPMG,Manta,MarkLogic,N-Tier Americas,NeoXam,Opus,Pitney Bowes,SAP,SIX Financial,Tableau Software,Xignite","Eligibility Criteria: Open to industry professionals
Fees: Contact required for further information
Attendee Registration","Customized sponsorship packages available
Contact required for further details
Sponsorship Registration",,,,,,
Conference,"Banking, Finance",NTCA Finance+Accounting Conference,4 Aug 2019-6 Aug 2019,12:00 PM - 06:00 PM (4 Aug 2020)|08:20 AM - 06:00 PM (5 Aug 2020)|07:30 AM - 04:00 PM (6 Aug 2020),27-30 Aug 2018,Aug-20,USA,Baltimore,Renaissance Baltimore Harborplace Hotel,,,https://www.ntca.org/events-education/events/2019-finance-accounting,+1 707 351 2118,meetings@ntca.org,"Best Practices for Telco Success

The NTCA 2019 Finance + Accounting Conference provides a perspective on the industry you wont find anywhere else. With a focus on both broad financial topics and specific telco issues, this conference gives you access to industry professionals from a wide range of sources ready to provide you with the skills and insights you need to help your company thrive.

https://www.ntca.org/events-education/events/2019-finance-accounting",,"Eligibility Criteria: Open to industry professionals
Fees: Member - $939 (Regular, deadline 8/3), $1.069 (Onsite)
Non-member - $1.069 (Regular, deadline 8/3), $1.239 (Onsite)
Preconference Workshop Bundle - $169
Preconference Workshop I: Telco Accounting Fundamentals - $109
Preconference Workshop II: Federal Policy Impact on Telco Accounting - $109
Attendee Registration","Sponsorship Fees: Vary between $750 - $5.000
Exhibitor Fees: Tabletop in Registration Area - $500
Sponsor & Exhibitor Registration",,,https://www.facebook.com/NTCARuralTelecom/,,https://www.linkedin.com/company/ntca,http://twitter.com/ntcaconnect
Conference,"Banking, Finance",GAW Finance and Economics Conference Dubrovnik,5 Aug 2019-6 Aug 2019,09:00 AM - 06:00 PM,,Aug-20,Croatia,Dubrovnik,Grand Hotel Park,,,https://globalacademicview.com/dubrovnik/,+33 601 67 19 77,info@macrotheme.com,"International Academic Conference on Finance and Economics

The conference organizing committee invites the submission of abstracts discussing the topics related to: investments, portfolio management, risk management, speculation and trading strategies, quantitative finance, behavioral finance, econometrics, corporate finance, accounting, and macroeconomics, with special focus on monetary policy and fiscal policy, as well as international trade and foreign exchange models. We also invite the abstracts on firm-specific topics, related to a broader business strategy and entrepreneurship.

https://globalacademicview.com/dubrovnik/",,"Eligibility Criteria: Open to industry professionals and academics
Fees: Early bird - 300
Regular - 350
Late - 400
E-session - 150
Participating co-author - 150
Attendee Registration",,,,,,,
Conference,"Banking, Finance",GAW Finance and Economics Conference Paris,20 Dec 2019-21 Dec 2019,09:00 AM - 06:00 PM,,Dec-20,France,Paris,92 rue Saint-Lazare 75009,,,https://globalacademicview.com/paris/,+33 601 67 19 77,info@macrotheme.com,"International Academic Conference on Finance and Economics

The conference organizing committee invites the submission of abstracts discussing the topics related to: investments, portfolio management, risk management, speculation and trading strategies, quantitative finance, behavioral finance, econometrics, corporate finance, accounting, and macroeconomics, with special focus on monetary policy and fiscal policy, as well as international trade and foreign exchange models. We also invite the abstracts on firm-specific topics, related to a broader business strategy and entrepreneurship.

https://globalacademicview.com/paris/",,"Eligibility Criteria: Open to industry professionals and academics
Fees: Early bird - 300
Regular - 350
Late - 400
E-session - 150
Participating co-author - 150
Attendee Registration",,,,,,,
Conference,"Banking, Finance",GAW AI and Business,26 Oct 2019-27 Oct 2019,09:00 AM - 06:00 PM,,Oct-20,France,Nice,Novotel Nice Centre,,,https://globalacademicview.com/ai-2/,+33 601 67 19 77,dtokic@inseec.com,"Academic Perspectives on AI Practices in Business & Finance

The conference organizing committee invites the submission of full papers and abstracts discussing the topics related to artificial intelligence and management, finance, and other business processes.

https://globalacademicview.com/ai-2/",,"Eligibility Criteria: Open to industry professionals and academics
Fees: Early bird - 300
Regular - 350
Late - 400
E-session - 150
Participating co-author - 150
Attendee Registration",,,,,,,
Conference,"Banking, Finance",HEFC - Higher Education Finance Conference,5 Aug 2019-6 Aug 2019,08:45 AM - 07:00 PM,26-27 June 2018,Summer 2020,Australia,Melbourne,Deakin University Downtown,160,,https://www.atem.org.au/conferences/hef-conference/2019-hefc,+61 2 9351 9456,info@atem.org.au,"Give Yourself to the Edge

Higher Education Finance Conference is the annual conference held jointly by ATEM and Higher Ed Services (HES). ATEM and HES are pleased to announce a number of speakers confirmed for the Melbourne 2019 Higher Education Finance Conference.

https://www.atem.org.au/conferences/hef-conference/2019-hefc",,"Eligibility Criteria: Open to industry professionals and academics
Fees: ATEM Member -AUD 1.350
ATEM Affiliate Member - AUD 1.395
Non-Member - AUD 1.495
One day rate -  AUD 500
Attendee Registration","Sponsorship packages are priced between $3.000 - $15.000
khanna@hes.edu.au
Sponsor & Exhibitor Application Form",,,,,,
Conference,"Banking, Finance","International Conference on Accounting, Finance, Statistics, Banking and Ethics Research",5 Aug 2019-6 Aug 2019,09:00 AM - 06:00 PM,,TBD,Indonesia,Bali,Mercure Bali Harvestland Kuta,,,https://www.intknowhub.com/indonesia-iaef2019,+62 361 750483,intknowhub@gmail.com,"Empowering Scholars through Knowledge Events accros the Globe

Conference scope covers, but not limited to, accounting, auditing, taxation, finance, banking, crowdfunding, IT in finance and banking, ethics in finance and banking, law and legal research on banking.

https://www.intknowhub.com/indonesia-iaef2019",,"Eligibility Criteria: Open to industry professionals and academics
Fees: Academics/Professionals - $400
Attendee/Listener - $300
Student - $250
Attendee Registration",,,,http://www.facebook.com/wix,https://instagram.com/wix/,,http://www.twitter.com/wix
Conference,"Banking, Finance",LIMRA Advanced Sales Forum,5 Aug 2019-7 Aug 2019,08:45 AM - 06:30 PM (5 Aug 2019)|08:00 AM - 06:00 PM (6 Aug 2019)|08:30 AM - 11:15 AM (7 Aug 2019),6-8 Aug 2018,Aug-20,USA,Chicago,Four Seasons Hotel Chicago,,,https://www.limra.com/en/events/conferences/2019/2019-advanced-sales-forum/,+1 860 285 7789,Customer.Service@limra.com,"Architects of the Future: Designing Sustainable Blueprints for Success

The LIMRA Advanced Sales Forum is the ONLY conference designed specifically to enhance the practice of advanced sales professionals like you. This practical event focuses not only on the challenges facing our industry, but also the potential opportunities they create for our companies and our clients.

https://www.limra.com/en/events/conferences/2019/2019-advanced-sales-forum/#overview",,"Eligibility Criteria: Open to industry professionals
Fees: Early-Bird Rates
LIMRA member - $1.335
LOMA (but not LIMRA) member - $2.000
Non-member - $2.670
After July 9, 2019
LIMRA Member - $1.535
LOMA (but not LIMRA) member - $2.300
Non-member - $3.070
Attendee Registration",,,https://www.youtube.com/user/limraloma/featured,http://www.facebook.com/LIMRANews,,http://www.linkedin.com/company/limra/,https://twitter.com/LIMRA
Conference,"Banking, Finance",LIMRA Distribution Conference for Financial Services,25 Feb 2020-27 Feb 2020,TBD,27 Feb-1 Mar 2019,Feb-Mar 2021,USA,Tampa,Marriott Tampa Waterside,351,,https://www.limra.com/en/events/conferences/2020/2019-distribution-conference-for-financial-services/,+1 860 285 7789,Customer.Service@limra.com,"Reshaping Distribution to Succeed in the USA and Canada

Dedicated to helping distribution executives and professionals achieve ever-greater success, this conference will present leading-edge strategies to enhance operations and increase sales. It is the premier event for anyone with a vested interest in channel growth, productivity.

https://www.limra.com/en/events/conferences/2020/2019-distribution-conference-for-financial-services/#overview",,"Eligibility Criteria: Open to industry professionals
Fees: Early Registration Rates (before January 30, 2020)
LIMRA Member - $1.320
LOMA (but not LIMRA) Member - $1.980
Non-member - $2.640
Standard Rates
LIMRA Member - $1.620
LOMA (but not LIMRA) Member - $2.430
Non-member - $3.240
Attendee Registration",Exhibitor Registration,,https://www.youtube.com/user/limraloma/featured,http://www.facebook.com/LIMRANews,,http://www.linkedin.com/company/limra/,https://twitter.com/LIMRA
Conference,"Banking, Finance",Indonesia Investor Conference,6 Aug 2019-7 Aug 2019,08:55 AM - 02:00 PM (6 Aug 2019)|12:00 PM - 01:00 PM (7 Aug 2019),3-4 May 2018,TBD,Indonesia,Jakarta,Mandarin Oriental Hotel,,,https://www.1on1schedule.com/eventweb.php?pid=a2FjNmVoMGthaWVj,+65 6657 1579,soen.ming.yeo@citi.com,"Indonesia's Leading Event for Top Investors

Indonesia Investor Conference will provide world-class global capabilities for corporate, institutional and retail investors through our dominant equity and debt sales and trading platforms, industry-leading research, top-tier institutional distribution capabilities, and access to the second-largest retail brokerage network in the U.S.

https://www.1on1schedule.com/eventweb.php?pid=a2FjNmVoMGthaWVj",,"Eligibility Criteria: Open to industry professionals
Fees: Contact required for further information
Attendee Registration",,,,http://www.facebook.com/citi,http://instagram.com/citi,http://www.linkedin.com/company/citi,https://twitter.com/Citi
Conference,"Banking, Finance",Community Bankers For Compliance Program,6 Aug 2019-7 Aug 2019,09:00 AM - 03:00 PM,7-8 May 2019,5-6 Nov 2019,USA,Indianapolis,The Landmark Conference Centre,,,https://indianabankers.org/community-bankers-compliance-program-23,+1 317 387 9380,LRees@indianabankers.org,"Up-To-Date Information on the Everchanging Bank Regulations

Indiana Bankers Association is pleased to sponsor the annual Community Bankers for Compliance Program (CBC). The CBC Program is the most successful and longest running compliance training program in the country. The CBC Program will provide your bank with up-to-date information on the everchanging bank regulations, as well as guidance for structuring and maintaining your in-bank compliance program.

https://indianabankers.org/community-bankers-compliance-program-23",,"Eligibility Criteria: Open to industry professionals
Fees: CBC Basic Program Membership
$1.350 for the first person for IBA members.
$450 for each additional person for IBA members.
$2.700 for Non-IBA Members
CBC Enhanced Program Membership
$900 additional charge to CBC Basic Program Membership",,,,,,,
Conference,"Banking, Finance",SCF Forum Americas,7 Aug 2019,09:30 AM - 04:55 PM,,TBD,USA,Los Angeles,USC Marshall School of Business,,,https://www.scfforumamericas.com/home,,events@adaugeomedia.com,"Bridging Physical and Financial Supply Chains

SCF Forum Americas brings together treasurers, procurement directors, banks, technology vendors and academics to learn from each other and set out the future of Supply Chain Finance. It features case studies from companies who have developed successful supply chain finance programmes, together with panel sessions to get into the detail of how to make supplier finance work for your organisation.

https://www.scfforumamericas.com/page/1391651/about",,"Eligibility Criteria: Open to industry professionals and academics
Fees: Standard price - $850
Academic - $250
Attendee Registration",,,,,,https://www.linkedin.com/company/scf-forum,https://twitter.com/scfeurope
Conference,"Banking, Finance",SCF Forum Europe,28 Nov 2019,TBD,29-Nov-18,Nov-20,Netherlands,Amsterdam,Beurs van Berlage,300,,https://www.scfforumeurope.com/,+44 203 086 7753,events@adaugeomedia.com,"The World's Leading Supply Chain Conference and Awards

Each year the Forum brings together treasurers, procurement directors, CFOs and others from the corporate world who want to develop their supply chain finance programmes. They meet and network with other corporates, business schools, banks, technology companies and consultants who, among them, represent the most comprehensive knowledge base on supply chain finance anywhere in the world.

https://www.scfforumeurope.com/page/1391630/about",,"Eligibility Criteria: Open to industry professionals
Fees: Standard rate - $1.179,75
Corporate rate - $574,75
Acatemic rate - $302,50
Attendee Registration",,,,,,https://www.linkedin.com/company/scf-forum,https://twitter.com/scfeurope
Conference,"Banking, Finance",SCF Forum Asia,23 May 2019,09:30 AM - 04:15 PM,23-May-18,May-20,Singapore,,National University of Singapore,150,,https://www.scfforumasia.com/home,,events@adaugeomedia.com,"Asia's Leading SCF Event for Corporates

The Forum brings together corporate treasurers with procurement directors, banks and technology providers to explore ways of optimising working capital without harming the supply chain. The full-day programme offers a complete overview of supply chain finance in our region, packed with case studies, technology updates and real-world advice from experts.

https://www.scfforumasia.com/page/1383930/about",,"Eligibility Crtieria: Open to industry professionals
Fees: Standard rate - S$1.350
Attendee Registration",,,,,,https://www.linkedin.com/company/scf-forum,https://twitter.com/scfeurope
Conference,"Banking, Finance",Audit and Risk Summit & Awards,7 Aug 2019,09:00 AM - 05:00 PM,22-Aug-17,Aug-21,India,Mumbai,The JW Marriott Juhu,,,http://auditandrisksummit.com/index.html,+91 88797 46640,maria.fernandes@ubsforums.com,"Audit Strategically To Build Credibility

Audit and Risk Summit & Awards 2019 is a power pack of Strategic Planning and Networking - All resulting in action plans and steps to make effective change in your organisation where you need it the most. At the end of the summit, youll be ready to tackle challenges and take the right actions to stay ahead of the fast-moving audit profession.

http://auditandrisksummit.com/index.html",,"Eligibility Criteria: Open to industry professionals
Fees: Conference Fee - INR 15.000
Conference + Nominations Fee - INR 20.000
Attendee Registration",,,,https://www.facebook.com/ubsforumsf/,,https://www.linkedin.com/company/ubsforums/,https://twitter.com/ubsforums/
Conference,"Banking, Finance",CFO Innovation Shanghai Forum,8 Aug 2019,09:00 AM - 05:05 PM,13-Apr-17,TBD,China,Shanghai,A Luxury Collection Hotel,180,,https://event.cfoinnovation.com/cfo-forum/2019/shanghai_en#,+65 6395 6788,pvoo@questex.com,"Finding New Innovative Growth Strategies & Financia? Sustainability Amidst Economic Uncertainty

Going into the 7th Annual Year, CFO Innovation Shanghai Forum - one of industry's most reputed, highly engaged and widely attended forum for the region's top Chief Financial Executives and Senior Financial Professionals, will unveil new innovative growth strategies to help organization regain financial stability and steady growth amidst economic uncertainty in China.

https://event.cfoinnovation.com/cfo-forum/2019/shanghai_en#/about",,"Eligibility Criteria: Open to industry professionals
Fees: Regular rate - $895
Service providers, vendors & consultants - $2.000
Attendee Registration","Sponsorship opportunities available
Contact required for further information
Catherine Wong
+65 6394 7696 
cwong@questex.com",,,https://www.facebook.com/CFO-Innovation-Asia-182712505991,,https://www.linkedin.com/company/cfo-innovation-asia/,https://twitter.com/cfo_innovation
Conference,"Banking, Finance",CFO Innovation Asia Forum,10 Apr 2019-11 Apr 2019,09:00 AM - 04:45 PM,9-10 May 2018,Apr-May 2020,Singapore,,Marina Bay Sands,350,,https://event.cfoinnovation.com/cfo-forum/2019/singapore,+65 6395 6788,pvoo@questex.com,"Strengthening Competitiveness through Agile Finance Transformation

CFOs in Singapore and in the region will look towards improving competitiveness of their finance function through ideal integration of technologies and learn from cross industries on how resources including workforce can be sustainably redeployed.

https://event.cfoinnovation.com/cfo-forum/2019/singapore#/about",,"Eligibility Criteria: Open to industry professionals
Fees: CFOs and related finance professionals - $1.895
Service providers, vendors & consultants - $2.795","Sponsorship opportunities available
Contact required for further information
Catherine Wong
+65 6394 7696 
cwong@questex.com",,,https://www.facebook.com/CFO-Innovation-Asia-182712505991,,https://www.linkedin.com/company/cfo-innovation-asia/,https://twitter.com/cfo_innovation
Conference,"Banking, Finance",CFO Innovation Manila Forum,27 Jun 2019,09:00 AM - 05:00 PM,26-Jun-18,Jun-20,Philippines,Manila,New World Makati Hotel,160,,https://event.cfoinnovation.com/cfo-forum/2019/manila,+65 6395 6788,pvoo@questex.com,"Integrating Financial Resilience and Ensuring Business Continuity

Designed exclusively for CFOs and the distinguished upper tier of finance in the country, the 6th CFO Innovation Philippines Forum presents a unique opportunity for our senior audience to network, collaborate and solve the most pertinent business challenges facing the finance function in the country, in order to sustain in 2019 towards a stronger 2020 and beyond.

https://event.cfoinnovation.com/cfo-forum/2019/manila#/about",,"Eligibility Criteria: Open to industry professionals
Fees: CFOs and related finance professionals - $1.195
Service providers, vendors & consultants - $1.795","Sponsorship opportunities available
Contact required for further information
Catherine Wong
+65 6394 7696 
cwong@questex.com",,,https://www.facebook.com/CFO-Innovation-Asia-182712505991,,https://www.linkedin.com/company/cfo-innovation-asia/,https://twitter.com/cfo_innovation
Conference,"Banking, Finance",CFO Innovation Thailand Forum,4 Jul 2019,09:00 AM - 05:00 PM,19-Jul-18,Jul-20,Thailand,Bangkok,AVANI+ Riverside Bangkok Hotel,160,,https://event.cfoinnovation.com/cfo-forum/2019/bangkok,+65 6395 6788,pvoo@questex.com,"Integrating Agility as the New Competitive Imperative

Join us at the 5th CFO Innovation Thailand Forum 2019 as we discuss what it takes to become an agile CFO that excel in navigating changing business landscapes, spotting new opportunities and driving competitiveness.

https://event.cfoinnovation.com/cfo-forum/2019/bangkok#/about",,"Eligibility Criteria: Open to industry professionals
Fees: CFOs and related finance professionals - $1.195
Service providers, vendors & consultants - $1.795","Sponsorship opportunities available
Contact required for further information
Catherine Wong
+65 6394 7696 
cwong@questex.com",,,https://www.facebook.com/CFO-Innovation-Asia-182712505991,,https://www.linkedin.com/company/cfo-innovation-asia/,https://twitter.com/cfo_innovation
Conference,"Banking, Finance",CFO Innovation Hong Kong Forum,25 Sep 2019-29 Sep 2019,09:00 AM - 05:00 PM,11-12 Sep 2018,Sep-20,China,Hong Kong,The Mira Hong Kong,280,,https://event.cfoinnovation.com/cfo-forum/2019/hongkong,+65 6395 6788,pvoo@questex.com,"Seizing New Growth Opportunities through Strategic Innovation and Transformation

Join us at the 10th CFO Innovation Hong Kong Forum 2019, where we gather more than 50 cross-industry finance experts, to share insights, as well as the latest trends and best practices in finance function - to navigate the changing business landscapes, explore new horizons and to drive agile competitiveness.

https://event.cfoinnovation.com/cfo-forum/2019/hongkong#/about",,"Eligibility Criteria: Open to industry professionals
Fees: CFOs and related finance professionals, end users - $895
Service providers, vendors & consultants - $2.000
Attendee Registration","Sponsorship opportunities available
Contact required for further information
Catherine Wong
+65 6394 7696 
cwong@questex.com",,,https://www.facebook.com/CFO-Innovation-Asia-182712505991,,https://www.linkedin.com/company/cfo-innovation-asia/,https://twitter.com/cfo_innovation
Conference,"Banking, Finance",CFO Innovation Malaysia Forum,2 Oct 2019,09:00 AM - 05:00 PM,25-Oct-18,Oct-20,Malaysia,Kuala Lumpur,Park Royal Kuala Lumpur,120,,https://event.cfoinnovation.com/cfo-forum/2019/kualalumpur,+65 6395 6788,pvoo@questex.com,"Strengthening the Finance and Operational Resilience to Ensure Business Continuity

Join us at the 7th CFO Innovation Malaysia Forum 2019, where over 200 CFOs and the distinguished upper tier of finance in the country convened  to discuss, exchange insights and collaborate, in order to successfully steer their businesses through turbulence.

https://event.cfoinnovation.com/cfo-forum/2019/kualalumpur#/about",,"Eligibility Criteria: Open to industry professionals
Fees: CFOs and related finance professionals, end users - $895
Service providers, vendors & consultants - $2.000
Attendee Registration","Sponsorship opportunities available
Contact required for further information
Catherine Wong
+65 6394 7696 
cwong@questex.com",,,https://www.facebook.com/CFO-Innovation-Asia-182712505991,,https://www.linkedin.com/company/cfo-innovation-asia/,https://twitter.com/cfo_innovation
Conference,"Banking, Finance",CFO Innovation Vietnam Forum,15 Aug 2019,09:10 AM - 04:40 PM,,Aug-20,Vietnam,Ho Chi Minh City,TBD,120,,https://event.cfoinnovation.com/cfo-forum/2019/hochiminh#/about,+65 6395 6788,pvoo@questex.com,"Integrating Efficient Finance Transformation

CFO Innovation Vietnam Forum in August 2019 will be the launch event in the country to bring together 120+ CFOs from manufacturing, travel and hospitality, energy, natural resources, logistics, retails, BFSI , telecommunications and many other cross-industries, discussing the ever evolving role of CFOs with the current policies, regulation, automation, cyber security and blockchain.

https://event.cfoinnovation.com/cfo-forum/2019/hochiminh#/about",,"Eligibility Criteria: Open to industry professionals
Fees: CFOs and related finance professionals, end users - $895
Service providers, vendors & consultants - $2.000
Attendee Registration","Sponsorship opportunities available
Contact required for further information
Catherine Wong
+65 6394 7696
cwong@questex.com",,,https://www.facebook.com/CFO-Innovation-Asia-182712505991,,https://www.linkedin.com/company/cfo-innovation-asia/,https://twitter.com/cfo_innovation
Conference,"Banking, Finance",Fintech Innovation Forum & Insurtech Asia Hong Kong,10 Oct 2019,09:00 AM - 05:00 PM,23-Oct-18,Oct-20,China,Hong Kong,TBD,150,,https://www.questexevent.com/fintech-innovation/2019/hongkong,+65 6395 4583,pollytan@questexasia.com,"The Future of Fintech: Navigating a World of Exponential Innovation & Irreversible Transformation

Supported by Fintech Innovation - the region's premier finance technology publication dedicated to the banking, financial services and insurance sector, the forum will focus on how technology is shaping financial services and the innovations, strategies and business models currently in vogue.

https://www.questexevent.com/fintech-innovation/2019/hongkong#/about",,"Eligibility Criteria: Open to industry professionals
Fees: Qualified IT end users - $895
Service providers, vendors & consultants - $1.795
Attendee Registration","Sponsorship opportunities available
Contact required for further information
Catherine Wong
+65 6394 7696 
cwong@questex.com",https://www.questexevent.com/fintech-innovation/2019/hongkong#/,,,,,
Conference,"Banking, Finance",Fintech Innovation Forum & Insurtech Asia Singapore,1 Aug 2019,09:00 AM - 05:00 PM,15-Aug-18,Aug-20,Singapore,,Novotel Singapre Clarke Quay,150,,https://www.questexevent.com/fintech-innovation/2019/singapore,+65 6395 4583,pvoo@questex.com,"Optimizing Fintech through Combining External and Internal Synergies

Questex Asias annual FinTech Innovation Forum will cover completely new ground by introducing interactive sessions to provide latest movements, trends, regulations and tools in the fintech and allied space.

https://www.questexevent.com/fintech-innovation/2019/singapore#/about",,"Eligibility Criteria: Open to industry professionals
Fees: Qualified IT end users - $895
Service providers, vendors & consultants - $1.795
Attendee Registration","Sponsorship opportunities available
Contact required for further information
Catherine Wong
+65 6394 7696 
cwong@questex.com",https://www.questexevent.com/fintech-innovation/2019/singapore,,,,,
Conference,"Banking, Finance",FPA Annual Conference,16 Oct 2019-18 Oct 2019,07:00 AM - 06:15 PM (16 Oct 2019)|07:45 AM - 06:15 PM (17 Oct 2019)|07:45 AM - 03:15 PM (18 Oct 2019),3-5 Oct 2018,Oct-20,USA,Minneapolis,Minneapolis Convention Center,2000,40,https://fpaannual.org/,+1 303 759-4900,MemberServices@OneFPA.org,"Largest Global Gathering of CFP Professionals & Thought Leaders in Financial Planning

Our annual event is designed to help you source new ideas, step away from your daily grind to access fresh perspectives, and develop your skills and talents in a setting built to foster connections. Its an event constructed for financial planners by financial planners, and is packed with content curated to help you become the best planner you can be.

https://fpaannual.org/about/","Model Capital Management LLC,Nationwide Advisory Solutions,JVM Realty Corporation,Davis Advisors,Foundation for Financial Planning,CFP Board Center for Financial Planning,Board International,Betterment for Advisors,Academy for Financial Services (AFS),Greater Horizons,Great American Insurance Group,Litman Gregory Master Funds,Model Capital Management LLC,PlanPlus Global,Trade PMR,The Options Industry Council,ViewTrade Institutional,TuitionFit,Vanguard Charitable,S&P Dow Jones Indices","Eligibility Criteria: Open to industry professionals
Fees: Advance (Ends August 30)
Member - $949
Non-Member - $1.149
Students - $249
Faculty - $399
Full (ends September 27)
Member - $1.049
Non-Member - $1.249
Students - $249
Faculty - $399
Early Bird Rate (ends July 26)
Member - $799
Non-Member - $999
Students - $249
Faculty - $399
Attendee Registration","Sponsorship opportunities available
Contact required for further information
Sponsorship Registration",https://fpaannual.org/about/#photos,,https://www.facebook.com/FinancialPlanningAssociation/?fref=ts,https://www.instagram.com/fpaconferences/,https://www.linkedin.com/company/financial-planning-association,https://twitter.com/fpassociation?lang=en
Conference,"Banking, Finance",FPA NorCal Conference,26 May 2020-27 May 2020,08:30 AM - 06:30 PM,28-29 May 2019,May-21,USA,San Francisco,Palace Hotel,600,,https://www.fpanorcal.org/,+1 415 413 4044,info@fpanorcal.org,"Regional Conference Planned by Financial Planners, for Financial Planners

This premier Conference has a national reputation for providing knowledgeable inspiring speakers and excellent networking opportunities for the more than 600 financial professionals who attend each year.

https://www.fpanorcal.org/about-fpa-norcal/",,"Eligibility Criteria: Open to industry pro?fessionals
Fees: Contact required for further information
Registration will be opened.
Attendee Registration",,https://www.smugmug.com/gallery/n-Vsrb96,,https://www.facebook.com/FinancialPlanningAssociation/?fref=ts,https://www.instagram.com/fpaconferences/,https://www.linkedin.com/company/financial-planning-association,https://twitter.com/fpassociation?lang=en
Trade Show & Conference,"Banking, Finance",Industry Summit - F&I and Showroom,4 Nov 2019-6 Nov 2019,08:00 AM - 07:30 PM,8-10 Oct 2018,Oct-Nov 2020,USA,New Orleans,New Orleans Marriot,1300,25,https://www.industrysummit.com/,+800 576 8788,lorena.cardenas@bobit.com,"Make the Industry Work for You

Industry Summit is the premier event for dealers, senior managers, and sales and F&I professionals. You have the power to control your own destiny today and in the years ahead.

https://www.industrysummit.com/about/overview","Alpha Warranty Services,AUL Corp,CareGard,Crystal Fusion Technologies,Dealertrack F&I,EasyCare,ECP Incorporated,Equity 4 U,F&I Express,Interstate Title Solutions,Mosaic Compliance Services, LLC,Reynolds and Reynolds,SouthwestRe,ETE Reman,Chalk Mark,Darwin Automotive,Endurance Dealer Services,American Guardian Warranty Services, Inc.,American Auto Guardian, Inc.,700 Credit","Eligibility Criteria: Open to industry professionals and trade visitors
Fees: Dealer Pass - $995
Agent Pass - $995
Industry Pass (Manufacturer/Supplier) - $1.900
P&A Leadership Summit - $1.045
Spouse Pass - $450
Attendee Registration","Sponsorship Fees: Vary between $1.000 - $20.000
Exhibitor Fees: Contact  required further information
Exhibitor Registration",https://www.industrysummit.com/photo-gallery-folder/2017-recap-in-photos,,https://www.facebook.com/FIMagazine,,,https://twitter.com/FI_Magazine
Conference,"Banking, Finance",Transfer Pricing India Summit,6 Aug 2019-7 Aug 2019,09:00 AM - 06:00 PM,9-10 Aug 2018,Aug-20,India,Mumbai,Holiday Inn Mumbai International Airport,300,,https://transferpricingindiasummit.com/,+91 22 6608 9643,pranav.mahajan@inventicon.in,"Recent Developments in Transfer Pricing

Evaluating the transfer pricing framework and regulatory measures considering the proposed new guidelines to ensure a structured direct taxation regime within multiple entities.

https://transferpricingindiasummit.com/Home.aspx",,"Eligibility Criteria: Open to industry professionals
Fees:  All Access - $595
Attendee Registration","Spoonsorship opportunities available
Contact required for further information
Sponsorship Registration",https://transferpricingindiasummit.com/Previous-Edition.aspx,,https://www.facebook.com/Inventicon-Business-Intelligence-Pvt-Ltd-1603485606622377/,,https://www.linkedin.com/company/inventicon-business-intelligence,https://twitter.com/InventiconBI
Trade Show & Conference,"Banking, Finance",CBAO Annual Convention,6 Aug 2019-8 Aug 2019,08:00 AM - 10:00 PM (6 Aug 2019)|09:00 AM - 07:30 PM (7 Aug 2019)|08:00 AM - 05:30 PM (8 Aug 2019),31 Jul-2 Aug 2018,Jul-Aug 2020,USA,Cleveland,Hilton Cleveland Downtown,300,70,https://www.cbao.com/convention,+1 614 610 1877,lsimeone@cbao.com,"Celebrating a Strong History and Birght Future

Now in its 45th year, our annual convention is a cornerstone for community banking. Our event is rich with actionable education sessions, entertaining networking events and a fun spirit with a strong sense of community. Banking professionals from Ohios community banks come together for great networking with content they can bring back to their institutions and a chance to explore new vendor opportunities through our trade show.

https://www.cbao.com/Convention/Event_Details/Convention/Event_Details.aspx?hkey=10770f43-81ca-474b-b24f-401aab9f9c61","Security Corporation,Lenderful Solutions,Edge One,Automated Systems, Inc. (ASI),Automated Business Machines,Birchwood Credit Services, Inc.,Meade & Associates, Inc.,Dan Toussant & Associates,CloudBnq,Ohio Legal Assistance Foundation, Inc.,ThinkCSC,Federal Reserve Bank of Cleveland,Arnett Carbis Toothman LLP,BrandPoint Design,Computer Services, Inc.,K4 Architecture + Design,United Bankers' Bank,Dixon, Davis, Bagent & Company,Equias Alliance, an NFP Company","Eligibility Criteria: Open to industry professionals
Fees: First Banker Attendee - $695/$995
Additional Banker Attendee/Spouse/Guest - $595/$895
1-day Banker Attendee - $450/$750
Annual Golf Outing - $169/$219
Attendee Registration","Sponsorship Fees: Packages vary from $1.500 to $15.000
Exhibitor Fees: CBAO Member - $1.495 (8x10 booth)
Non-Member - $1.950 (8x10 booth)
Exhibitor Registration",,https://www.youtube.com/channel/UCvht7rZdEhLDkMRc1MzPr9Q,https://www.facebook.com/theCBAO/,https://www.instagram.com/cbao1974,https://www.linkedin.com/company/138097/,https://twitter.com/CBAO1974
Conference,"Banking, Finance",Community Banking Day,15 May 2019,08:00 AM - 03:00 PM,16-May-18,May-20,USA,Columbus,The Ohio Statehouse,100,,https://www.cbao.com/CBAO/Events/Copy%20of%20Event_Display.aspx?EventKey=COMMDAY&WebsiteKey=7a842918-709a-46e4-841d-240c1e455ae6,+1 614 846 8124,cbao@cbao.com,"Issues Impacting the Community Banking Industry

Each year CBAO organizes Community Banking Day, a one-day event 100% dedicated to giving community bankers the opportunity to be heard by Ohios legislators. We coordinate meetings with the Ohio General Assembly and Division of Financial Institutions so community bankers can have one-on-one conversations with their districts representatives. This is your chance to give a first-hand account of the impacts of legislation and your recommendations for meaningful relief.

https://www.cbao.com/CBAO/Events/Copy%20of%20Event_Display.aspx?EventKey=COMMDAY&WebsiteKey=7a842918-709a-46e4-841d-240c1e455ae6",,"Eligibility Criteria: Open to industry professionals
Fees: Free",,,https://www.youtube.com/channel/UCvht7rZdEhLDkMRc1MzPr9Q,https://www.facebook.com/theCBAO,https://www.instagram.com/cbao1974,https://www.linkedin.com/company/138097/,https://twitter.com/CBAO1974
Conference,"Banking, Finance",National Lady Accountant Conference,6 Aug 2019-9 Aug 2019,08:00 AM - 05:00 PM,11-13 Jul 2018,Jul-Aug 2020,Kenya,Mombasa,Sarova Whitesands Beach Resort & Spa,,,https://www.icpak.com/event/the-3rd-national-lady-accountant-conference/,+254 719 074 000,icpak@icpak.com,"Synergizing for the Gender Agenda

Synergizing for the Gender Agenda is the third in a row of carefully panned seminars to attract and offer a platform for lady CPAs, CFOs, CEOs, Board Members, Political and Business Leaders to interact, network, learn, share experiences and build alliances to advance their growth and influence both at the work place and in society.

https://www.icpak.com/event/the-3rd-national-lady-accountant-conference/",,"Eligibility Criteria: Open to industry professionals
Fees: Associate Members/Accounting Trainees - KES 55.000
Kenyan based Members/ACCA Members and IFAC PAOs - KES 65.000
Non-member - KES 70.000
Attendee Registration","Sponsorship & exhibition opportunities available
Contact required for further information
rapheal.nguli@icpak.com",,,https://www.facebook.com/ICPAK-475586212492885/,,https://www.linkedin.com/company/icpak,https://twitter.com/icpak
Conference,"Banking, Finance",Resourcex Annual Priority Based Budgeting Summit,7 Aug 2019-9 Aug 2019,09:00 AM - 03:00 PM,8-10 Aug 2018,Aug-20,USA,Denver,The Curtis Hotel,,,https://www.resourcex.net/conference,,mseman@resourcex.net,"The Premier Event for PBB Innovators

Whether you are new to PBB, or advanced in the application of PBB data, the 2019 Summit will maximize your opportunities for sharing ideas and solutions to bring home and implement in your organization. Take a deep dive into OnlinePBB, the benefits of PBB and how to take your budget to the next level.

https://www.resourcex.net/conference",,"Eligibility Criteria: Open to industry professionals
Fees: $550
Attendee Registration",,,,https://www.facebook.com/ResourceXploration/,http://www.instagramcn.com/resourceexploration,https://www.linkedin.com/company/15144354?trk=tyah&trkInfo=clickedVertical%3Acompany%2CclickedEntityId%3A15144354%2Cidx%3A2-1-2%2CtarId%3A1485786945251%2Ctas%3AResourceX%20,https://twitter.com/_ResourceX
Conference,"Banking, Finance",CECLForum for Community Banks & Credit Unions San Francisco,18 Jul 2019,09:00 AM - 03:00 PM,,TBD,USA,San Francisco,Moody's Analytics,,,http://macecl2019.webflow.io/san-francisco-18-july,,patricia.froehlich@moodys.com,"Latest About the CECL Implementation Process, Best Practices from Peer Institutions and Opportunities

Senior risk and accounting professionals from credit unions and community banks are invited to join us for an agenda that will include a mix of presentations and networking opportunities around the nuts and bolts of implementing a CECL-ready ACL calculation process.

http://macecl2019.webflow.io/san-francisco-18-july",,"Eligibility Criteria: Open to industry professionals
Fees: Contact required for pricing information
Attendee Registration",,,,,,https://www.linkedin.com/company/moodysanalytics,https://twitter.com/MoodysAnalytics
Conference,"Banking, Finance",CECLForum for Community Banks & Credit Unions Dallas,25 Jul 2019,09:00 AM - 03:00 PM,,TBD,USA,Dallas,Renaissance Hotel,,,http://macecl2019.webflow.io/dallas-25-july,,patricia.froehlich@moodys.com,"Latest About the CECL Implementation Process, Best Practices from Peer Institutions and Opportunities

Senior risk and accounting professionals from credit unions and community banks are invited to join us for an agenda that will include a mix of presentations and networking opportunities around the nuts and bolts of implementing a CECL-ready ACL calculation process.

http://macecl2019.webflow.io/dallas-25-july",,"Eligibility Criteria: Open to industry professionals
Fees: Contact required for pricing information
Attendee Registration",,,,,,https://www.linkedin.com/company/moodysanalytics,https://twitter.com/MoodysAnalytics
Conference,"Banking, Finance",CECLForum for Community Banks & Credit Unions Boston,1 Aug 2019,09:00 AM - 03:00 PM,,TBD,USA,Boston,Sheraton Hotel,,,http://macecl2019.webflow.io/boston-1-august,,patricia.froehlich@moodys.com,"Latest About the CECL Implementation Process, Best Practices from Peer Institutions and Opportunities

Senior risk and accounting professionals from credit unions and community banks are invited to join us for an agenda that will include a mix of presentations and networking opportunities around the nuts and bolts of implementing a CECL-ready ACL calculation process.

http://macecl2019.webflow.io/boston-1-august",,"Eligibility Criteria: Open to industry professionals
Fees: Contact required for pricing information
Attrendee Registration",,,,,,https://www.linkedin.com/company/moodysanalytics,https://twitter.com/MoodysAnalytics
Conference,"Banking, Finance",Moody's Annual Russia & CIS Summit,24 Oct 2019,09:00 AM - 06:00 PM,25-Oct-18,Oct-20,Russia,Moscow,Four Seasons,200,,https://events.moodys.io/events/russia-cis-summit,,emily.burgess@moodys.com,"Insights on What is Driving Russia's Resiliency and Potential Credit Risks

During a mix of insightful presentations and engaging discussions senior Moodys analysts with prominent market figures will highlight what is driving Russias resiliency and potential credit risks.

https://events.moodys.io/events/russia-cis-summit",,"Eligibility Criteria: Open to industry professionals
Fees: Contact required for further information
Larissa Galakova-Rothe
Larissa.Galakova-Rothe@moodys.com",,,,,,https://www.linkedin.com/company/moody's-investors-service/,http://twitter.com/moodysinvsvc
Conference,"Banking, Finance",Inside ASEAN - Spotlight on Vietnam,28 Aug 2019,09:00 AM - 12:00 PM,11-Sep-18,Aug-Sep 2020,Vietnam,Hanoi,Sofitel Legend Metropole,100,,https://events.moodys.io/events/inside-asean-hanoi-2019,,clara.wang@moodys.com,"Get the Insight Behind Vietnam Credit

Join over 100 market participants to hear Moody's sovereign, corporate and banking analysts and guest speakers offer their insightful views on the market.

https://events.moodys.io/events/inside-asean-hanoi-2019",,"Eligibility Criteria: Open to Moody's subscribers
Fees: Contact required for further information
Attendee Registration",,,,,,https://www.linkedin.com/company/moody's-investors-service/,http://twitter.com/moodysinvsvc
Conference,"Banking, Finance",Inside LatAm Mexico,4 Sep 2019,08:30 AM - 02:05 PM,,Sep-20,Mexico,Mexico City,Hacienda de Los Morales,250,,https://events.moodys.io/events/inside-latam-mexico-summit-2019-english,,Shoshana.Tetroashvili@moodys.com,"Network with Top Moody's Analysts and Key Market Participants

Moody's Inside LatAm Series brings over 2,000 leading market participants together in 8 countries across the region. Our events provide critical insights, from the prospects of the local markets to the impact of emerging global issues on credit risk.

https://events.moodys.io/events/inside-latam-mexico-summit-2019-english",,"Eligibility Criteria: Open to Moody's subscribers
Fees: Contact required for further information
Attendee Registration",,,,,,https://www.linkedin.com/company/moody's-investors-service/,http://twitter.com/moodysinvsvc
Conference,"Banking, Finance",Inside LatAm Brazil,24 Sep 2019,08:45 AM - 01:05 PM,25-Sep-18,Sep-20,Brazil,Sao Paulo,Hotel Pullman So Paulo Vila Olmpia,250,,https://events.moodys.io/events/inside-latam-brazil-conference-2019-english,,mirley.ribas@moodys.com,"Network with Top Moody's Analysts and Key Market Participants

Moody's Inside LatAm Series brings over 2,000 leading market participants together in 8 countries across the region. Our events provide critical insights, from the prospects of the local markets to the impact of emerging global issues on credit risk.

https://events.moodys.io/events/inside-latam-brazil-conference-2019-english",,"Eligibility Criteria: Open to Moody's subscribers
Fees: Contact required for further information
Attendee Registration",,,,,,https://www.linkedin.com/company/moody's-investors-service/,http://twitter.com/moodysinvsvc
Conference,"Banking, Finance",Inside LatAm Argentina,26 Sep 2019,TBD,27-Sep-18,Sep-20,Argentina,Buenos Aires,Four Seasons,250,,https://events.moodys.io/events/inside-latam-argentina-conference-2019-english,,Shoshana.Tetroashvili@moodys.com,"Network with Top Moody's Analysts and Key Market Participants

Moody's Inside LatAm Series brings over 2,000 leading market participants together in 8 countries across the region. Our events provide critical insights, from the prospects of the local markets to the impact of emerging global issues on credit risk.

https://events.moodys.io/events/inside-latam-argentina-conference-2019-english",,"Eligibility Criteria: Open to Moody's subscribers
Fees: Contact required for further information
Attendee Registration",,,,,,https://www.linkedin.com/company/moody's-investors-service/,http://twitter.com/moodysinvsvc
Conference,"Banking, Finance",Inside LatAm Peru,16 Oct 2019,TBD,,Oct-20,Peru,Lima,Westin Lima Hotel Convention Center,250,,https://events.moodys.io/events/inside-latam-peru-conference-2019-english,,Shoshana.Tetroashvili@moodys.com,"Network with Top Moody's Analysts and Key Market Participants

Moody's Inside LatAm Series brings over 2,000 leading market participants together in 8 countries across the region. Our events provide critical insights, from the prospects of the local markets to the impact of emerging global issues on credit risk.

https://events.moodys.io/events/inside-latam-peru-conference-2019-english",,"Eligibility Criteria: Open to Moody's subscribers
Fees: Contact required for further information
Attendee Registration",,,,,,https://www.linkedin.com/company/moody's-investors-service/,http://twitter.com/moodysinvsvc
Conference,"Banking, Finance",The Sub-Saharan Africa?Summit,10 Sep 2019,08:30 AM - 03:45 PM,13-Sep-18,Sep-20,South Africa,Johannesburg,,250,,https://events.moodys.io/events/sa-conference-2019,,Mirley.Ribas@moodys.com,"Look into South?Africa's?Credit?Landscape

Moody's Investors Service is pleased to announce the Inside Africa Summit to discuss South Africa's  prospects and challenges with over 250 senior investors, issuers and credit experts. Register for an interactive day to gain new insights into the region's fiscal challenges, growth and credit risks.

https://events.moodys.io/events/sa-conference-2019",,"Eligibility Criteria: Open to Moody's subscribers
Fees: Contact required for further information
Attendee Registration",,,,,,https://www.linkedin.com/company/moody's-investors-service/,http://twitter.com/moodysinvsvc
Conference,"Banking, Finance",US CLO & Leveraged Loan Conference,10 Sep 2019,11:00 AM - 05:00 PM,06-Sep-18,Sep-20,USA,New York,New York Academy of Science,,,https://events.moodys.io/events/us-clo-lev-fin-2,,nazia.hussain@moodys.com,"Investors Face Adverse Landscape When the Economy Turns

The Annual US CLO and Leveraged Loan Conference provides a unique opportunity to gain insights into current credit trends and their implications from industry leaders and senior Moodys analysts from our Structured Finance and Corporate Finance groups.

https://events.moodys.io/events/us-clo-lev-fin-2",,"Eligibility Criteria:  Open to Moody's subscribers
Fees: Contact required for further information
Attendee Registration",,,,,,https://www.linkedin.com/company/moody's-investors-service/,http://twitter.com/moodysinvsvc
Conference,"Banking, Finance",Inside Middle East Saudi Arabia Conference,17 Sep 2019,08:30 AM - 04:00 PM,,Sep-20,Saudi Arabia,Riyadh,Crowne Plaza Riyadh RDC Hotel and Convention,250,,https://events.moodys.io/events/riyadh2019,,christopher.deridder@moodys.com,"How Will the Turn in the Credit Cycle Shape GCC Credits?

To mark the occasion of Moodys office opening in Riyadh, we are hosting an inaugural event to engage with you in person. At the event, senior analysts will highlight credit risks as the cycle turns, discuss regions credit narrative and get your questions answered.

https://events.moodys.io/events/riyadh2019",,"Eligibility Criteria: Open to Moody's subscribers
Fees: Contact required for further information
Attendee Registration",,,,,,https://www.linkedin.com/company/moody's-investors-service/,http://twitter.com/moodysinvsvc
Conference,"Banking, Finance",Euro Area Briefing,17 Sep 2019,08:30 AM - 12:30 PM,19-Sep-18,Sep-20,France,Paris,Park Hyatt Paris Vendome,,,https://events.moodys.io/events/eab-paris,,veronica.libman@moodys.com,"Trade Tensions, Populism and a Late Cycle

Explore Europe's growth prospects with prominent market figures from the ECB and Italian Treasury, and cross-sector credit analysts. The briefing will gather senior investors and issuers for engaging discussions on the latest shifts in the region. Secure your seat to be a part of the conversation.

https://events.moodys.io/events/eab-paris",,"Eligibility Criteria: Open to Moody's subscribers
Fees: Contact required for further informaiton
Attendee Registration",,,,,,https://www.linkedin.com/company/moody's-investors-service/,http://twitter.com/moodysinvsvc
Conference,"Banking, Finance",Moody's Annual Almaty Summit,18 Sep 2019,08:30 AM - 12:20 PM,26-Sep-18,Sep-20,Kazakhstan,Almaty,The Ritz-Carlton,250,,https://events.moodys.io/events/8th-annual-almaty-summit-2019,,,"Global Credit Trends, the Changing Macro Environment in Kazakhstan

This half-day conference will address Moodys perspectives on global credit trends, the changing macro environment in Kazakhstan and CIS, and include interactive sessions with Moodys analysts discussing credit risk on sovereign, banking and corporates.

https://events.moodys.io/events/8th-annual-almaty-summit-2019",,"Eligibility Criteria: Open to Moody's subscribers
Fees: Contact required for further information
Attendee Registration",,,,,,https://www.linkedin.com/company/moody's-investors-service/,http://twitter.com/moodysinvsvc
Conference,"Banking, Finance",Moody's Annual Poland & CEE Summit,26 Sep 2019,09:00 AM - 02:00 PM,27-Sep-18,Sep-20,Poland,Warsaw,InterContinental Warszawa,100,,https://events.moodys.io/events/inside-cee-warsaw-2019,+44 20 7772 1644,Larissa.Galakova-Rothe@moodys.com,"Rough Waters to Test Poland's Resiliency

Following oursuccessful event last year, we would like to invite you to our Poland & CEE Summit for engaging discussions on the regions growth prospects andchallenges.

https://events.moodys.io/events/inside-cee-warsaw-2019",,"Eligibility Criteria: Open to industry professionals
Fees: Contact required for further information
Larissa Galakova-Rothe
larissa.galakova-rothe@moodys.com",,,,,,https://www.linkedin.com/company/moody's-investors-service/,http://twitter.com/moodysinvsvc
Conference,"Banking, Finance",Russian Banking Conference,10 Jul 2019,09:00 AM - 01:30 PM,06-Jun-18,Jun-Jul 2020,Russia,Moscow,InterContinental,,,https://events.moodys.io/events/russian-banking-conference,+44 20 7772 1644,Larissa.Galakova-Rothe@moodys.com,"Opportunity to Discuss, Debate and Meet with Moody's Senior Experts and Key Market Participants

The event will look at the key credit challenges currently faced by the banks, with a special focus on retail lending growth and corporate governance issues. We will also discuss the on-going and anticipated technological developments in the Russian banking sector.

https://events.moodys.io/events/russian-banking-conference",,"Eligibility Criteria: Open to industry professionals
Fees: Contact required for further information
Larissa Galakova-Rothe
larissa.galakova-rothe@moodys.com",,,,,,https://www.linkedin.com/company/moody's-investors-service/,http://twitter.com/moodysinvsvc
Conference,"Banking, Finance",Climate Week Briefing,26 Sep 2019,09:00 AM - 12:15 PM,27-Sep-18,Sep-20,USA,New York,Moody's HQ,,,https://events.moodys.io/events/climate-week-2019,+1 212 553 5913,sandra.fung@moodys.com,"Gauging the Pace and Cost of Change of Carbon Transition

Moodys analysts for dynamic discussions on the future of carbon transition. This briefing will highlight affected industries, discuss how the risk is being transferred across asset classes and sectors, touch on commonly accepted carbon emission projections, and explore the recent developments in the green bond market.

https://events.moodys.io/events/climate-week-2019",,"Eligibility Criteria: Open to Moody's subscribers
Fees: Contact required for further information
Attendee Registration",,,,,,https://www.linkedin.com/company/moody's-investors-service/,http://twitter.com/moodysinvsvc
Conference,"Banking, Finance",Singapore Banking Summit,3 Oct 2019,09:00 AM - 12:20 PM,10-Oct-18,Oct-20,Singapore,,The Westin,150,,https://events.moodys.io/events/banking-singapore-2019,+65 6511 4411,clara.wang@moodys.com,"Changing Credit Cycle and Business Models

The Summit brings together senior investors, issuers and analysts to discuss regional banks profitability challenges and competitive landscape shifts. It will provide in-depth insight into the global and regional performance issues and their implications on credit.

https://events.moodys.io/events/banking-singapore-2019",,"Eligibility Criteria: Open to Moody's subscribers
Fees: Contact required for further informaiton
Attendee Registration",,,,,,https://www.linkedin.com/company/moody's-investors-service/,http://twitter.com/moodysinvsvc
Conference,"Banking, Finance",Moody's Islamic Finance Briefing,9 Oct 2019,TBD,19-Sep-18,Sep-Oct 2020,Malaysia,Kuala Lumpur,Four Seasons Hotel,,,https://events.moodys.io/events/islamic-finance-2019,,clara.wang@moodys.com,"Emerging Trends in Islamic Banking

Topics covered will include the turning credit cycle, as well as the impact on Islamic finance of emerging trends such as ESG and digitization.

https://events.moodys.io/events/islamic-finance-2019",,"Eligibility Criteria: Open to Moody's subscribers
Fees: Free
Attendee Registration",,,,,,https://www.linkedin.com/company/moody's-investors-service/,http://twitter.com/moodysinvsvc
Conference,"Banking, Finance",Frankfurt Banking Summit,16 Oct 2019,09:00 AM - 12:30 PM,18-Oct-18,Oct-20,Germany,Frankfurt,The Westin Grand Frankfurt,200,,https://events.moodys.io/events/banking-frankfurt-2019,+44 207 772 1562,jasmine.endres@moodys.com,"Mounting Risks in the Age of Transformation

Join us to get the latest credit insight on changing risk profiles impacted by new technology and increasing role of ESG. For local market perspective we will look into how German banks are navigating the heightened competition in the market.

https://events.moodys.io/events/banking-frankfurt-2019",,"Eligibility Criteria: Open to Moody's subscribers
Fees: Contact required for further information
Attendee Registration",,,,,,https://www.linkedin.com/company/moody's-investors-service/,http://twitter.com/moodysinvsvc
Conference,"Banking, Finance",Hong Kong Banking Conference,16 Oct 2019,09:00 AM - 12:20 PM,10-Oct-18,Oct-20,China,Hong Kong,Four Seasons Hotel,200,,https://events.moodys.io/events/banking-hong-kong-2019,+852 3551 3059,anita.so@moodys.com,"Changing Credit Cycle and Business Models

The Conference will bring together senior investors, issuers and analysts to discuss business models of the future. Join us and get the latest credit insight on banks' performance, regional banking systems and regulatory developments.

https://events.moodys.io/events/banking-hong-kong-2019",,"Eligibility Criteria: Open to Moody's subscribers
Fees: Contact required for further information
Attendee Registration",,,,,,https://www.linkedin.com/company/moody's-investors-service/,http://twitter.com/moodysinvsvc
Conference,"Banking, Finance",Shanghai Banking Conference,22 Oct 2019,09:00 AM - 12:20 PM,,Oct-20,China,Shanghai,Mandarin Oriental Pudong Shanghai,200,,https://events.moodys.io/events/banking-shanghai-2019,+86 63196565,shelley.dong@moodys.com,"Changing Credit Cycle and Business Models

This year Moody's annual banking events will focus on business models of the future and explore how key market players are exploiting new strategies to maintain dominance. The event series will also provide you with the latest credit insight on regional and global banking systems.

https://www.eventbank.cn/event/%e4%b8%8a%e6%b5%b7%e9%93%b6%e8%a1%8c%e4%b8%9a%e4%bc%9a%e8%ae%ae-22238/",,"Eligibility Criteria: Open to industry professionals
Fees: Contact required for further information
Attendee Registration",,,,,,https://www.linkedin.com/company/moody's-investors-service/,http://twitter.com/moodysinvsvc
Conference,"Banking, Finance",Tokyo Banking Summit,29 Oct 2019,01:00 PM - 04:20 PM,16-18 Oct 2018,Oct-20,Japan,Tokyo,Tokyo Kaikan,130,,https://events.moodys.io/events/banking-tokyo-2019,+81 3 5408 4103,Eriko.Yamada@moodys.com,"Latest Credit Insight on Regional and Global Banking System

The Summit will bring together senior investors, issuers and analysts to discuss business models of the future. Join us and get the latest credit insight on banks' performance, regional banking systems and regulatory developments.

https://events.moodys.io/events/banking-tokyo-2019",,"Eligibility Criteria: Open to Moody's subscribers
Fees: Contact required for further information
Attendee Registration",,,,,,https://www.linkedin.com/company/moody's-investors-service/,http://twitter.com/moodysinvsvc
Conference,"Banking, Finance",Moody's Banking and Finance Conference,30 Oct 2019,08:00 AM - 05:00 PM,,Oct-20,USA,New York,Moody's HQ,300,,https://events.moodys.io/events/bankingny2019,+1 212 553 5913,sandra.fung@moodys.com,"Disruption + Uncertainty = Opportunity

Formerly a part of our annual Financial Institutions Conference held in June, this first standalone Moodys Banking and Finance Conference 2019 will provide a platform to network and to hold critical conversations in an increasingly complex global landscape. This is a must-attend event for those who want to make sense of what disruptive forces lie ahead and learn how to best prepare for them.

https://events.moodys.io/events/bankingny2019#overview",,"Eligibility Criteria: Open to Moody's subscribers
Fees: Contact required for further information
Attendee Registration",,,,,,https://www.linkedin.com/company/moody's-investors-service/,http://twitter.com/moodysinvsvc
Conference,"Banking, Finance",Global Sovereign Summit,12 Nov 2019,08:15 AM - 01:00 PM,,Nov-20,United Kingdom,London,Merchant Taylors Hall,200,,https://events.moodys.io/events/gss19,+44 207 772 1480,simona.fautre@moodys.com,"Is the Credit Cycle About to Turn?

This year the well-established Summit will explore how disruptive  developments are shaping global and regional sovereign risk landscape. Join the complimentary event to hear the latest  thinking from the market leaders and credit analysts.

https://events.moodys.io/events/gss19",,"Eligibility Criteria: Open to Moody's subscribers
Fees: Contact required for further information
Attendee Registration",,,,,,https://www.linkedin.com/company/moody's-investors-service/,http://twitter.com/moodysinvsvc
Conference,"Banking, Finance",Finance Technology Conference,9 Aug 2019,08:30 AM - 05:30 PM,,Aug-20,India,Mumbai,The Westin Garden City,,,http://financetechnology.in/,+91 9702849915,abid@transformanceforums.com,"Keeping Pace with Finance Technology Revolution of the Industry

Learn how to manage the expectations from a CFO from an overflowing plate of things to do, what are the cost effective, easy finance technology solutions available for your business, how to tackle the challenges you are facing with digital transformation
eagles view on changing job role of finance leaders from accountants to data management and analytics Leaders.

http://financetechnology.in/",,"Eligibility Criteria: Open to industry professionals
Fees: Standard Rate
1 delegate - INR 12.500 + Taxes
3 delegates - INR 30.000 + Taxes
5 delegates - INR 45.000 + Taxes
Attendee Registration","Sponsorship packages available
Contact required for further information
Sponsorship Registration",,,https://www.facebook.com/trfforums/?ref=aymt_homepage_panel,https://www.instagram.com/transformanceforums/,https://www.linkedin.com/company/7964282/admin/,https://twitter.com/trfforums
Trade Show & Conference,"Banking, Finance",IFINTEC Finance Technologies Conference and Exhibition,9 Apr 2019-10 Apr 2019,09:20 AM - 04:40 PM,8-9 May 2018,Apr-May 2020,Turkey,Istanbul,Radisson Blu Hotel,900,,http://www.ifintec.com/English.aspx,+90 850 460 10 77,info@ifintec.com,"Technology Solutions Developed for Banks and Financial Institutions

IFINTEC Finance Technologies Conference and Exhibition is a conference focusing to the technology solutions developed for banks and financial institutions. IFINTEC is one of the biggest and most important conferences in EMEA region on Retail Banking, Banking Technologies, Banking Solutions and Finance Technologies.

http://www.ifintec.com/EN/519/Conference/About-Conference.aspx","Calypso Technology, Inc.,Enbiltek,Wacom,Daon,Guardsquare,Hazelcast,NTT DATA,Pio-Tech,Omega Financial SolutionsSponsor List","Eligibility Criteria: Open to industry professionals
Fees: Solution Provider Companies and Corporate Visitors - 900 + VAT
Financial Institution Visitors - 800 + VAT
Government Visitors and Academic Visitors - 800 + VAT
Attendee Registration","Sponsorship packages available
Contact required for further information
Sponsorship Registration",http://ifintec.com/EN/899/Conference/IFINTEC-2018.aspx,,,,,
Conference,"Banking, Finance",Future of Fintech,1 Jun 2020,TBD,11-13 Jun 2019,Jun-21,USA,New York,Tavern on the Green,1900,,https://events.cbinsights.com/future-of-fintech/mpfwmiww?utm_medium=email&utm_source=fintechweeklycom,+1 212-292-3148,info@cbinsights.com,"Exclusive Gathering of the World's Largest Financial Institutions and Most Active Venture Investors

The Future of Fintech is where financial services giants, fintech startups and VC Investors from around the world come together to define the future of financial services. 

https://events.cbinsights.com/future-of-fintech/mpfwmiww?utm_medium=email&utm_source=fintechweeklycom",,"Eligibility Criteria: Open to industry professionals
Fees: Banks/Brokerage/Insurance/Investor/VC - $2.495
Fintech Startup - $1.995
Service Provider - $3.495
Nonprofit/Government - $1.995",,,https://www.cbinsights.com/research/conference/future-of-fintech-2018/,https://www.facebook.com/cbinsights,,https://www.linkedin.com/company/1140722,https://twitter.com/cbinsights
Trade Show & Conference,"Banking, Finance",Intelligent Automation Week Chicago,5 Aug 2019-8 Aug 2019,08:00 AM - 06:15 PM (5 Aug 2019)|08:00 AM - 06:00 PM (6 Aug 2019-7 Aug 2019)|08:15 AM - 03:00 PM (8 Aug 2019),30 Jul-2 Aug 2018,Jul-Aug 2020,USA,Chicago,Sheraton Grand,400,44,https://www.aiia.net/events-intelligentautomation-chicago,+1 800 882 8684,enquiry@iqpc.com,"Building the Intelligent Enterprise

Bringing together a speaker faculty of 95% new faces with new insights, ideas, and content to share, you cant miss out on this chance to take your IA program to the next level. From IT to contact centers, from organizations with advanced IA strategies in play to those who are just starting out, our customizable program allows you to create an unique experience you won't get at any other Intelligent Automation event.

https://www.aiia.net/events-intelligentautomation-chicago/landing/about-the-ia-rpa-series-of-events","Agilify,Avasant,Chazey Partners,ComTec Information Systems,Fortress IQ,HCL Technologies Ltd.,Indico,Intradiem,Kryon Systems,Miracle Software Systems,Parascript,Royal Cyber,Signavio,UiPath,WorkFusion,SoftwareAG,ScottMadden,NTT Advanced Technology Co. Ltd.,Lanshore,KnowledgeLake","Eligibility Criteria: Open to industry professionals
Fees: Primary
2 Day Pass - $2.999
3 Day Pass - $3.999
4 Day Pass - $4.499
One Workshop - $589
Man & Machine Day - $999
Vendors
Main Conference - $4.299
One Workshop - $589
Student Package - $999
enquiryiqpc@iqpc.com
Attendee Registration","Sponsorship Fees: Contact required for further information
Exhibitor Fees: Contact required for further information
Sponsor & Exhibitor Registration",,https://www.youtube.com/channel/UCKzOM5kosc2Mx9D6lXsKoaA,https://www.facebook.com/AIIA.net/,,https://www.linkedin.com/groups/7053197,https://twitter.com/IA_Talk
Conference,"Banking, Finance",Ai4 Finance,21 Aug 2019-22 Aug 2019,09:00 AM - 06:30 PM (21 Aug 2019)|09:00 AM - 06:00 PM (22 Aug 2019),21-Aug-18,Aug-20,USA,New York,Convene,400,,https://ai4.io/finance/,,info@ai4.io,"Gathering of Finance Professionals to Discuss  AI and Machine Learning Practices in Business

Over two days, the Ai4 Finance conference brings together business leaders and data practitioners to facilitate the adoption of artificial intelligence and machine learning technologies.

https://ai4.io/finance/#topics",,"Eligibility Criteria: Open to industry professionals
Fees: $1.495
Attendee Registration",,,,https://www.facebook.com/Ai4-170676786976718/?ref=br_rs,https://www.instagram.com/ai4conferences/,https://www.linkedin.com/company/ai4/,https://twitter.com/Ai4Conferences?lang=en
Conference,"Banking, Finance",FiNext Awards & Conference,29 Aug 2019-30 Aug 2019,08:45 AM - 05:20 PM (29 Aug 2019)|09:00 AM - 05:20 PM (30 Aug 2019),25-26 Oct 2018,TBD,USA,Orlando,Hyatt Regency Grand Cypress,,,https://finextcon.com/?utm_medium=email&utm_source=fintechweeklycom,+1 702 621 6157,contact@finextcon.com,"Global Platform for the Global Sector

FiNext Awards & Conference provides a platform for the global FinTech sector, allowing start-ups, SMEs, incumbent tech providers, investors, financial institutions and other stakeholders to connect and interact under one roof. In addition to the conference, FiNext Tech Awards acknowledge the efforts of FinTech thought leaders, torchbearers of the industry.

https://finextcon.com/",,"Eligibility Criteria: Open to industry professionals
Fees: Conference Delegate Pass - $1.099
Group Delegate Pass - $3.999
Startup Pitch Competition - $400
Investor Pass - $599
Attendee Registration","Contact required for further information
Exhibitor & Partnership Registration",,https://www.youtube.com/channel/UCWH3kkvQFfbsx8oIP0S4tYQ,https://www.facebook.com/FiNext-Tech-Awards-Conference-550792608637402/,https://www.instagram.com/finextcon/,https://www.linkedin.com/company/finext-tech-conference/,https://twitter.com/finextcon
Conference,"Banking, Finance",Finext Conference Singapore,25 Apr 2019-26 Apr 2019,08:45 AM - 05:20 PM (25 Apr 2019)|09:00 AM - 05:00 PM (26 Apr 2019),,TBD,Singapore,,Marina Bay Sands,,,https://finextcon.com/finext-singapore-2019/#1517452311859-82fa1134-a860,+1 702 621 6157,contact@finextcon.com,"Gathering of Global Brains to Discuss the Trends in Finance and Bringing the Future Together

FiNext Awards & Conference provides a platform for the global FinTech sector, allowing start-ups, SMEs, incumbent tech providers, investors, financial institutions and other stakeholders to connect and interact under one roof.

https://finextcon.com/finext-singapore-2019/",,"Eligibility Criteria: Open to  industry professionals
Fees: Contact required for further information","Contact required for further information
Exhibitor & Partnership Registration",,https://www.youtube.com/channel/UCWH3kkvQFfbsx8oIP0S4tYQ,https://www.facebook.com/FiNext-Tech-Awards-Conference-550792608637402/,https://www.instagram.com/finextcon/,https://www.linkedin.com/company/finext-tech-conference/,https://twitter.com/finextcon
Conference,"Banking, Finance",Culture and Conduct in Financial Services,5 Sep 2019,09:00 AM - 01:00 PM,,TBD,United Kingdom,London,,,,https://www.westminsterforumprojects.co.uk/conference/culture-and-conduct-in-financial-services-19?utm_medium=email&utm_source=fintechweeklycom,+44 1344 864796,info@forumsupport.co.uk,"The Future for Culture and Conduct in Financial Services

This seminar will discuss the future for culture and conduct in financial services - looking in particular at regulatory changes, working practices and latest thinking on creating healthy work cultures in financial services.

https://www.westminsterforumprojects.co.uk/conference/culture-and-conduct-in-financial-services-19?utm_medium=email&utm_source=fintechweeklycom",,"Eligibility Criteria: Open to industry professionals
Fees: 230 + VAT
Attendee Registration",,,,,,,
Trade Show & Conference,"Banking, Finance",AI in Finance Summit,5 Sep 2019-6 Sep 2019,09:00 AM - 05:00 PM (5 Sep 2019)|09:00 AM - 03:30 PM (6 Sep 2019),6-7 Sep 2018,Sep-20,USA,New York,The Convene,400,,https://www.re-work.co/events/ai-in-finance-summit-new-york-2019?utm_source=FintechWeekl&utm_medium=listing&utm_campaign=FintechWeekly_listing_ai_fin_ny_19,,hello@re-work.co,"Leading Event on the Practices of AI Tech in Finance

Discover advances in AI & machine learning tools and techniques from the world's leading innovators across industry, research and the financial sector.

https://www.re-work.co/events/ai-in-finance-summit-new-york-2019","SumUp Analytics,Galaxy.AI,Introhive","Eligibility Criteria: Open to industry professionals
Fees: Standard Pass - $1.495
Standard Pass Plus - $1.895
Startup Pass - $1.095
Startup Pass PLUS - $1.295
Day 2 Pass - $795
Student/Academic Pass - $495
Student/Academic Pass PLUS
Attendee Registration","Sponsorship opportunities available
Contact required for further information
Sponsorship Registration",,https://www.youtube.com/user/teamrework,https://www.facebook.com/teamrework,https://www.instagram.com/teamrework/,https://www.linkedin.com/company/re-work/,https://twitter.com/teamrework
Conference,"Banking, Finance",Boston Fintech Week,9 Sep 2019-12 Sep 2019,08:00 AM - 06:30 PM,10-14 Sep 2018,Sep-20,USA,Boston,Various locations in Downton Boston,2000,,https://bostonfintechweek2019.splashthat.com/,,BostonFinTechWeek@FinTechSandbox.org,"The Driving Force Behind the Future of Fintech

Boston FinTech Week events cover all major sectors within financial services, and are always free and open to everyone! This weeklong celebration of FinTech highlights of efforts of startups, institutions, data providers, venture capitalists, universities, and more.

https://bostonfintechweek2019.splashthat.com/",,"Eligibility Criteria: Open to industry professionals
Fees: Free","Sponsorship opportunities available
Contact required for further information
BostonFinTechWeek@FinTechSandbox.org",,,,,https://www.linkedin.com/company/fintech-sandbox/,https://twitter.com/FinTechSandbox
Conference,"Banking, Finance",The AML Forum Frankfurt,12 Sep 2019,08:45 AM - 05:15 PM,,TBD,Germany,Frankfurt,Frankfurt Marriott Hotel,,,https://finance.transformindustries.com/events/aml-forum-frankfurt/,+44 1273 806484,,"An estimated 2.5 percent of world GDP is laundered money.

The AML Forums is a series of boutique, peer-to-peer, executive events. Each session benchmarks best practice, explores why banks struggle with financial crime, and discusses whats needed to force a step change in the industry  reducing exposure to money laundering itself, and to the financial penalties.

https://finance.transformindustries.com/events/aml-forum-frankfurt/",,"Eligibility Criteria: Open to industry professionals
Fees: Contact required for pricing information
Attendee Registration","Sponsorship opportunities available
Contact required for further information
Sponsorship Registration",,https://www.youtube.com/channel/UCi4n4KC9LbnjKvnPDzE4lUw,https://www.facebook.com/TransformFinance,https://www.instagram.com/transformfinance/,https://www.linkedin.com/company/transform-industries/,https://twitter.com/TformFinance
Conference,"Banking, Finance",The Banking Cyber Security Forum London,18 Jun 2019,09:00 AM - 05:00 PM,,TBD,United Kingdom,London,CCT Venues,,,https://finance.transformindustries.com/events/banking-cyber-security-forum-london/,+44 1273 806484,,"Secure and Open Banking

The Banking Cyber Security Forum is an exclusive, top flight event exclusively for senior banking executives, set to address each of these challenges and opportunities and encourages peer-to-peer conversation via a programme built around conversation opportunities with peers from across the banking sector in Europe.

https://finance.transformindustries.com/events/banking-cyber-security-forum-london/",,"Eligibility Criteria: Open to industry professionals
Fees: Contact required for pricing information
Attendee Registration","Sponsorship opportunities available
Contact required for further information
Sponsorship Registration",,,https://www.facebook.com/TransformFinance,https://www.instagram.com/transformfinance/,https://www.linkedin.com/company/transform-industries/,https://twitter.com/TformFinance
Conference,"Banking, Finance",The Regulatory Reporting Innovation Forum London,17 Oct 2019,08:45 AM - 05:00 PM,,TBD,United Kingdom,London,CCT Venues,,,https://finance.transformindustries.com/events/regulatory-reporting-innovation-forum/,+44 1273 806484,,"Digital Regulatory Reporting Strategy

This one-day forum will define the optimal digital regulatory reporting strategy, and outline the key steps needed to get there. It will also address the latest innovative strategies and technologies that are revolutionising regulatory reporting.

https://finance.transformindustries.com/events/regulatory-reporting-innovation-forum/",,"Eligibility Criteria: Open to industry professionals
Fees: Contact required for pricing information
Attendee Registration","Sponsorship opportunities available
Contact required for further information
Sponsorship Registration",,,https://www.facebook.com/TransformFinance,https://www.instagram.com/transformfinance/,https://www.linkedin.com/company/transform-industries/,https://twitter.com/TformFinance
Conference,"Banking, Finance",The RegTech for AML Forum London,2 May 2019,08:45 AM - 05:00 PM,,TBD,United Kingdom,London,CCT Venues,,,https://finance.transformindustries.com/events/the-regtech-for-aml-forum-london/,+44 1273 806484,,"Tech Solutions for AML

The RegTech for AML Forum is an executive-level event, focused on encouraging peer-to-peer discussion. Each session at the forum benchmarks best practice, explores why banks struggle with financial crime, and discusses whats needed to force a step change in the industry  reducing exposure to money laundering itself, preventing the funding of criminal activity and avoiding financial penalties.

https://finance.transformindustries.com/events/the-regtech-for-aml-forum-london/",,"Eligibility Criteria: Open to industry professionals
Fees: Contact required for pricing information
Attendee Registration","Sponsorship opportunities available
Contact required for further information
Sponsorship Registration",,https://www.youtube.com/channel/UCi4n4KC9LbnjKvnPDzE4lUw,https://www.facebook.com/TransformFinance,https://www.instagram.com/transformfinance/,https://www.linkedin.com/company/transform-industries/,https://twitter.com/TformFinance
Conference,"Banking, Finance",Digital Money Symposium,28 Mar 2019,08:45 AM - 04:15 PM,22-Mar-18,28-Mar-20,United Kingdom,London,Kings Place,,,https://www.citibank.com/icg/sa/digital_symposium/,+44 207 508 7804,Leiana.jones@citi.com,"Tapping into the Flows of the Experience Economy

The day will consist of a series of presentations and panel discussions on a range of global Digital Money topics from academics, policy makers and the rising stars from the FinTech world. It will give you the opportunity to interact with leading players in the industry and your Citi peers.

https://citiglobalevents.com/events/digital-money-symposium-2019/event-summary-037d36c48187455b83e96a79be51b343.aspx?RefID=Digital%20Money%20Symposium%202019",,"Eligibility Criteria: Open to industry professionals
Fees: Contact required for further information
Attendee Registration",,https://custom.cvent.com/27F99940C7624D90A6E2E79253E5C15F/files/event/037d36c48187455b83e96a79be51b343/349af65167f4492e9a13d49104efb30c.pdf,,http://www.facebook.com/citi,http://instagram.com/citi,https://www.linkedin.com/company/citi,http://www.twitter.com/citi
Conference,"Banking, Finance",Fintech Generations,3 Jun 2020-4 Jun 2020,09:00 AM - 07:00 PM,11-12 Jun 2018,Jun-22,USA,Charlotte,TBD,330,,https://www.fintechgenerations.com/,+1 704-879-2506,,"One of the Largest Innovation Fintech Conferences

Join us for one of the premier fintech events in the country. Fintech Generations has featured some of the top speakers from around the world addressing emerging fintech topics such as the growing fintech ecosystem in the Southeast US.

https://www.fintechgenerations.com/",,"Eligibility Criteria: Open to industry professionals
Fees: Standard rate - $499
Attendee Registration","Sponsorship opportunities available
Contact required for further information
mburgarello@qcfintech.co",,https://www.youtube.com/channel/UCZkfOMM5IboacSvxRakf2kQ,https://www.facebook.com/QCFinTech/,https://www.instagram.com/qcfintech/?hl=en,https://www.linkedin.com/company/queen-city-fintech/,https://twitter.com/QCFinTech
Conference,"Banking, Finance",Global Blockchain Forum,16 Aug 2019,08:45 AM - 04:00 PM,27-Jun-18,TBD,China,Hong Kong,,,,https://www.pyramidplatforms.com/event/global-blockchain-forum-2019-the-next-wave-2,+91 966 338 1712,info@pyramidplatforms.com,"The New Wave

This conference aims at presenting the latest up-to-date topics; by lining up able bitcoin, crypotcurrency and fintech experts; who would share their vision; knowledge and key insights. The forum would discuss the opportunities and challenges spurring this new innovation.

https://www.pyramidplatforms.com/event/global-blockchain-forum-2019-the-next-wave-2/#About-us",,"Eligibility Criteria: Open to industry professionals
Fees: Ticket Price - $250
Attendee Registration","Sponsorship Fees: Brand Sponsorship - $1.500
Sponsorship Registration",,https://www.youtube.com/channel/UCRjEnY0z3YfsMoBSS9y4I5A,https://www.facebook.com/PyramidLearningPlatforms/,,https://www.linkedin.com/company/pyramid-learning,https://twitter.com/PyramidLP
Conference,"Banking, Finance",Schroders Private Assets Day,8 May 2019,09:45 AM - 04:00 PM,,TBD,Switzerland,Zurich,Hotel Schweizerhof,,,https://www.schroders.com/en/ch/asset-management/events/conference/schroders-private-assets-day/,+41 44 250 11 11,,"An Event on Substantial Part of Corporate Financials

In order to update you on our efforts and current topics we are launching a new annual conference called Schroders Private Assets Day. The first one will take place on Wednesday 8 May, 2019 and covers asset classes.

https://www.schroders.com/en/ch/asset-management/events/conference/schroders-private-assets-day/",,"Eligibility Criteria: Open to industry professionals
Fees: Contact required for further information",,,,https://www.facebook.com/schroders.careers,,https://www.linkedin.com/company/schroders,https://www.twitter.com/Schroders_Talk
Conference,"Banking, Finance",Liquid Alternatives Roadshow in Zurich,13 Mar 2019,09:00 AM - 12:00 PM,,TBD,Switzerland,Zurich,Schroder Investment Management (Switzerland) AGCentral 2,,,https://www.schroders.com/en/ch/asset-management/events/conference/liquid-alternatives-roadshow-in-zurich/,+41 44 250 11 11,,"Get Prepared for the Challenging Marketing Environment

During the roadshow, the experts will be examining the opportunities that lie within the liquid alternatives universe as well as how they can be applied to build portfolios fit to withstand the challenging market environment ahead.

https://www.schroders.com/en/ch/asset-management/events/conference/liquid-alternatives-roadshow-in-zurich/",,"Eligibility Criteria: Open to industry professionals
Fees: Contact required for further information",,,,https://www.facebook.com/schroders.careers,,https://www.linkedin.com/company/schroders,https://www.twitter.com/Schroders_Talk
Conference,"Banking, Finance",Liquid Alternatives Roadshow in Lugano,11 Mar 2019,02:45 PM - 06:00 PM,,TBD,Switzerland,Lugano,Hotel Lugano Dante,,,https://www.schroders.com/en/ch/asset-management/events/conference/liquid-alternatives-roadshow-in-lugano2/,+41 44 250 11 11,,"Get Prepared for the Challenging Marketing Environment

During the roadshow, the experts will be examining the opportunities that lie within the liquid alternatives universe as well as how they can be applied to build portfolios fit to withstand the challenging market environment ahead.



https://www.schroders.com/en/ch/asset-management/events/conference/liquid-alternatives-roadshow-in-lugano2/",,"Eligibility Criteria: Open to industry professionals
Fees: Contact required for further information",,,,https://www.facebook.com/schroders.careers,,https://www.linkedin.com/company/schroders,https://www.twitter.com/Schroders_Talk
Conference,"Banking, Finance",Schroder ImmoInvest Forum,22 Nov 2018,09:00 AM - 06:00 PM,23-Nov-17,Nov-20,Switzerland,Zurich,Landesmuseum,,,https://www.schroders.com/de/ch/asset-management/insights/15.-schroder-immoinvest-forum-2018/,+41 44 250 11 11,,"How can investors successfully achieve their investment objectives in the current market environment?

This question was discussed at the Schroder ImmoInvest Forum on November 22, 2018 in Zurich. Roger Hennig, Head of Real Estate Investments Switzerland, Germany & Nordics at Schroders, led the evening and discussed with Martin J. Brhl (CIO, Union Investment), Arno Kneubhler (CEO, Procimmo), Heidi Schmidtke (Executive Vice President, JLL ) and Cornel Widmer (Head of Global Real Estate, Zurich Insurance Group), whether niche markets, value-adding strategies and internationalization can be solutions in today's challenging market environment.

https://www.schroders.com/de/ch/asset-management/insights/15.-schroder-immoinvest-forum-2018/",,"Eligibility Criteria: Open to industry professionals
Fees: Contact required for further information",,,,https://www.facebook.com/schroders.careers,,https://www.linkedin.com/company/schroders,https://www.twitter.com/Schroders_Talk
Conference,"Banking, Finance",UBS European Compass,12 Nov 2019-13 Nov 2019,09:00 AM - 12:00 PM,13-14 Nov 2018,Nov-20,United Kingdom,London,The Landmark London Hotel,90,,https://www.ubs.com/global/en/investment-bank/conferences/global.html,,kim.acons@ubs.com,"Annual Meeting on Investment Strategies

An important annual gathering of over 90 European CEOs and features presentations, panel discussions, lively debates, a full programme of one-on-one, small group meetings and unique networking opportunities.

https://www.ubs.com/global/en/investment-bank/conferences/global.html",,"Eligibility Criteria: Open to industry professionals
Fees: Contact required for further information",,,,,,,
Conference,"Banking, Finance",APAC Hedge Fund Leaders Conference,30 Oct 2019,09:00 AM - 06:00 PM,,Oct-20,China,Hong Kong,UBS Hong Kong offices,,,https://www.ubs.com/global/en/investment-bank/conferences/global.html,,elodie.coscas@ubs.com,"Annual Gathering of Impactful Hedge Fund Professionals

The conference will feature prominent speakers from the hedge fund industry with topical panel discussions and breakout sessions, as well as peer networking opportunities.

https://www.ubs.com/global/en/investment-bank/conferences/global.html",,"Eligibility Criteria: Open to industry professionals
Fees: Contact required for further information",,,,,,,
Conference,"Banking, Finance",Global Hedge Fund Conference,13 Nov 2018,08:00 AM - 12:00 PM,15-Nov-18,Nov-20,United Kingdom,London,The Landmark London Hotel,50,,https://www.ubs.com/global/en/investment-bank/conferences/global.html,,katie.wingfield@ubs.com,"Global Event on Hedge Funds

This one-day programme will feature opportunities to interact with portfolio managers from approximately 50 hedge funds, as well as breakfast and luncheon panel discussions. There will be a keynote speaker reception to end the day.

https://www.ubs.com/global/en/investment-bank/conferences/global.html",,"Eligibility Criteria: Open to industry professionals
Fees: Contact required for further information",,,,,,,
Conference,"Banking, Finance",UBS India Conference,13 Nov 2019-14 Nov 2019,09:00 AM - 06:00 PM,12-13 Nov 2018,Nov-20,India,Mumbai,,,,https://www.ubs.com/global/en/investment-bank/conferences/global.html,,kaiching.ho@ubs.com,"Flagship Conference on Finance and Economics in India

Now in its fifteenth year, UBS India Flagship Conference to be held on 13-14th November in Mumbai, offers a unique opportunity to meet with fifty curated companies face to face and understand how they are gearing up to face the current slowdown faced the economy and also what their plans are to tap into the new medium term growth opportunities.

https://www.ubs.com/global/en/investment-bank/conferences/global.html",,"Eligibility Criteria: Open to industry professionals
Fees: Contact required for further information",,,,,,,
Conference,"Banking, Finance",Global TMT Conference,9 Dec 2019-11 Dec 2019,07:00 AM - 04:00 PM,12-14 Nov 2018,Nov-Dec 2020,USA,New York,New York Hilton Midtown,,,https://www.ubs.com/global/en/investment-bank/conferences/global.html,,virnalisa.finder@ubs.com,"Global Conference on Banking

Thought leading UBS analysts and banking teams across the tech, media and telecom sectors will now collaborate to create an unparalleled offering, creating a one-stop shop for investor access to top TMT corporate management and industry experts.

https://www.ubs.com/global/en/investment-bank/conferences/global.html",,"Eligibility Criteria: Open to industry professionals
Fees: Contact required for further information",,,,,,,
Conference,"Banking, Finance",Financial Services :Conference,6 Aug 2019-7 Aug 2019,09:00 AM - 06:00 PM,,Aug-20,USA,Chicago,Waldorf Astoria,40,,https://www.ubs.com/global/en/investment-bank/conferences/global.html,,madeline.hallett@ubs.com,"Financial Services Conference Focusing on FIG Sector

Two-days of one-on-one and group meetings hosted by 40+ corporates within the FIG sector.

https://www.ubs.com/global/en/investment-bank/conferences/global.html",,"Eligibility Criteria: Open to industry professionals
Fees: Contact required for further information",,,,,,,
